X,Y,OBJECTID,BUSLIC_ID,BUSLIC_LOCATION_ID,DEA_FACILITY_OWNER,DEA_FACILITY_NAME,DEA_BUSINESS_CONTACT,DEA_BUSINESS_PHONE,DEA_FACILITY_ADDRESS,DEA_STALLS,FAC_NAME,HRS_MONFRI,HRS_SAT,HRS_SUN,FAC_TYPE,RTE_1HR,RTE_2HR,RTE_3HR,RTE_ALLDAY,DISABLED,OP_NAME,OP_PHONE,OP_PHONE2,OP_WEB,PAYMENT_TYPE,OTHER,WEBNAME,REGIONID,OUTOFSERV,VACANT,STATUS,DATETIME,SIGNID
-122.33519445669458,47.602895658695402,1,669339,692447,SP PLUS CORPORATION,US BANK GARAGE,BILL BEATTIE,2063818552           ,"721 1ST AVE, SEATTLE, WA 98104",503,,6:00am - 9:00pm,10:00am - 2:30am,10:00am - 10:00pm,GARAGE,3,6,9,,7,Central,(206) 624-1755,,http://seattleparking.spplus.com/Seattle-721-1st-Avenue-Parking.html,,N,1ST & COLUMBIA GARAGE,15,Y,361,361,2017-10-01T16:53:07.000Z,G16
-122.331671481449916,47.611947660007885,2,619449,656903,WASHINGTON STATE CONVENTION CENTER - PFD,WASHINGTON STATE CONVENTION CENTER - PFD,JEFF BLOSSER,2066945025           ,"800 CONVENTION PL, SEATTLE, WA 98101-2350",805,Convention Center,5:30am - 12:00am,5:30am - 12:00am,5:30am - 12:00am,GARAGE,5,8,10,29,,,(206) 694-5000,,http://www.wscc.com/parking-directions,,N,CONVENTION CENTER GARAGE,27,N,585,OPEN,2017-10-01T16:51:56.000Z,G9
-122.335884616774976,47.608691611516214,3,623779,660161,REPUBLIC PARKING N W INC,REPUBLIC PARKING #30-103 - PUGET SOUND PLAZA/COBB,GARY BECK,2067834144           ,"1325 4TH AVE, SEATTLE, WA 98101",591,30-103 PS Plaza/Cobb Building,,,,GARAGE,10,13,17,35,,Republic Parking Northwest,,,http://www.rpnw.com/lot/seattle/30-103,,N,PSP/COBB GARAGE,8,N,483,483,2017-10-01T16:51:56.000Z,G7
-122.333076830993107,47.602382261303418,4,0,2000029,,,,,"114 JAMES ST, SEATTLE, WA   98104",435,Butler Garage,6:30am - 10:00pm,10:00am - 2:00am,Closed,GARAGE,4,11.5,,25,11,,,,,,N,BUTLER GARAGE,12,Y,272,262,2017-10-01T16:53:07.000Z,G17
-122.356800620564044,47.633832348449289,5,574596,625137,DIAMOND PARKING SERVICES LLC,DIAMOND PARKING #A826,JONATHAN DIAMOND,2062843100           ,"1600 QUEEN ANNE AV N, SEATTLE, WA   98109",13,,,,,SURFACE LOT,,,,,,,,,http://www.diamondparking.com/find-parking-locations/details/?code=A826,,N,DIAMOND,0,,,,,
-122.356651275955286,47.639807439564464,6,574687,577229,DIAMOND PARKING SERVICES LLC,DIAMOND PARKING #A917,JONATHAN DIAMOND,2062846303           ,"2402 QUEEN ANNE AV N, SEATTLE, WA   98109",95,,,,,SURFACE LOT,,,,,,,,,http://www.diamondparking.com/find-parking-locations/details/?code=A917,,N,DIAMOND,0,,,,,
-122.318097010923964,47.674365422461612,7,519699,584052,DIAMOND PARKING SERVICES LLC,DIAMOND PARKING #WU01,JONATHAN DIAMOND,2062846303           ,"6300 9TH AV NE, SEATTLE, WA   98115",55,Seattle Healing Arts,,,,SURFACE LOT,,,,,,,,,http://www.diamondparking.com/find-parking-locations/details/?code=WU01,,N,DIAMOND,0,,,,,
-122.304879047059742,47.663772475478005,8,624004,660329,REPUBLIC PARKING N W INC,REPUBLIC PARKING #46 - IVY RIDGE APTS,GARY BECK,2067834144           ,"4730 21ST AVE NE, SEATTLE, WA 98105",11,Ivy Ridge,,,,SURFACE LOT,3,3,5,10,,,,,http://www.rpnw.com/lot/seattle/30-046,,N,,,,,,,
-122.318144763257237,47.662550681239956,9,534467,593924,DIAMOND PARKING SERVICES LLC,DIAMOND  #WU09,JONATHAN DIAMOND,2062843100           ,"4550 9TH AV NE, SEATTLE, WA   98105",31,Sundance,,,,SURFACE LOT,,,,,,,,,http://www.diamondparking.com/find-parking-locations/details/?code=WU09,,N,DIAMOND,0,,,,,
-122.328677423138714,47.614502071943761,10,0,2000024,,OLIVETTI BUILDING 41181,, ,,30,OLIVETTI #41181,Self park location,Self park location,Self park location,GARAGE,7,10,10,10,,Standard Parking Plus,(206) 381-8552,,,,N,Standard,,,,,,
-122.318050427856534,47.659170009385541,11,591549,4548,THRIFTY PARK INC,U-PARK #43,KEN JR PHILLIPS,2062849797           ,"4259 ROOSEVELT WY NE, SEATTLE, WA 98015",15,,,,,SURFACE LOT,,,,,,U-Park System,,,,,N,U-PARK,0,,,,,
-122.348651993773984,47.62560217203783,12,575058,4612,THRIFTY PARK INC,U-PARK #108,KEN JR PHILLIPS,2066245353           ,"400 ROY ST, SEATTLE, WA   98109",27,Queen Anne Lot #108,Self park location,Self park location,Self park location,SURFACE LOT,5,5,,10,,U-Park System,(206) 284-9797,,http://www.u-parksystem.com/locations/lot.asp?id=336,,N,U-PARK,0,,,,,
-122.356501487067547,47.620439170256965,13,5515,4600,THRIFTY PARK INC,U-PARK #96,KEN JR PHILLIPS,2066245353           ,"216 QUEEN ANNE AV N, SEATTLE, WA   98109",15,Seattle Center Lot #96,Self park location,Self park location,Self park location,SURFACE LOT,,,,,,U-Park System,(206) 284-9797,,http://www.u-parksystem.com/locations/lot.asp?id=324,,N,U-PARK,0,,,,,
-122.346004430509041,47.61837504652793,14,5503,4594,THRIFTY PARK INC,U-PARK #90,KEN JR PHILLIPS,2062849797           ,"551 DENNY WY, SEATTLE, WA   98109",33,Seattle Center Lot #90,Self park location,Self park location,Self park location,SURFACE LOT,7,7,,,,U-Park System,(206) 284-9797,,http://www.u-parksystem.com/locations/lot.asp?id=318,,N,U-PARK,0,,,,,
-122.357680063822059,47.620135245262475,15,554630,4565,THRIFTY PARK INC,U-PARK #61,KEN JR PHILLIPS,2062849797           ,"200 1ST AV W, SEATTLE, WA   98119",89,Queen Anne Lot 61,Self park location,Self park location,Self park location,GARAGE,,,,,,U-Park System,(206) 284-9797,,,,N,U-PARK,0,,,,,
-122.311820172832228,47.619006173626509,16,658575,684528,ACE PARKING MANAGEMENT INC,ACE PARKING #3270 - GROUP HEALTH CAPITOL HILL,BRYAN COLLINS,6192336624           ,"125 16TH AVE E, SEATTLE, WA 98112",880,Group Health Capitol Hill,6:00am - 9:00pm,Closed,Closed,GARAGE,,,,,,,,,,,N,,,,,,,
-122.317496181182577,47.659170929609843,17,493025,4516,THRIFTY PARK INC,U-PARK #11,KEN JR PHILLIPS,2062849797           ,"4228 ROOSEVELT WY NE, SEATTLE, WA   98105",295,U District Lot #11,,,,SURFACE LOT,5,5,,10,,U-Park System,(206) 284-9797,,http://www.u-parksystem.com/locations/lot.asp?id=255,,N,U-PARK,0,,,,,
-122.344366780306913,47.612498497688698,18,5415,4550,THRIFTY PARK INC,U-PARK #45,KEN JR PHILLIPS,2062849797           ,"2120 1ST AV, SEATTLE, WA   98101",56,Belltown Lot #45,,,,SURFACE LOT,12,12,20,25,,U-Park System,(206) 284-9797,,http://www.u-parksystem.com/locations/lot.asp?id=285,,N,U-PARK,0,,,,,
-122.346817416515833,47.649424650840196,19,5360,4522,THRIFTY PARK INC,U-PARK #17,KEN JR PHILLIPS,2062849797           ,"900 N 34TH ST, SEATTLE, WA   98103",27,Freemont Lot 17,,,,SURFACE LOT,5,5,,10,,U-Park System,(206) 284-9797,,http://www.u-parksystem.com/locations/lot.asp?id=261,,N,U-PARK,0,,,,,
-122.346508791329839,47.648878112753408,20,409156,4570,THRIFTY PARK INC,U-PARK #66,KEN JR PHILLIPS,2066245353           ,"910 N NORTHLAKE WY, SEATTLE, WA   98103",85,Freemont Lot #66,6:00am - 6:00pm,,,SURFACE LOT,7,7,,20,,U-Park System,(206) 284-9797,,http://www.u-parksystem.com/locations/lot.asp?id=301,,N,U-PARK,0,,,,,
-122.348704345307539,47.650666158005684,21,5395,4540,THRIFTY PARK INC,U-PARK #35,KEN JR PHILLIPS,5032344321           ,"720 N 35TH ST, SEATTLE, WA   98103",25,Freemont Lot #35,6:00am - 6:00pm,,,SURFACE LOT,7,7,,10,,U-Park System,(206) 284-9797,,http://www.u-parksystem.com/locations/lot.asp?id=278,,N,U-PARK,0,,,,,
-122.340828834671456,47.613209095478275,22,591548,4546,THRIFTY PARK INC,U-PARK #41,KEN JR PHILLIPS,2062849797           ,"2015 4TH AV, SEATTLE, WA   98121",26,U-Park #41,,,,SURFACE LOT,12,12,15,20,,U-Park System,(206) 284-9797,,http://www.u-parksystem.com/locations/lot.asp?id=366,,N,U-PARK,0,,,,,
-122.333110634833631,47.617354222108503,23,436921,4619,THRIFTY PARK INC,U-PARK  #115,KEN JR PHILLIPS,2066245353           ,"1916 BOREN AV, SEATTLE, WA   98101",49,Denny Triangle Lot #115,,,,SURFACE LOT,7,7,,15,,U-Park System,(206) 284-9797,,http://www.u-parksystem.com/locations/lot.asp?id=340,,N,U-PARK,0,,,,,
-122.323524395452907,47.609718105860068,24,485065,4610,THRIFTY PARK INC,U-PARK #106,KEN JR PHILLIPS,2066245353           ,"1201 MADISON ST, SEATTLE, WA   98104",35,Capitol Hill Lot #106,Self park location,Self park location,Self park location,SURFACE LOT,,,,5,,U-Park System,(206) 284-9797,,http://www.u-parksystem.com/locations/lot.asp?id=334,,N,U-PARK,0,,,,,
-122.346750016508366,47.612675679710279,25,5405,4545,THRIFTY PARK INC,U-PARK #40,KEN JR PHILLIPS,2062849797           ,"2224 WESTERN AV, SEATTLE, WA   98121",88,Belltown Lot #40,,,,SURFACE LOT,12,12,18,20,2,U-Park System,(206) 284-9797,,http://www.u-parksystem.com/locations/lot.asp?id=282,,N,U-PARK,0,,,,,
-122.333799118295872,47.601138242202218,26,5421,4553,THRIFTY PARK INC,U-PARK #48,KEN JR PHILLIPS,2062849797           ,"114 1ST AV N, SEATTLE, WA   98109",74,Seattle Center Lot #48,6am-6pm,Self park location,Self park location,SURFACE LOT,7,7,,12,,U-Park System,(206)284-9797,,http://www.u-parksystem.com/locations/lot.asp?id=287,,N,U-PARK,0,,,,,
-122.322357821768676,47.611805665842084,27,372,308,THE POLYCLINIC A PROFESSIONAL CORP,POLYCLINIC PARKING,DAVID GILBERT,2063291760           ,"1110 BOYLSTON AV, SEATTLE, WA   98101",170,Polyclinic #93,Self park location,Self park location,Self park location,SURFACE LOT,,,,,,U-Park System,(206) 284-9797,,http://www.u-parksystem.com/locations/lot.asp?id=321,,N,POLYCLINIC PARKING,0,,,,,
-122.345093239918228,47.648661672808018,28,5433,4559,THRIFTY PARK INC,U-PARK #55,KEN JR PHILLIPS,2062849797           ,"1000 N NORTHLAKE WY, SEATTLE, WA   98103",25,Freemont Lot #55,6:00am - 6:00pm,,,SURFACE LOT,7,7,,10,,U-Park System,(206) 284-9797,,http://www.u-parksystem.com/locations/lot.asp?id=293,,N,U-PARK,0,,,,,
-122.322621340260781,47.612165347399028,29,474225,4595,THRIFTY PARK INC,U-PARK #91,KEN JR PHILLIPS,2066245353           ,"1140 BOYLSTON AV, SEATTLE, WA   98122",26,Capitol Hill Lot #91,,,,SURFACE LOT,7,7,10,12,,U-Park System,(206) 284-9797,,http://www.u-parksystem.com/locations/lot.asp?id=319,,N,U-PARK,0,,,,,
-122.322357821768676,47.611805665842084,30,420622,4598,THRIFTY PARK INC,U-PARK #94,KEN JR PHILLIPS,2066245353           ,"1110 BOYLSTON AV, SEATTLE, WA   98101",98,Seattle First Baptist Church Lot #94,,,,SURFACE LOT,,,,15,,U-Park System,(206) 284-9797,,http://www.u-parksystem.com/locations/lot.asp?id=322,,N,U-PARK,0,,,,,
-122.325430337600835,47.59970387139672,31,5481,4583,THRIFTY PARK INC,U-PARK #79,KEN JR PHILLIPS,2062849797           ,"313 MAYNARD AV S, SEATTLE, WA   98104",47,Interational District Lot #79,6am-6pm,Self park location,Self park location,SURFACE LOT,7,7,,12,,U-Park System,(206) 284-9797,,http://www.u-parksystem.com/locations/lot.asp?id=311,,N,U-PARK,0,,,,,
-122.35024113917838,47.649422059093908,32,435185,4557,THRIFTY PARK INC,U-PARK #52,KEN JR PHILLIPS,2062847979           ,"601 N 34TH ST, SEATTLE, WA   98103",56,Freemont Lot #52,,,,SURFACE LOT,3,3,,10,11,U-Park System,(206) 284-9797,,http://www.u-parksystem.com/locations/lot.asp?id=291,,N,U-PARK,0,,,,,
-122.358434336311859,47.625907192313797,33,5483,4584,THRIFTY PARK INC,U-PARK #80,KEN JR PHILLIPS,2062849797           ,"100 W ROY ST, SEATTLE, WA   98109",50,On The Boards,,,,SURFACE LOT,7,7,,12,1,U-Park System,(206) 284-9797,,http://www.u-parksystem.com/locations/lot.asp?id=312,,N,U-PARK,0,,,,,
-122.33027893406161,47.605729409119924,34,658620,684560,ABM ONSITE SERVICES WEST INC,ABM PARKING #6141,YONAS AHMED,2062670446           ,"800 5TH AVE, SEATTLE, WA 98104",496,,,,,,,,,,,,,,,,N,800 5th Ave GARAGE,26,N,457,457,2017-10-01T16:51:56.000Z,G23
-122.340793400693428,47.612736715583949,35,5409,4547,THRIFTY PARK INC,U-PARK #42,KEN JR PHILLIPS,2062849797           ,"2000 3RD AV, SEATTLE, WA   98121",26,Belltown Lot #42,,,,SURFACE LOT,12,12,15,20,1,U-Park System,(206) 284-9797,,http://www.u-parksystem.com/locations/lot.asp?id=283,,N,U-PARK,0,,,,,
-122.354893173668827,47.651783673253519,36,5473,4579,THRIFTY PARK INC,U-PARK #75,KEN JR PHILLIPS,2062849797           ,"166 N 35TH ST, SEATTLE, WA   98103",22,Freemont Lot #35,,,,SURFACE LOT,7,7,,10,,U-Park System,(206) 284-9797,,http://www.u-parksystem.com/locations/lot.asp?id=307,,N,U-PARK,0,,,,,
-122.345311064783829,47.61581653370628,37,418159,4601,THRIFTY PARK INC,U-PARK #97,KEN JR PHILLIPS,2066245353           ,"2335 4TH AV, SEATTLE, WA   98121",30,Downtown lot #97,,,,SURFACE LOT,,,,,,U-Park System,(206) 284-9797,,http://www.u-parksystem.com/locations/lot.asp?id=325,,N,U-PARK,0,,,,,
-122.351582169095806,47.649634106097267,38,466190,4562,THRIFTY PARK INC,U-PARK #58,KEN JR PHILLIPS,2062849797           ,"501 N 34TH ST, SEATTLE, WA   98103",60,Freemont Lot #62,,,,SURFACE LOT,,,,,,U-Park System,(206) 284-9797,,http://www.u-parksystem.com/locations/lot.asp?id=298,,N,U-PARK,0,,,,,
-122.325484553287865,47.63923819002369,39,5372,4528,THRIFTY PARK INC,U-PARK #23,KEN JR PHILLIPS,2062849797           ,"2238 EASTLAKE AV E, SEATTLE, WA   98102",20,Eastlake Lot #23,6:00am - 6:00pm,,,SURFACE LOT,5,5,,7,,U-Park System,(206) 284-9797,,http://www.u-parksystem.com/locations/lot.asp?id=266,,N,U-PARK,0,,,,,
-122.357670567979994,47.619097840338704,40,5397,4541,THRIFTY PARK INC,U-PARK #36,KEN JR PHILLIPS,2066245353           ,"110 1ST AV W, SEATTLE, WA   98119",36,Queen Anne Lot #36,6am-6pm,Self park location,Self park location,SURFACE LOT,7,7,,10,,U-Park System,(206) 284-9797,,http://www.u-parksystem.com/locations/lot.asp?id=279,,N,U-PARK,0,,,,,
-122.341442795211393,47.621076200747318,41,574409,625012,STANDARD PARKING CORP,KC LIBRARY LOT NORTH  81080,BILL BEATTIE,2063818552           ,"301 8TH AV N, SEATTLE, WA   98109",68,KC Library N. - 8th & Harrison,24 Hours,24 Hours,24 Hours,SURFACE LOT,,,,,,Standard Parking Plus,(206) 381-8552,,http://seattleparking.spplus.com/Seattle-KC-Library-N-8th-Ave-Parking.html,,N,8TH & THOMAS LOT,0,,,,,
-122.338073366610786,47.620038680478373,42,648329,677114,SP PLUS CORPORATION,202 WESTLAKE AVE #82220,BILL BEATTIE,2063818552           ,"202 WESTLAKE AVE N, SEATTLE, WA 98109",218,202 Westlake,24 Hours,24 Hours,24 Hours,GARAGE,3.66,4.88,7.32,25.62,,Standard Parking Plus,(206) 624-1755,,http://seattleparking.spplus.com/Seattle-202-Westlake-Parking.html,,N,,,,,,,
-122.338068922914772,47.619208154736171,43,618407,656128,SP PLUS CORPORATION, ROLLIN STREET - AMAZON  LOT#81777,BILL BEATTIE,2063818552           ,"120 WESTLAKE AVE N, SEATTLE, WA 98109",261,Rollin Street Flats,24 Hours,24 Hours,24 Hours,SURFACE LOT,1,6,,22,,Standard Parking Plus,(206) 381-8552,,http://seattleparking.spplus.com/Seattle-Rollin-St-Flats-120-Westlake-N-Parking.html,,N,,,,,,,
-122.335565602364269,47.624056886078762,44,0,2000008,,AMAZON PHASE 3 - 81876,, ,,371,AMAZON PHASE 3 #81876,Self park location,Self park location,Self park location,GARAGE,Permit only,Permit only,Permit only,Permit only,,Standard Parking Plus,(206) 467-1810,,,,N,Standard,,,,,,
-122.338825411610728,47.62497781994211,45,0,2000007,,FOLEY - GREEN  #82018,, ,,21,Foley - Green  #82018,Self park location,Self park location,Self park location,SURFACE LOT,Permit only,Permit only,Permit only,Permit only,,Standard Parking Plus,(206) 381-8552,,,,N,Standard,,,,,,
-122.335603342202532,47.62383388423514,46,591974,637745,STANDARD PARKING CORP,AMAZON 2  81875,BILL BEATTIE,2063818552           ,"500 BOREN AV N, SEATTLE, WA   98109",259,,Self park location,Self park location,Self park location,GARAGE,Permit only,Permit only,,Permit only,,Standard Parking Plus,(206) 623-0244,,,,N,STANDARD,0,,,,,
-122.325000653560608,47.701076725970339,47,585871,633167,STANDARD PARKING CORP,THORTON PLACE GARAGE - LOT 81778,BILL BEATTIE,2066247040           ,"301 NE 100TH ST, SEATTLE, WA   98125",885,Thornton Place,Self park location,Self park location,Self park location,SURFACE LOT,,,,,,Standard Parking Plus,(206) 381-8552 EXT 19,,,,N,THORTON PLACE GARAGE - LOT,0,,,,,
-122.324864048229514,47.608660220234249,48,535907,596076,STANDARD PARKING CORP,CABRINI TOWER GARAGE #81115,BILL BEATTIE,2063818552           ,"1010 MARION ST, SEATTLE, WA   98104",218,Cabrini Tower Garage,7am-8:45pm,8am-4:30pm,closed,GARAGE,4,5,,20,,Standard Parking Plus,(206) 622-7407,,,,N,CABRINI TOWER GARAGE,0,,,,,
-122.333052693566003,47.608420024939242,49,487745,561452,STANDARD PARKING CORP,IBM BUILDING 80787,BILL BEATTIE,2066247040           ,"1200 5TH AV, SEATTLE, WA   98101",158,IBM Garage,7am-1am,10am-1am,2pm-10:30pm,GARAGE,9,12,,35,,Standard Parking Plus,(206) 623-8572,,,,N,IBM BUILDING,0,,,,,
-122.330781700669633,47.620294898632096,50,534398,595266,STANDARD PARKING CORP,ALLEY 24 GARAGE 81174,BILL BEATTIE,206381-855           ,"221 YALE AV N, SEATTLE, WA   98109",368,Alley 24,24 Hours,24 Hours,24 Hours,GARAGE,,,,,,Standard Parking Plus,(206) 340-8860,,http://seattleparking.spplus.com/Seattle-Alley-24-221-Yale-Ave-N-Parking.html,,N,ALLEY 24 GARAGE,0,,,,,
-122.33654449862054,47.617177033607213,51,535841,596043,STANDARD PARKING CORP,STEVE JOHNSON LOT  41119,BILL BEATTIE,2063818552           ,"2030 9TH AV, SEATTLE, WA   98121",36,Steve Johnson Lot,Self park location,Self park location,Self park location,SURFACE LOT,3,3,,15,,Standard Parking Plus,(206) 381-8552,,,,N,STEVE JOHNSON LOT,0,,,,,
-122.338840758995346,47.608702022901063,52,563936,617038,UNITED PARKING SERVICES LLC,UNITED PARKING #4527,JONATHAN DIAMOND,2062843100           ,"1401 2ND AV, SEATTLE, WA   98101",241,Pike Plaza Newmark Garage,6am-7am,9am-7pm,10am-6pm,SURFACE LOT,,,,,3,"United Parking Services, LLC",,,,,N,UNITED,0,,,,,
-122.339947386036783,47.613369307243893,53,587862,634756,UNITED PARKING SERVICES LLC,UNITED PARKING #4504,JONATHAN DIAMOND,2062846303           ,"2024 4TH AV, SEATTLE, WA   98121",204,Warwick Hotel Garage,5:00am - 11:00pm,6:00am - 11:00pm,6:00am - 11:00pm,GARAGE,,,,,,"United Parking Services, LLC",,,http://www.diamondparking.com/find-parking-locations/details/?code=4504,,N,UNITED,0,,,,,
-122.355688665318496,47.614728535319742,54,519470,583927,UNITED PARKING SERVICES LLC,UNITED PARKING #4570,JONATHAN DIAMOND,2062846303           ,"2801 ALASKAN WY, SEATTLE, WA   98121",112,Pier 70 Garage,7:00am - 7:00pm,7:00am - 7:00pm,7:00am - 7:00pm,GARAGE,,,,,,"United Parking Services, LLC",,,http://www.diamondparking.com/find-parking-locations/details/?code=4570,,N,UNITED,0,,,,,
-122.331865173815729,47.604431692442688,55,519468,583925,UNITED PARKING SERVICES LLC,UNITED PARKING #4558/4559,JONATHAN DIAMOND,2062846303           ,"723 4TH AV, SEATTLE, WA   98104",240,4th and Columbia #4558,6am-7pm,CLOSED,CLOSED,GARAGE,18,24,,36,1,"United Parking Services, LLC",(206) 682-7664,,https://secure.diamondparking.com/monthlyParking/location.aspx?id=239,,N,UNITED,0,,,,,
-122.345560129456032,47.611132446298875,56,571195,622436,UNITED PARKING SERVICES LLC,UNITED PARKING #4500,JONATHAN DIAMOND,,"2103 WESTERN AV, SEATTLE, WA   98121",45,Pike Place Market Garage,8:30am-7pm,8:30am-7pm,8:30am-7pm,SURFACE LOT,,,,18,,"United Parking Services, LLC",,,,,N,UNITED,0,,,,,
-122.328766267667973,47.602114085903033,57,533662,594731,UNITED PARKING SERVICES LLC,UNITED PARKING #4507,JONATHAN DIAMOND,2062846303           ,"400 4TH AV, SEATTLE, WA   98104",41,,,,,SURFACE LOT,,,,,2,"United Parking Services, LLC",(206)388-0749,,,,N,UNITED,0,,,,,
-122.332251950397051,47.603108206934031,58,519473,583930,UNITED PARKING SERVICES LLC,UNITED PARKING #4590,JONATHAN DIAMOND,2062846303           ,"213 CHERRY ST, SEATTLE, WA   98104",225,Cherry Street Garage #4590,6am-7pm,CLOSED,CLOSED,GARAGE,11.95,15.53,,20.32,,"United Parking Services, LLC",(206) 682-7664,,,,N,UNITED,0,,,,,
-122.330070944988364,47.619328103485564,59,541987,600950,UNITED PARKING SERVICES LLC,UNITED PARKING #4517,JONATHAN DIAMOND,2062843100           ,"110 YALE AV N, SEATTLE, WA   98109",19,,,,,SURFACE LOT,,,,,,"United Parking Services, LLC",,,http://www.diamondparking.com/find-parking-locations/details/?code=4517,,N,UNITED,0,,,,,
-122.348752566594158,47.614964557104322,60,556886,611878,UNITED PARKING SERVICES LLC,UNITED PARKING #4525,JONATHAN DIAMOND,2060000000           ,"2506 1ST AV, SEATTLE, WA   98101",12,,,,,SURFACE LOT,,,,,,"United Parking Services, LLC",,,http://www.diamondparking.com/find-parking-locations/details/?code=4525,,N,UNITED,0,,,,,
-122.323814597639625,47.619356538899041,61,571196,622438,UNITED PARKING SERVICES LLC,UNITED PARKING #4528,JONATHAN DIAMOND,0000000000           ,"127 BOYLSTON AV E, SEATTLE, WA   98102",29,,,,,SURFACE LOT,,,,,,"United Parking Services, LLC",,,http://www.diamondparking.com/find-parking-locations/details/?code=4528,,N,UNITED,0,,,,,
-122.359429726304398,47.633127877723581,62,457651,76121,REPUBLIC PARKING N W INC,REPUBLIC PARKING #180,GARY BECK,2067834144           ,"1524 2ND AV, SEATTLE, WA   98101",28,,6pm - 6am,24 hours,24 hours,SURFACE LOT,6,6,,12,,Republic Parking Northwest,,,,,N,REPUBLIC,0,,,,,
-122.333927464007715,47.61316535198975,63,556888,611880,UNITED PARKING SERVICES LLC,UNITED PARKING #4547,JONATHAN DIAMOND,2060000000           ,"724 PINE ST, SEATTLE, WA   98101",46,Grand Hyatt Hotel,,,,GARAGE,,,,,,"United Parking Services, LLC",,,,,N,UNITED,0,,,,,
-122.355884135957723,47.619273623169455,64,83112,76130,REPUBLIC PARKING N W INC,REPUBLIC PARKING #515C,GARY BECK,2067834144           ,"121 1ST AV N, SEATTLE, WA   98109",30,,24 hours,24 hours,24 hours,SURFACE LOT,4,4,12,12,1,Republic Parking Northwest,,,http://www.rpnw.com/lot/seattle/30-515C,,N,REPUBLIC,0,,,,,
-122.331492154819401,47.604005227733353,65,519469,583926,UNITED PARKING SERVICES LLC,UNITED PARKING #4560/4561,JONATHAN DIAMOND,2062846303           ,"701 4TH AV, SEATTLE, WA   98104",105,,,,,GARAGE,,,,,3,"United Parking Services, LLC",,,,,N,UNITED,0,,,,,
-122.338167749627118,47.606354762972856,66,541984,600948,UNITED PARKING SERVICES LLC,UNITED PARKING #4518,JONATHAN DIAMOND,2062843100           ,"1221 1ST AV, SEATTLE, WA   98101",635,Harbor Steps Garage,6am-11pm,6am-11pm,6am-11pm,GARAGE,,,,,,"United Parking Services, LLC",,,,,N,UNITED,0,,,,,
-122.353350819073697,47.615657492081496,67,621994,658824,UNITED PARKING SERVICES LLC,UNITED PARKING #4592,JONATHAN DIAMOND,2062843100           ,"2801 WESTERN AVE, SEATTLE, WA 98121",327,,,,,GARAGE,,,,,,"United Parking Services, LLC",,,http://www.diamondparking.com/find-parking-locations/details/?code=4592,,N,,,,,,,
-122.3224855250822,47.613437211268987,68,5342,4513,THRIFTY PARK INC,U-PARK #8,KEN JR PHILLIPS,2062849797           ,"1413 HARVARD AV, SEATTLE, WA   98122",111,Capitol Hill Lot #8,,,,SURFACE LOT,7,7,,12,,U-Park System,(206) 284-9797,,http://www.u-parksystem.com/locations/lot.asp?id=253,,N,U-PARK,0,,,,,
-122.3485039699829,47.625887924058993,69,5382,4533,THRIFTY PARK INC,U-PARK #28,KEN JR PHILLIPS,2062849797           ,"710 4TH AV N, SEATTLE, WA   98109",47,Seattle Center Lot #28,,,,SURFACE LOT,7,7,,10,,U-Park System,(206) 284-9797,,http://www.u-parksystem.com/locations/lot.asp?id=271,,N,U-PARK,0,,,,,
-122.340127745175479,47.621384662396338,70,0,2000016,,ANALYTICAL RESOURCES 81879,, ,,30,Analytical Resources #81879,Self park location,Self park location,Self park location,SURFACE LOT,Permit only,Permit only,Permit only,Permit only,,Standard Parking Plus,(206) 381-8552,,,,N,Standard,,,,,,
-122.339397539401801,47.622871938936242,71,0,2000012,,9TH & REPUBLICAN 81074,, ,,104,9th & Republican #81074,Self park location,Self park location,Self park location,SURFACE LOT,4.9,14.65,14.65,14.65,,Standard Parking Plus,(206) 381-8552,,,,N,Standard,,,,,,
-122.338136879679197,47.621311087735869,72,535878,596062,STANDARD PARKING CORP,TRICK & MURRAY LOT #81095,BILL BEATTIE,2063818552           ,"300 WESTLAKE AV N, SEATTLE, WA   98109",24,Trick & Murray,24 Hours,24 Hours,24 Hours,SURFACE LOT,,,,,,Standard Parking Plus,(206) 381-8552,,http://seattleparking.spplus.com/Seattle-Trick-and-Murray-230-Westlake-N-Parking.html,,Y,TRICK & MURRAY LOT,0,,,,,
-122.318310196923292,47.658211550983822,73,535913,596079,STANDARD PARKING CORP,4225 ROOSEVELT WY NE GARAGE #81124,BILL BEATTIE,2063818552           ,"4225 ROOSEVELT WY NE, SEATTLE, WA   98105",181,Roosevelt Way Garage #81124,6:30am - 7:00pm,Closed,Closed,GARAGE,5,9,,12,,Standard Parking Plus,(206) 545-9401,,,,N,4225 ROOSEVELT WY NE GARAGE,0,,,,,
-122.318300799175162,47.658841604387078,74,535915,596080,STANDARD PARKING CORP,4245 ROOSEVELT WY NE GARAGE #81125,BILL BEATTIE,2063818552           ,"4245 ROOSEVELT WY NE, SEATTLE, WA   98105",205,Roosevelt Way Garage #81125,6:00am - 7:30pm,Closed,Closed,GARAGE,6,7,,12,,Standard Parking Plus,(206) 545-9401,,,,N,4245 ROOSEVELT WY NE GARAGE,0,,,,,
-122.332593480765993,47.619971794759842,75,535896,596069,STANDARD PARKING CORP,SEATTLE TIMES LOT #15 #81110,BILL BEATTIE,2063818552           ,"206 MINOR AV N, SEATTLE, WA   98109",47,Times Lot #15,Self park location,Self park location,Self park location,SURFACE LOT,3,3,,10,,Standard Parking Plus,(206) 381-8552,,,,N,SEATTLE TIMES LOT,0,,,,,
-122.332062312011985,47.61042518799853,76,184688,165552,STANDARD PARKING CORP,TWO UNION SQUARE  LOC 80474 CONSOLIDATED,BILL BEATTIE,2066247040           ,"601 UNION ST, SEATTLE, WA   98101",1031,Union Square Garage,6:00am - 12:00am,8:00am - 1:00am,10:00am - 12:00am,GARAGE,,15,19,35,,Standard Parking Plus,(206) 447-5664,,http://seattleparking.spplus.com/Seattle-Union-Square-601-Parking.html,,N,TWO UNION SQUARE,,,,,,
-122.333297910745955,47.612753530727154,77,535909,596077,STANDARD PARKING CORP,7TH & PIKE HOTEL GARAGE #81117,BILL BEATTIE,2063818552           ,"721 PINE ST, SEATTLE, WA   98101",800,7th & Pike/Hyatt Garage,24 hours,24 hours,24 hours,GARAGE,,10,12,30,,Standard Parking Plus,(206) 642-1451,,http://seattleparking.spplus.com/Seattle-7th-and-Pike-1508-7th-Ave-Parking.html,,N,7TH & PIKE HOTEL GARAGE,,,,,,
-122.326743560014478,47.598975830109744,78,0,2000010,,BANK OF AMERICA INTL BANKING #81963,, ,"525 S JACKSON ST, SEATTLE, WA 98104",34,Bank of America Intl  Banking #81963,Self park location,Self park location,Self park location,SURFACE LOT,Permit only,Permit only,Permit only,Permit only,,Standard Parking Plus,(206) 381-8552,,,,N,Standard,,,,,,
-122.34013531090433,47.613995988688082,79,0,2000017,,CINERAMA LOT 81097,, ,,77,Cinerama #81097,Self park location,Self park location,Self park location,SURFACE LOT,4.9,9.8,12.2,14.65,,Standard Parking Plus,(206) 381-8552,,,,N,Standard,,,,,,
-122.33742010817619,47.625267104939581,80,585873,633169,STANDARD PARKING CORP,CONOCO PHILLIPS LOT 81816,BILL BEATTIE,2066247040           ,"670 TERRY AV N, SEATTLE, WA 98109",166,Conoco Phillips Parking,24 Hours,24 Hours,24 Hours,SURFACE LOT,9.76,9.76,,21.96,,Standard Parking Plus,(206) 381-8552,,http://seattleparking.spplus.com/Seattle-Conoco-Phillips-670-Terry-N-Parking.html,,N,CONOCO PHILLIPS LOT,0,,,,,
-122.336180478965261,47.621784388099861,81,0,2000015,,AMAZON PHASE 4 - 81877,, ,,784,AMAZON PHASE 4 #81877,Self park location,Self park location,Self park location,GARAGE,Permit only,Permit only,Permit only,Permit only,,Standard Parking Plus,(206) 623-2727 EXT 225,,,,N,Standard,,,,,,
-122.337285099218931,47.617825919582451,82,544499,602971,STANDARD PARKING CORP,2200 WESTLAKE GARAGE #81236,BILL BEATTIE,2066247040           ,"2200 WESTLAKE AV, SEATTLE, WA   98121",414,Westlake Garage,6:30am - 11:00pm,6:30am - 1:00am,7:30am - 11:00pm,GARAGE,7.50,11,15.50,43,,Standard Parking Plus,(206) 356-2936,,http://seattleparking.spplus.com/Seattle-Westlake-2200-Parking.html,,N,2200 WESTLAKE GARAGE,0,,,,,
-122.339391055645024,47.620021319215809,83,535874,596061,STANDARD PARKING CORP,9TH & JOHN LOT #81093,BILL BEATTIE,2063818552           ,"200 9TH AV N, SEATTLE, WA   98109",42,220 9th Avenue N. Lot - 9th & John Lot,24 Hours,24 Hours,24 Hours,SURFACE LOT,9.76,9.76,,24.40,,Standard Parking Plus,(206) 381-8552,,http://seattleparking.spplus.com/Seattle-9th-and-John-Parking.html,,N,9TH & JOHN LOT,0,,,,,
-122.331190916330897,47.621488478668731,84,544507,602978,STANDARD PARKING CORP,PEMCO LOT  81210,BILL BEATTIE,2066247040           ,"1255 HARRISON ST, SEATTLE, WA   98109",70,Pemco Lot,6:30am - 9:30pm,7:00am - 8:00pm,7:00am - 8:00pm,SURFACE LOT,5,5,,16,,Standard Parking Plus,,(206) 381-8552,http://seattleparking.spplus.com/pemco-garage.html,,N,PEMCO LOT,0,,,,,
-122.342945984330115,47.618732491465472,85,535849,596049,STANDARD PARKING CORP,DEJA VU LOT (MURATA LOT)  81077,BILL BEATTIE,2063818552           ,"714 DENNY WY, SEATTLE, WA   98109",100,Murata Lot,24 Hours,24 Hours,24 Hours,SURFACE LOT,1.2,2.45,3.65,,,Standard Parking Plus,(206) 381-8552,,http://seattleparking.spplus.com/Seattle-Murata-714-Denny-Way-Parking.html,,N,MURATA LOT,0,,,,,
-122.338841058791502,47.618871676394981,86,592070,637801,STANDARD PARKING CORP,DISCOVERY CENTER LOT 81902,BILL BEATTIE,2062899296           ,"101 WESTLAKE AV N, SEATTLE, WA   98109",26,Discovery Center Lot,24 Hours,24 Hours,24 Hours,SURFACE LOT,3,3,5,,,Standard Parking Plus,(206) 381-8552,,http://seattleparking.spplus.com/Seattle-Discovery-Center-101-Westlake-Ave-N-Parking.html,,N,STANDARD,0,,,,,
-122.336738836293819,47.606137282492469,87,556294,611427,STANDARD PARKING CORP,SECOND & SENECA GARAGE 81396,BILL BEATTIE,2066247040           ,"1191 2ND AV, SEATTLE, WA   98101",392,Second & Seneca Garage,7am - 9pm,CLOSED,CLOSED,GARAGE,10,19,,33,,Standard Parking Plus,(206) 521-2707,,,,N,SECOND & SENECA GARAGE,0,,,,,
-122.337171639886307,47.611924151377458,88,618881,656512,REPUBLIC PARKING N W INC,REPUBLIC PARKING #590 - WESTLAKE CENTER,GARY BECK,2067834144           ,"1601 5TH AVE, SEATTLE, WA 98101",256,Westlate Tower,,,,GARAGE,9,14,16,30,,Republic Parking Northwest,,,http://www.rpnw.com/lot/seattle/30-590,,N,,,,,,,
-122.351409042218393,47.61706439362284,89,550313,607292,REPUBLIC PARKING N W INC,REPUBLIC PARKING #540 - BAY VISTA GARAGE,GARY BECK,2067834144           ,"2815 2ND AV, SEATTLE, WA   98121",163,Bay Vista Garage,6:30am - 6:00pm,CLOSED,CLOSED,GARAGE,3,6,,12,3,Republic Parking Northwest,,,,,N,REPUBLIC,0,,,,,
-122.33776819130965,47.607401442433712,90,558505,613240,REPUBLIC PARKING N W INC,REPUBLIC PARKING #529 - WAMU CENTER,GARY BECK,2067834144           ,"1301 2ND AV, SEATTLE, WA   98101",698,WAMU Center,5:30am-10am,9am-12am,10am-10pm,GARAGE,7,12,,24,25,Republic Parking Northwest,,,,,N,REPUBLIC - WAMU CENTER,0,,,,,
-122.353350819073697,47.615657492081496,91,482340,76137,REPUBLIC PARKING N W INC,REPUBLIC PARKING #588,GARY BECK,2067834144           ,"2801 WESTERN AV, SEATTLE, WA   98121",122,,,,,GARAGE,4,4,,12,1,Republic Parking Northwest,,,,,N,REPUBLIC,0,,,,,
-122.321927605275818,47.608842030150811,92,615042,654008,REPUBLIC PARKING N W INC,REPUBLIC PARKING #572 - SMC BROADWAY GARAGE,GARY BECK,2067834144           ,"747 BROADWAY, SEATTLE, WA 98122",575,,,,,,,,,,,,,,,,N,,,,,,,
-122.33624287699638,47.62180213032515,93,618406,656126,SP PLUS CORPORATION,AMAZON.COM PHASE 4   LOT #82173,BILL BEATTIE,2063818552           ,"345 BOREN AVE N, SEATTLE, WA 98109",784,,,,,,,,,,,,,,,,N,,,,,,,
-122.330273769925611,47.619995847363185,94,685885,584403,SP PLUS CORPORATION,REI GARAGE,BILL BEATTIE,2066247040           ,"222 YALE AVE N, SEATTLE, WA 98109",365,,,,,,,,,,,,,,,,N,,,,,,,
-122.313924487665133,47.613835747786958,95,656366,683119,UNITED PARKING SERVICES LLC,UNITED PARKING #4599,JONATHAN DIAMOND,2062843100           ,"1401 E MADISON ST, SEATTLE, WA 98102",45,,,,,,,,,,,,,,,,N,,,,,,,
-122.342377741866144,47.612455020910822,96,0,2000020,REPUBLIC PARKING NW INC,211 LENORA 81957,, ,"211 LENORA, SEATTLE, WA 98121",102,211 Lenora,Self park location,Self park location,Self park location,GARAGE,,,,,,Republic Parking Northwest,,,http://www.rpnw.com/lot/seattle/30-077,,N,,,,,,,
-122.342847045338985,47.623892477190218,97,544518,602987,STANDARD PARKING CORP,523 DEXTER AV N 81092,BILL BEATTIE,2066247040           ,"525 DEXTER AV N, SEATTLE, WA   98109",16,Bozotronics Lot,24 Hours,24 Hours,24 Hours,SURFACE LOT,Permit only,Permit only,Permit only,Permit only,,Standard Parking Plus,(206) 381-8552,,http://seattleparking.spplus.com/Seattle-Bozotronics-525-Dexter-N-Parking.html,,N,523 DEXTER AV N,0,,,,,
-122.338136879679197,47.621311087735869,98,556292,611425,STANDARD PARKING CORP,WESTLAKE & TERRY GARAGE 81394,BILL BEATTIE,2066247040           ,"320 WESTLAKE AV N, SEATTLE, WA   98109",452,Westlake &Terry,24 Hours,24 Hours,24 Hours,SURFACE LOT,4.88,6.10,,,,Standard Parking Plus,(206) 381-8552,,http://seattleparking.spplus.com/Seattle-320-Westlake-Terry-Parking.html,,N,WESTLAKE & TERRY,0,,,,,
-122.339368869538191,47.623947886363958,99,0,2000025,,MERCER & WESTLAKE 81386,, ,,94,MERCER & WESTLAKE #81386,Self park location,Self park location,Self park location,SURFACE LOT,4.9,14.65,14.65,14.65,,Standard Parking Plus,(206) 381-8552,,,,N,Standard,,,,,,
-122.339083597403956,47.618105135009181,100,585869,633165,STANDARD PARKING CORP,2201 9TH AVENUE LOT 81771,BILL BEATTIE,2066247040           ,"2201 9TH AV, SEATTLE, WA   98121",327,2201 Westlake Parking,6:20am - 10:00pm,10:00am - 10:00pm,11:00am - 8:00pm,GARAGE,7.32,7.32,10.98,42.70,,Standard Parking Plus,(206) 623-2727,,http://seattleparking.spplus.com/Seattle-2201-Westlake-Ave-Parking.html,,N,2201 9TH AVENUE LOT,0,,,,,
-122.336858865571742,47.622309464652496,101,0,2000013,,AMAZON PHASE 1A - 81865,, ,,409,AMAZON PHASE 1A #81865,Self park location,Self park location,Self park location,GARAGE,Permit only,Permit only,Permit only,Permit only,,Standard Parking Plus,(206) 623-3405,,,,N,Standard,,,,,,
-122.3412820105668,47.621031202401774,102,535851,596050,STANDARD PARKING CORP,8TH & THOMAS LOT  81081,BILL BEATTIE,2063818552           ,"301 8TH AV N, SEATTLE, WA   98109",18,KC Library S. - 8th & Thomas,24 Hours,24 Hours,24 Hours,SURFACE LOT,6,6,,15,,Standard Parking Plus,(206) 381-8552,,http://seattleparking.spplus.com/Seattle-KC-Library-S-8th-Ave-Parking.html,,Y,,0,,,,,
-122.322587634027983,47.610741355090582,103,535845,596046,STANDARD PARKING CORP,FIRST HILL PLAZA GARAGE 41134,BILL BEATTIE,2063818552           ,"1300 MADISON ST, SEATTLE, WA   98104",44,First Hill Plaza,24 Hours,24 Hours,24 Hours,SURFACE LOT,7,10,,12,,Standard Parking Plus,(206) 381-8552,,http://seattleparking.spplus.com/Seattle-First-Hill-Plaza-1300-Summit-Parking.html,,N,FIRST HILL PLAZA GARAGE,0,,,,,
-122.334935728551798,47.611252794857904,104,535918,596082,STANDARD PARKING CORP,520 PIKE TOWER GARAGE #81126,BILL BEATTIE,2063818552           ,"520 PIKE ST, SEATTLE, WA   98101",260,520 Pike Garage,6:00am-8:00pm,6:00am-8:00pm,6:00am-8:00pm,GARAGE,8,11,14,30,,Standard Parking Plus,(206) 442-4337,,http://seattleparking.spplus.com/Seattle-520-Pike-Garage-Parking.html,,N,520 PIKE TOWER GARAGE,0,,,,,
-122.327484775812721,47.603303833131818,105,544500,602972,STANDARD PARKING CORP,GOAT HILL GARAGE #81250,BILL BEATTIE,2066247040           ,"415 6TH AV, SEATTLE, WA   98104",824,Goat Hill Garage(#81250),5:30am-9:30pm,CLOSED,CLOSED,GARAGE,12,16,18,,,Standard Parking Plus,(206) 652-0849,,http://seattleparking.spplus.com/Seattle-Goat-Hill-415-6th-Ave-Parking.html,,N,GOAT HILL GARAGE,0,,,,,
-122.332625189514715,47.61902212724106,106,0,2000018,,CITY LIGHT LOT 41841,, ,,115,City Light Lot #41841,Self park location,Self park location,Self park location,SURFACE LOT,3,10,10,10,,Standard Parking Plus,(206) 381-8552,,,,N,Standard,,,,,,
-122.331648373542734,47.606156373417051,107,429465,521166,STANDARD PARKING CORP,901 5TH AVENUE GARAGE 41775,BILL BEATTIE,2065215984           ,"901 5TH AV, SEATTLE, WA 98164",241,901 5th Avenue Garage,7:00am - 7:00pm,8:00am - 1:00pm,Closed,GARAGE,10,13,,35,,Standard Parking Plus,(206) 622-3813,,http://seattleparking.spplus.com/Seattle-901-5th-Ave-Parking.html,,N,,0,,,,,
-122.338088103427282,47.624025576192729,108,0,2000023,,AMAZON PHASE 1B - 81866,, ,,152,AMAZON PHASE 1B #81866,Self park location,Self park location,Self park location,GARAGE,Permit only,Permit only,Permit only,Permit only,,Standard Parking Plus,(206) 623-2727 EXT 225,,,,N,Standard,,,,,,
-122.34569229948508,47.610517934346511,109,594352,639408,REPUBLIC PARKING N W INC,#30-129 LENORA LOT,GARY BECK,2067834144           ,"50 LENORA ST, SEATTLE, WA   98101",53,Lenora,24 hours,24 hours,24 hours,SURFACE LOT,6,6,9,21,3,Republic Parking Northwest,,,http://www.rpnw.com/lot/seattle/30-129,,N,REPUBLIC - LENORA LOT,0,,,,,
-122.348732206489345,47.613173239600819,110,560406,614641,REPUBLIC PARKING N W INC,REPUBLIC PARKING #245 - MARS HILL CHURCH LOT,GARY BECK,2067834144           ,"2333 WESTERN AV, SEATTLE, WA   98121",22,Mars Hill Church,24 hours,24 hours,24 hours,SURFACE LOT,5,5,7,14,,Republic Parking Northwest,,,http://www.rpnw.com/lot/seattle/30-245,,N,REPUBLIC - MARS HILL CHURCH LOT,0,,,,,
-122.346406062715687,47.611930278651506,111,594353,639409,REPUBLIC PARKING N W INC,#30-130 BLANCHARD LOT,GARY BECK,2067834144           ,"50 BLANCHARD ST, SEATTLE, WA   98101",77,Blanchard,,,,GARAGE,,,,,,Republic Parking Northwest,,,http://www.rpnw.com/lot/seattle/30-130,,N,REPUBLIC - BLANCHARD LOT,0,,,,,
-122.34670281369182,47.613843086606387,112,83108,76128,REPUBLIC PARKING N W INC,REPUBLIC PARKING #515A,GARY BECK,2067834144           ,"2312 1ST AV, SEATTLE, WA   98121",56,,24 hours,24 hours,24 hours,SURFACE LOT,8,8,14,20,1,Republic Parking Northwest,,,http://www.rpnw.com/lot/seattle/30-515A,,N,REPUBLIC,0,,,,,
-122.341397239132235,47.607913266311648,113,83092,76120,REPUBLIC PARKING N W INC,REPUBLIC PARKING #54,GARY BECK,2067834144           ,"1422 ALASKAN WY, SEATTLE, WA   98101",147,Hillclimb Garage,10:00am - 6:00pm,9:00am - 8:00pm,9:00am - 6:00pm,GARAGE,3,6,9,18,2,Republic Parking Northwest,,,http://www.rpnw.com/lot/seattle/30-064,,N,HILLCLIMB GARAGE,21,Y,33,33,2017-10-01T16:53:07.000Z,G14
-122.335031282609393,47.615668758896426,114,567023,619330,REPUBLIC PARKING N W INC,REPUBLIC PARKING #135 - 818 STEWART,GARY BECK,2067834144           ,"818 STEWART ST, SEATTLE, WA   98101",225,818 Stewart,6:00am - 7:00pm,Closed,Closed,GARAGE,12,14,18,40,6,Republic Parking Northwest,,,http://www.rpnw.com/lot/seattle/30-135,,N,REPUBLIC - 818 STEWART,0,,,,,
-122.348965255377934,47.612336589957152,115,83122,76135,REPUBLIC PARKING N W INC,REPUBLIC PARKING #28,GARY BECK,2067834144           ,"9 Wall Street, SEATTLE, WA   98121",1511,30-028 Bell Street Pier Garage,6:00am - 12:00am,6:00am - 1:00am,6:00am - 12:00am,GARAGE,5,8,12,22,14,Republic Parking Northwest,(206) 443-1793,,http://www.rpnw.com/lot/seattle/30-028,,N,BELL ST PIER,18,N,1275,1275,2017-10-01T16:51:56.000Z,G13
-122.335803062562491,47.615394739211574,116,598646,642344,REPUBLIC PARKING N W INC,REPUBLIC #30-136,GARY BECK,2067834144           ,"1918 8TH AV, SEATTLE, WA   98101",402,1918 Eighth,6:00am - 7:00pm,6:00am - 7:00pm,6:00am - 7:00pm,GARAGE,12,14,18,40,,Republic Parking Northwest,,,http://www.rpnw.com/lot/seattle/30-136,,N,REPUBLIC,0,,,,,
-122.347206717043377,47.619575773477145,117,426748,519375,REPUBLIC PARKING N W INC,REPUBLIC PARKING #159 & 160,GARY BECK,2067834144           ,"130 5TH AV N, SEATTLE, WA   98109",37,,24 hours,24 hours,24 hours,SURFACE LOT,7,7,10,18,1,Republic Parking Northwest,,,http://www.rpnw.com/lot/seattle/30-160,,N,REPUBLIC,0,,,,,
-122.353851568767354,47.616344863315611,118,553015,608878,REPUBLIC PARKING N W INC,REPUBLIC PARKING #137 - OLYMPIC SCULPTURE PARK,GARY BECK,2067834144           ,"2901 WESTERN AV, SEATTLE, WA   98121",51,Olympic Sculpture Park,24 hours,24 hours,24 hours,,6,6,8,22,,Republic Parking Northwest,,,http://www.rpnw.com/lot/seattle/30-137,,N,REPUBLIC - OLYMPIC SCULPTURE PARK,0,,,,,
-122.34994748157726,47.623243551872442,119,591976,637746,REPUBLIC PARKING N W INC,REPUBLIC PARKING #30-562  MEMORIAL STADIUM,GARY BECK,2067834144           ,"401 5TH AV N, SEATTLE, WA   98109",265,Memorial Stadium,24 hours,24 hours,24 hours,SURFACE LOT,10,12,17,25,6,Republic Parking Northwest,,,http://www.rpnw.com/lot/seattle/30-562,,N,REPUBLIC,0,,,,,
-122.346301266848357,47.61407606373421,120,479052,555353,REPUBLIC PARKING N W INC,REPUBLIC PARKING #27,GARY BECK,2067834144           ,"2311 2ND AV, SEATTLE, WA   98121",20,,24 hours,24 hours,24 hours,SURFACE LOT,6,6,9,15,,Republic Parking Northwest,,,http://www.rpnw.com/lot/seattle/30-027,,N,REPUBLIC,0,,,,,
-122.359653051469891,47.624974417854467,121,83084,76116,REPUBLIC PARKING N W INC,REPUBLIC PARKING #133 - QUEEN ANNE SQUARE,GARY BECK,2067834144           ,"200 W MERCER ST, SEATTLE, WA 98119",278,,6:30am - 6:30 pm,,,GARAGE,5,7,10,20,,,,,http://www.rpnw.com/lot/seattle/30-133,,N,,,,,,,
-122.334855568073763,47.625155296498619,122,594262,639334,STANDARD PARKING CORP,CASTLE LOT 81926,BILL BEATTIE,2062899296           ,"613 FAIRVIEW AV N, SEATTLE, WA   98109",29,Castle Superstore Parking,24 Hours,24 Hours,24 Hours,SURFACE LOT,9.76,9.76,,21.96,,,,,http://seattleparking.spplus.com/Seattle-Castle-Superstore-613-Fairview-N-Parking.html,,Y,STANDARD,0,,,,,
-122.347936900056624,47.626101645132636,123,637419,669636,DIAMOND PARKING SERVICES LLC,DIAMOND PARKING #A424,JONATHAN DIAMOND,2062843100           ,"785 5TH AVE N, SEATTLE, WA 98109",50,,,,,SURFACE LOT,,,,,,,,,http://www.diamondparking.com/find-parking-locations/details/?code=A424,,N,,,,,,,
-122.355809145170014,47.624854699148628,124,690770,582911,UNITED PARKING SERVICES LLC,UNITED PARKING #4513,JONATHAN DIAMOND,2062846303           ,"14 MERCER ST, SEATTLE, WA 98109",61,,,,,,,,,,,,,,http://www.diamondparking.com/find-parking-locations/details/?code=4513,,N,,,,,,,
-122.342010254153678,47.612297034632945,125,457654,76129,REPUBLIC PARKING N W INC,REPUBLIC PARKING #176,GARY BECK,2067284457           ,"2012 2ND AV, SEATTLE, WA   98101",45,Commodore Garage,24 hours,24 hours,24 hours,GARAGE,6,6,9,18,,Republic Parking Northwest,,,http://www.rpnw.com/lot/seattle/30-176,,N,REPUBLIC,0,,,,,
-122.359702243335704,47.624116367858562,126,83162,76155,REPUBLIC PARKING N W INC,REPUBLIC PARKING #515F,GARY BECK,2067834144           ,"525 2ND AV W, SEATTLE, WA   98119",30,,24 hours,24 hours,24 hours,SURFACE LOT,3,3,,10,1,Republic Parking Northwest,,,http://www.rpnw.com/lot/seattle/30-515F,,N,REPUBLIC,0,,,,,
-122.337453290310364,47.610221383439345,127,544792,603197,REPUBLIC PARKING N W INC,REPUBLIC PARKING #534,GARY BECK,2067834144           ,"1501 4TH AV, SEATTLE, WA 98101",264,Century Square,7:00am - 10:00pm,9:00am - 10:00pm,10:00am - 8:00pm,GARAGE,8,13,17,29,,Republic Parking Northwest,,,http://www.rpnw.com/lot/seattle/30-534,,N,REPUBLIC,0,,,,,
-122.338694215618474,47.60515678273601,128,83088,76118,REPUBLIC PARKING N W INC,REPUBLIC PARKING #52,GARY BECK,2067834144           ,"1101 WESTERN AV, SEATTLE, WA   98101",132,,24 hours,24 hours,24 hours,SURFACE LOT,8,16,24,36,1,Republic Parking Northwest,,,http://www.rpnw.com/lot/seattle/30-062,,N,REPUBLIC,0,,,,,
-122.339466042944437,47.61100693488423,129,523815,587227,REPUBLIC PARKING N W INC,REPUBLIC PARKING #526,GARY BECK,2067834144           ,"1619 3RD AVE, SEATTLE, WA 98101",754,3rd and Stewart Garage,5:30am - 12:00am,7:00am - 12:00am,9:00am - 8:00pm,GARAGE,8,14,18,36,14,Republic Parking Northwest,(206) 783-4144,,http://www.rpnw.com/lot/seattle/30-071,,N,3RD & STEWART,6,N,553,553,2017-10-01T16:51:56.000Z,G3
-122.344858808837614,47.610824461123009,130,643704,673394,REPUBLIC PARKING N W INC,REPUBLIC PARKING #30-593 MARKET PLACE GARAGE,GARY BECK,2067834144           ,"65 LENORA ST, SEATTLE, WA 98121",412,Market Place Garage,5:30am - 12:30am,7:00am - 1:30am,8:00am - 11:30pm,GARAGE,6,16,18,26,,Republic Parking Northwest,(206) 787-1266,,http://www.rpnw.com/lot/seattle/30-593,,N,,,,,,,
-122.337946194585157,47.608755746773568,131,638895,670321,REPUBLIC PARKING N W INC,REPUBLIC PARKING #30-592  2ND & UNION GARAGE,GARY BECK,2067834144           ,"1400 2ND AVE, SEATTLE, WA 98101",506,30-592 2nd and Union,6:00am - 12:00am,8:00am - 2:00am,8:00am - 2:00am,GARAGE,6,12,17,26,,Republic Parking Northwest,(206) 264-8444,,http://www.rpnw.com/lot/seattle/30-592,,N,,,,,,,
-122.313149162946772,47.615060734515168,132,648225,677040,UNITED PARKING SERVICES LLC,UNITED PARKING LOT 4596,JONATHAN DIAMOND,2062843100           ,"1527 15TH AVE, SEATTLE, WA 98112",12,,,,,,,,,,,,,,,,N,,,,,,,
-122.355894366403277,47.623001008018733,133,618176,655973,UPTOWN OFFICES LLC,UPTOWN OFFICES LLC,HEATHER KROLL,2068595030           ,"415 1ST AVE N # 200, SEATTLE, WA 98109-4744",140,,,,,,,,,,,,,,,,N,,,,,,,
-122.328261274346573,47.584203594782338,134,14403,12580,PACIFIC COAST FEATHER CO INC,PACIFIC COAST FEATHER COMPANY,,2063362253           ,"1964 4TH AVE S, SEATTLE, WA 98134",85,,,,,,,,,,,,,,,,N,,,,,,,
-122.320133088226925,47.607784416073422,135,638842,670305,PREMIER PARKING MANAGEMENT COMPANY LLC, 600 BROADWAY GARAGE,ANTHONY GIARRATANA,6152382250           ,"600 BROADWAY # 128, SEATTLE, WA 98122-5381",355,,,,,,,,,,,,,,,,N,,,,,,,
-122.38599318290683,47.58324155041975,136,619886,657255,DIAMOND PARKING SERVICES LLC,DIAMOND PARKING #A386,JONATHAN DIAMOND,2062843100           ,"2222 CALIFORNIA AVE SW, SEATTLE, WA 98116",30,,,,,,,,,,,,,,,,N,,,,,,,
-122.321252032394241,47.610651418231484,137,615049,654018,REPUBLIC PARKING N W INC,REPUBLIC PARKING #580 - SMC ALCOA SURFACE LOT,GARY BECK,2067834144           ,"1401 MADISON ST, SEATTLE, WA 98104",53,,,,,,,,,,,,,,,,N,,,,,,,
-122.329218665898523,47.609995137008056,138,658618,684556,ABM ONSITE SERVICES WEST INC,ABM PARKING #6174,YONAS AHMED,2062670446           ,"1201 9TH AVE, SEATTLE, WA 98101",275,,,,,,,,,,,,,,,,N,,,,,,,
-122.330299033167236,47.544875487046212,139,641902,672193,DIAMOND PARKING SERVICES LLC,DIAMOND PARKING #A425,JONATHAN DIAMOND,2062843100           ,"303 S MICHIGAN ST, SEATTLE, WA 98108",35,,,,,SURFACE LOT,,,,,,,,,http://www.diamondparking.com/find-parking-locations/details/?code=A425,,N,,,,,,,
-122.316103572463675,47.549005977536687,140,635766,668483,REPUBLIC PARKING N W INC,REPUBLIC PARKING #30 - 30 SABEY GEORGETOWN,GARY BECK,2067834144           ,"6020 AIRPORT WAY S, SEATTLE, WA 98108",35,,,,,SURFACE LOT,2,2,5,,,,,,http://www.rpnw.com/lot/seattle/30-030,,N,,,,,,,
-122.348233241965175,47.649121603979701,141,634260,4572,THRIFTY PARK INC,U-PARK #68,KEN JR PHILLIPS,2062849797           ,"737 N 34TH ST, SEATTLE, WA 98103",31,,,,,,,,,,,,,,,,N,,,,,,,
-122.314405370739863,47.614612136027773,142,653527,681148,UNITED PARKING SERVICES LLC,UNITED PARKING #4597,JONATHAN DIAMOND,2062843100           ,"1515 14TH AVE, SEATTLE, WA 98122",76,,,,,,,,,,,,,,,,N,,,,,,,
-122.354878806027685,47.692261742109913,143,686985,76140,REPUBLIC PARKING N W INC,REPUBLIC PARKING #30-34 NORTH STAR DINER,GARY BECK,2067834144           ,"8580 GREENWOOD AVE N, SEATTLE, WA 98103",189,,,,,,,,,,,,,,,,N,,,,,,,
-122.2765114608343,47.565923752435921,144,432774,523313,WILLIS & WILLIS,WILLIS & SONS,                                                   WILLIS,2067257434           ,"4114 45TH AVE S, SEATTLE, WA   98118",100,,,,,,,,,,,,,,,,Y,WILLIS & SONS,0,,,,,
-122.287811067936843,47.565143443309587,145,434058,524268,SUPERSAVER INC,SAVER FURNITURE,NGAN PHAM,2067230440           ,"4208 RAINIER AVE S, SEATTLE, WA   98118",140,,,,,,,,,,,,,,http://www.saverfurniture.net/,,N,SAVER FURNITURE,0,,,,,
-122.332818258077509,47.601920223239055,146,658619,684559,ABM ONSITE SERVICES WEST INC,ABM PARKING #6119,YONAS AHMED,2062670446           ,"501 2ND AVE, SEATTLE, WA 98104",252,,,,,,,,,,,,,,,,N,,,,,,,
-122.329389038465806,47.586384362537416,147,614821,653863,DIAMOND PARKING SERVICES LLC,DIAMOND PARKING #A265,JONATHAN DIAMOND,2062843100           ,"1763 4TH AVE S, SEATTLE, WA 98134",34,,,,,,,,,,,,,,,,N,,,,,,,
-122.340455422564105,47.618338772159206,148,690585,596092,DIAMOND PARKING SERVICES LLC,DIAMOND PARKING #A625,JONATHAN DIAMOND,2062843100           ,"2300 8TH AVE, SEATTLE, WA 98121",23,,,,,,,,,,,,,,,,N,,,,,,,
-122.331572840975753,47.624398896080777,149,619104,656671,SP PLUS CORPORATION,AMAZON 1260 MERCER - LOT #82074,BILL BEATTIE,2063818552           ,"1260 MERCER ST, SEATTLE, WA 98109",173,,,,,,,,,,,,,,,,N,,,,,,,
-122.340212994772514,47.61746975545443,150,685822,704193,IMPERIAL PARKING US INC,IMPARK #121,EDWARD DANYLUK,2063811789           ,"2213 8TH AVE, SEATTLE, WA 98121",62,,,,,,,,,,,,,,,,N,,,,,,,
-122.339406666646767,47.623835304981398,151,659666,685247,SP PLUS CORPORATION,STANDARD PARKING #82371 - 500 9TH AVE N,BILL BEATTIE,2063818552           ,"500 9TH AVE N, SEATTLE, WA 98109",545,,,,,,,,,,,,,,,,N,,,,,,,
-122.381912044192433,47.667013910211928,152,681925,701366,BALLARD PARKING LLC,BALLARD PARKING,JAMES RIGGLE,2067895010           ,"5208 20TH AVE NW, SEATTLE, WA 98107",45,,,,,,,,,,,,,,,,N,,,,,,,
-122.346705751765867,47.618896215963765,153,689718,705408,DIAMOND PARKING SERVICES LLC,DIAMOND PARKING #A621,JONATHAN DIAMOND,2062843100           ,"121 TAYLOR AVE N, SEATTLE, WA 98109",28,,,,,,,,,,,,,,,,N,,,,,,,
-122.340149851466606,47.621541120293749,154,675142,165553,SP PLUS CORPORATION,325 9TH AVE N - LOT # 82497,BILL BEATTIE,2066247040           ,"325 9TH AVE N, SEATTLE, WA 98109",1200,,,,,,,,,,,,,,,,N,,,,,,,
-122.324252754706279,47.609205878471613,155,638844,670307,PREMIER PARKING MANAGEMENT COMPANY LLC, MARION & MINOR GARAGE,ANTHONY GIARRATANA,6152382250           ,"1101 MADISON ST, SEATTLE, WA 98104-1306",1025,,,,,,,,,,,,,,,,N,,,,,,,
-122.315276733715763,47.613746357279503,156,673023,695093,LAZ PARKING NORTHWEST LLC,LAZ PARKING NORTHWEST LLC,ALAN LAZOWSKI,8605227641           ,"1300 E MADISON ST, SEATTLE, WA 98122-4059",34,,,,,,,,,,,,,,,,N,,,,,,,
-122.334669066268191,47.583651168944726,157,656046,682950,OUTDOOR RESEARCH LLC,OUTDOOR RESEARCH,AUDREY HICKS,2064678197           ,"2203 1ST AVE S, SEATTLE, WA 98134",44,,,,,,,,,,,,,,,,N,,,,,,,
-122.325704553279351,47.600712678176528,158,666623,690382,UNITED PARKING SERVICES LLC,UNITED PARKING #4591,JONATHAN DIAMOND,2062843100           ,"601 S WASHINGTON ST, SEATTLE, WA 98104",40,,,,,,,,,,,,,,,,N,,,,,,,
-122.283077368240356,47.53747404006743,159,669068,595312,DIAMOND PARKING SERVICES LLC,DIAMOND PARKING #A985,JONATHAN DIAMOND,2062843100           ,"3900 S OTHELLO ST, SEATTLE, WA 98118",31,,,,,SURFACE LOT,,,,,,,,,http://www.diamondparking.com/find-parking-locations/details/?code=A985,,N,,,,,,,
-122.322834231192971,47.596249124007137,160,681894,701346,SEATTLE CHINATOWN INTL DISTRICT PDA,PARKING,MICHIO TESHIMA,2068388231           ,"701 8TH AVE S, SEATTLE, WA 98104",78,,,,,,,,,,,,,,,,N,,,,,,,
-122.347041939905452,47.621451240254729,161,534498,593938,DIAMOND PARKING SERVICES LLC,DIAMOND #A089,JONATHAN DIAMOND,2062843100           ,"516 BROAD ST, SEATTLE, WA 98109",36,,,,,SURFACE LOT,,,,,1,Diamond Parking Service,,,http://www.diamondparking.com/find-parking-locations/details/?code=A089,,N,DIAMOND,0,,,,,
-122.356302801099133,47.623104652012564,162,574595,625135,DIAMOND PARKING SERVICES LLC,DIAMOND PARKING #A824,JONATHAN DIAMOND,2062843100           ,"434 QUEEN ANNE AV N, SEATTLE, WA   98109",12,,,,,SURFACE LOT,,,,,1,Diamond Parking Service,,,http://www.diamondparking.com/find-parking-locations/details/?code=A824,,N,DIAMOND,0,,,,,
-122.356359928711868,47.621438941576244,163,534515,593947,DIAMOND PARKING SERVICES LLC,DIAMOND  #A184,JONATHAN DIAMOND,2062843100           ,"314 QUEEN ANNE AV N, SEATTLE, WA   98109",28,,,,,SURFACE LOT,,,,,,Diamond Parking Service,,,http://www.diamondparking.com/find-parking-locations/details/?code=A184,,N,DIAMOND,0,,,,,
-122.363784506117568,47.622347487417827,164,534478,593930,DIAMOND PARKING SERVICES LLC,DIAMOND #A119,JONATHAN DIAMOND,2062843100           ,"401 ELLIOTT AV W, SEATTLE, WA   98119",432,,,,,GARAGE,,,,,,Diamond Parking Service,,,http://www.diamondparking.com/find-parking-locations/details/?code=A119,,N,DIAMOND,0,,,,,
-122.358377144038329,47.620763966307393,165,574572,625108,DIAMOND PARKING SERVICES LLC,DIAMOND PARKING #A128,JONATHAN DIAMOND,2062843100           ,"233 1ST AV W, SEATTLE, WA   98109",22,,,,,SURFACE LOT,,,,,,,,,http://www.diamondparking.com/find-parking-locations/details/?code=A128,,N,DIAMOND,0,,,,,
-122.32599699454633,47.596030110554992,166,19669,17412,NIKKEI CONCERNS,KOKORO-KAI DAY SOCIAL CENTER,,2063299575           ,"700 6TH AVE S, SEATTLE, WA 98104",14,,,,,,,,,,,,,,,,N,,,,,,,
-122.321103484938391,47.60778270231188,167,615043,654010,REPUBLIC PARKING N W INC,REPUBLIC PARKING #573 - SMC SOI GARAGE,GARY BECK,2067834144           ,"601 BROADWAY, SEATTLE, WA 98122",224,,,,,,,,,,,,,,,,N,,,,,,,
-122.311084767789566,47.607018596128746,168,615046,654015,REPUBLIC PARKING N W INC,REPUBLIC PARKING #577 - SMC VHERRY HILL SURFACE,GARY BECK,2067834144           ,"550 16TH AVE, SEATTLE, WA 98122",19,,,,,,,,,,,,,,,,N,,,,,,,
-122.336558617814731,47.602841838996198,169,658501,684468,UNITED PARKING SERVICES LLC,UNITED PARKING #4578,JONATHAN DIAMOND,2062843100           ,"801 WESTERN AVE, SEATTLE, WA 98104",47,,,,,,,,,,,,,,,,N,,,,,,,
-122.382598284421064,47.666289308022428,170,681926,701367,BALLARD PARKING LLC,BALLARD PARKING,JAMES RIGGLE,2067895010           ,"5216 BALLARD AVE NW, SEATTLE, WA 98107",66,,,,,,,,,,,,,,,,N,,,,,,,
-122.348572163398075,47.619153309544664,171,658769,684664,INTERNATIONAL PARKING MANAGEMENT INC,IPM FISHER PLAZA,JOAN SUNDBERG,2062540811           ,"140 4TH AVE N, SEATTLE, WA 98109",490,,,,,,,,,,,,,,,,N,,,,,,,
-122.358238154159963,47.624779968471643,172,673024,695094,LAZ PARKING NORTHWEST LLC,LAZ PARKING NORTHWEST LLC,ALAN LAZOWSKI,8605227641           ,"100 W MERCER ST, SEATTLE, WA 98119-3930",38,,,,,,,,,,,,,,,,N,,,,,,,
-122.327069272615091,47.581097343411535,173,678505,699117,MCFARLAND CARMEN,CARMENS PARKING,CARMEN MCFARLAND,2534865201           ,"500 S LANDER ST, SEATTLE, WA 98134",80,,,,,,,,,,,,,,,,N,,,,,,,
-122.322528442931088,47.606977241026115,174,615044,654012,REPUBLIC PARKING N W INC,REPUBLIC PARKING #574 - SMC MINOR AVE GARAGE,GARY BECK,2067834144           ,"601 MINOR AVE, SEATTLE, WA 98104",987,,,,,,,,,,,,,,,,N,,,,,,,
-122.332968269791138,47.606485281278772,175,658621,684562,ABM ONSITE SERVICES WEST INC,ABM PARKING #6236,YONAS AHMED,2062670446           ,"1000 4TH AVE, SEATTLE, WA 98104",150,,,,,,,,,,,,,,,,N,,,,,,,
-122.281456470239547,47.538673826089692,176,643856,673489,DIAMOND PARKING SERVICES LLC,DIAMOND PARKING #A438,JONATHAN DIAMOND,2062843100           ,"7100 M L KING JR WAY S, SEATTLE, WA 98118",31,,,,,SURFACE LOT,,,,,,,,,http://www.diamondparking.com/find-parking-locations/details/?code=A438,,N,,,,,,,
-122.333370212832918,47.609462922822445,177,684311,703050,LAZ PARKING NORTHWEST LLC,SEATTLE HILTON,ALAN LAZOWSKI,8605227641           ,"1301 6TH AVE, SEATTLE, WA 98101",520,,,,,,,,,,,,,,,,N,,,,,,,
-122.325125504148971,47.634084410759556,178,673021,695091,LAZ PARKING NORTHWEST LLC,LAZ PARKING NORTHWEST LLC,ALAN LAZOWSKI,8605227641           ,"1600 EASTLAKE AVE E, SEATTLE, WA 98102-3709",18,,,,,,,,,,,,,,,,N,,,,,,,
-122.307056253628531,47.616446439441525,179,669038,576755,DIAMOND PARKING SERVICES LLC,DIAMOND PARKING #A350,JONATHAN DIAMOND,2062846303           ,"1634 19TH AVE, SEATTLE, WA 98122",35,,,,,,,,,,,,,,,,N,,,,,,,
-122.326601209622922,47.601381286605125,180,19948,17658,INTL DISTRICT MERCHANTS PARKING ASSN,INTL DIST MERCHANTS #25,MICHAEL OLSON,2066243426           ,"537 YESLER WY, SEATTLE, WA   98104",30,,,,,,,,,,,,,,,,N,MERCHANTS PARKING ASSOC,0,,,,,
-122.326305249658219,47.638377425880691,181,649557,678059,DIAMOND PARKING SERVICES LLC,DIAMOND PARKING #A445,JONATHAN DIAMOND,2062843100           ,"2203 EASTLAKE AVE E, SEATTLE, WA 98102",8,,,,,,,,,,,,,,http://www.diamondparking.com/find-parking-locations/details/?code=A445,,N,,,,,,,
-122.374390870306883,47.663272192556754,182,679532,625098,DIAMOND PARKING SERVICES LLC,DIAMOND PARKING #A603,JONATHAN DIAMOND,2062843100           ,"1401 LEARY WAY NW, SEATTLE, WA 98117",32,,,,,SURFACE LOT,,,,,,,,,http://www.diamondparking.com/find-parking-locations/details/?code=A603,,N,,,,,,,
-122.316246746135477,47.661582574741487,183,666878,690565,DIAMOND PARKING SERVICES LLC,DIAMOND PARKING #WU05,JONATHAN DIAMOND,2062843100           ,"1100 NE 45TH ST, SEATTLE, WA 98115",78,45th St Plaza,,,,GARAGE,,,,,,,,,http://www.diamondparking.com/find-parking-locations/details/?code=WU05,,N,,,,,,,
-122.318097010923964,47.674365422461612,184,666876,690563,DIAMOND PARKING SERVICES LLC,DIAMOND PARKING #WU01,JONATHAN DIAMOND,2062843100           ,"6300 9TH AVE NE, SEATTLE, WA 98115",55,Seattle Healing Arts,,,,SURFACE LOT,,,,,,,,,http://www.diamondparking.com/find-parking-locations/details/?code=WU01,,N,,,,,,,
-122.319490503938297,47.678416662831111,185,643217,673071,DIAMOND PARKING SERVICES LLC,DIAMOND PARKING #WU11,JONATHAN DIAMOND,2062843100           ,"6801 ROOSEVELT WAY NE, SEATTLE, WA 98115",155,Calvary Christian Church,,,,SURFACE LOT,,,,,,,,,http://www.diamondparking.com/find-parking-locations/details/?code=WU11,,N,,,,,,,
-122.316752367421856,47.682168455127581,186,666879,690566,DIAMOND PARKING SERVICES LLC,DIAMOND PARKING #WU43,JONATHAN DIAMOND,2062843100           ,"7300 ROOSEVELT AVE NE, SEATTLE, WA 98115",125,Roosevelt Safeway,,,,GARAGE,,,,,,,,,http://www.diamondparking.com/find-parking-locations/details/?code=WU43,,N,,,,,,,
-122.309667028498765,47.660158606811564,187,666880,690567,DIAMOND PARKING SERVICES LLC,DIAMOND PARKING #WU45,JONATHAN DIAMOND,2062843100           ,"1700 NE 45TH ST, SEATTLE, WA 98115",12,Key Bank Wallingford,,,,SURFACE LOT,,,,,,,,,http://www.diamondparking.com/find-parking-locations/details/?code=WU45,,N,,,,,,,
-122.321202349779256,47.623769658100905,188,600954,644074,UNITED PARKING SERVICES LLC,UNITED PARKING # 4546,JONATHAN DIAMOND,0000000000           ,"523 BROADWAY E, SEATTLE, WA 98102",346,,,,,GARAGE,,,,,,,,,http://www.diamondparking.com/find-parking-locations/details/?code=4546,,N,,,,,,,
-122.344561750465459,47.625190444139747,189,574588,625125,DIAMOND PARKING SERVICES LLC,DIAMOND PARKING #A289,JONATHAN DIAMOND,2062843100           ,"601 ROY ST, SEATTLE, WA   98109",52,,,,,SURFACE LOT,,,,,,,,,http://www.diamondparking.com/find-parking-locations/details/?code=A289,,N,DIAMOND,0,,,,,
-122.320518672888866,47.621849971082753,190,515047,580602,DIAMOND PARKING SERVICES LLC,DIAMOND PARKING #A861,JONATHAN DIAMOND,2069929475           ,"324 BROADWAY E, SEATTLE, WA   98102",11,,,,,SURFACE LOT,,,,,,,,,http://www.diamondparking.com/find-parking-locations/details/?code=A861,,N,DIAMOND,0,,,,,
-122.295561316824362,47.623642532565903,191,603353,645751,DIAMOND PARKING SERVICES LLC,DIAMOND PARKING #A324,JONATHAN DIAMOND,2062846303           ,"2811 E MADISON ST, SEATTLE, WA   98112",10,,,,,SURFACE LOT,,,,,,,,,http://www.diamondparking.com/find-parking-locations/details/?code=A324,,N,DIAMOND,0,,,,,
-122.336439935954886,47.625379965727028,192,648379,677161,SP PLUS CORPORATION,TERRY & VALLEY LOT,BILL BEATTIE,2063818552           ,"625 BOREN AVE N, SEATTLE, WA 98109",216,Terry & Valley Lot,24 Hours,24 Hours,24 Hours,SURFACE LOT,9.76,9.76,,21.96,,,,,http://seattleparking.spplus.com/625-BOREN-AVE-NORTH.html,,N,,,,,,,
-122.330619983022615,47.624886407751632,193,633755,667099,DIAMOND PARKING SERVICES LLC,DIAMOND PARKING #A 417,JONATHAN DIAMOND,2064367266           ,"624 YALE AVE N, SEATTLE, WA 98109",15,,,,,SURFACE LOT,,,,,,,,,http://www.diamondparking.com/find-parking-locations/details/?code=A417,,N,,,,,,,
-122.330065654952335,47.624880185596687,194,633816,667142,DIAMOND PARKING SERVICES LLC,DIAMOND PARKING #A399,JONATHAN DIAMOND,2062843100           ,"617 EASTLAKE AVE E, SEATTLE, WA 98109",75,,,,,,,,,,,,,,http://www.diamondparking.com/find-parking-locations/details/?code=A399,,N,,,,,,,
-122.332107415728018,47.624590369933223,195,650251,678597,DIAMOND PARKING SERVICES LLC,DIAMOND PARKING #A446,JONATHAN DIAMOND,2062843100           ,"611 PONTIUS AVE N, SEATTLE, WA 98109",7,,,,,,,,,,,,,,http://www.diamondparking.com/find-parking-locations/details/?code=A446,,N,,,,,,,
-122.344084834753133,47.6249474330683,196,596843,641230,DIAMOND PARKING SERVICES LLC,DIAMOND PARKING #A326,JONATHAN DIAMOND,2062843100           ,"601 AURORA AV N, SEATTLE, WA   98109",20,,,,,SURFACE LOT,,,,,,,,,http://www.diamondparking.com/find-parking-locations/details/?code=A326,,N,DIAMOND,0,,,,,
-122.348431447700094,47.62476297581766,197,635810,668513,DIAMOND PARKING SERVICES LLC,DIAMOND PARKING #A400,JONATHAN DIAMOND,2062843100           ,"400 MERCER ST, SEATTLE, WA 98109",74,,,,,GARAGE,,,,,,,,,http://www.diamondparking.com/find-parking-locations/details/?code=A400,,N,,,,,,,
-122.298733997538662,47.577013560300045,198,584425,632003,DIAMOND PARKING SERVICES LLC,DIAMOND PARKING #A981,JONATHAN DIAMOND,2062843100           ,"2929 27TH AV S, SEATTLE, WA   98144",75,,,,,SURFACE LOT,,,,,,,,,http://www.diamondparking.com/find-parking-locations/details/?code=A981,,N,DIAMOND,0,,,,,
-122.387733480494603,47.56086771031687,199,0,2000003,,WEST SEATTLE JUNCTION ASSOCIATION,, ,,,,,,,,,,,,,,(206) 935-0904,,http://wsjunction.org/maps/,,N,WEST SEATTLE JUNCTION ASSOCIATION,0,,,,,
-122.295616476750354,47.575528023272895,200,603379,645765,DIAMOND PARKING SERVICES LLC,DIAMOND PARKING #A942,JONATHAN DIAMOND,2062846303           ,"3100 RAINIER AV S, SEATTLE, WA   98144",19,,,,,SURFACE LOT,,,,,,,,,http://www.diamondparking.com/find-parking-locations/details/?code=A942,,N,DIAMOND,0,,,,,
-122.333714719097486,47.576800744529862,201,640325,671117,DIAMOND PARKING SERVICES LLC,DIAMOND PARKING #A414,JONATHAN DIAMOND,2062843100           ,"2930 1ST AVE S, SEATTLE, WA 98134",23,,,,,SURFACE LOT,,,,,,,,,http://www.diamondparking.com/find-parking-locations/details/?code=A414,,N,,,,,,,
-122.297008548964527,47.577345665861237,202,665391,689415,DIAMOND PARKING SERVICES LLC,DIAMOND PARKING #A467,JONATHAN DIAMOND,2062843100           ,"2910 RAINIER AVE S, SEATTLE, WA 98144",25,,,,,SURFACE LOT,,,,,,,,,http://www.diamondparking.com/find-parking-locations/details/?code=A467,,N,,,,,,,
-122.332624790174862,47.581776634392462,203,582299,630527,DIAMOND PARKING SERVICES LLC,DIAMOND PARKING #A-984,JONATHAN DIAMOND,2062843100           ,"2250 OCCIDENTAL AV S, SEATTLE, WA   98134",80,,,,,SURFACE LOT,,,,,,,,,http://www.diamondparking.com/find-parking-locations/details/?code=A984,,N,DIAMOND,0,,,,,
-122.356191475459482,47.625063540943927,204,534450,593920,DIAMOND PARKING SERVICES LLC,DIAMOND #A228,JONATHAN DIAMOND,2062843100           ,"10 MERCER ST, SEATTLE, WA   98109",7,,,,,SURFACE LOT,,,,,,,,,http://www.diamondparking.com/find-parking-locations/details/?code=A228,,N,DIAMOND,0,,,,,
-122.340838807761884,47.625907820050784,205,574691,582531,DIAMOND PARKING SERVICES LLC,DIAMOND PARKING #A478,JONATHAN DIAMOND,2062846303           ,"802 ROY ST, SEATTLE, WA 98109",165,,,,,SURFACE LOT,,,,,,,,,http://www.diamondparking.com/find-parking-locations/details/?code=A478,,N,,,,,,,
-122.340131719576235,47.625571982152898,206,671304,693812,DIAMOND PARKING SERVICES LLC,DIAMOND PARKING #A484,JONATHAN DIAMOND,2062843100           ,"701 9TH AVE N, SEATTLE, WA 98109",41,,,,,GARAGE,,,,,,,,,http://www.diamondparking.com/find-parking-locations/details/?code=A484,,N,,,,,,,
-122.359542636927102,47.62279255942736,207,574577,625113,DIAMOND PARKING SERVICES LLC,DIAMOND PARKING #A163,JONATHAN DIAMOND,2062843100           ,"425 2ND AV W, SEATTLE, WA   98119",28,,,,,SURFACE LOT,,,,,,,,,http://www.diamondparking.com/find-parking-locations/details/?code=A163,,N,DIAMOND,0,,,,,
-122.355894366403277,47.623001008018733,208,574573,625109,DIAMOND PARKING SERVICES LLC,DIAMOND PARKING #A131,JONATHAN DIAMOND,2062843100           ,"415 1ST AV W, SEATTLE, WA   98119",77,,,,,SURFACE LOT,,,,,,,,,http://www.diamondparking.com/find-parking-locations/details/?code=A131,,N,DIAMOND,0,,,,,
-122.359628268923331,47.622378329165578,209,588419,635157,DIAMOND PARKING SERVICES LLC,DIAMOND PARKING #A046,JONATHAN DIAMOND,2062846303           ,"401 2ND AV W, SEATTLE, WA   98119",42,,,,,SURFACE LOT,,,,,1,Diamond Parking Service,,,http://www.diamondparking.com/find-parking-locations/details/?code=A046,,N,DIAMOND,0,,,,,
-122.347201762023317,47.621678912036259,210,534447,593919,DIAMOND PARKING SERVICES LLC,DIAMOND  #A178,JONATHAN DIAMOND,2062843100           ,"318 5TH AV N, SEATTLE, WA   98109",53,,,,,SURFACE LOT,,,,,,,,,http://www.diamondparking.com/find-parking-locations/details/?code=A178,,N,DIAMOND,0,,,,,
-122.360376976768549,47.622296859489623,211,520522,584695,DIAMOND PARKING SERVICES LLC,DIAMOND PARKING #A-869,JONATHAN DIAMOND,2062846303           ,"220 W HARRISON ST, SEATTLE, WA   98119",37,,,,,SURFACE LOT,,,,,1,Diamond Parking Service,,,http://www.diamondparking.com/find-parking-locations/details/?code=A869,,N,DIAMOND,0,,,,,
-122.355863250208387,47.621927021118665,212,672907,694994,DIAMOND PARKING SERVICES LLC,DIAMOND PARKING #A486,JONATHAN DIAMOND,2062813400           ,"325 1ST AVE N, SEATTLE, WA 98109",40,,,,,GARAGE,,,,,,,,,http://www.diamondparking.com/find-parking-locations/details/?code=A486,,N,,,,,,,
-122.328365878041225,47.587200130170601,213,599579,643028,TERIS PROPERTIES,TERIS PROPERTIES,KURT BRAY,2062321883           ,"1732 4TH AV S, SEATTLE, WA   98134",108,,,,,,,,,,,,,,,,Y,,0,,,,,
-122.354551479709173,47.623614042207571,214,626002,661873,UNITED PARKING SERVICES LLC,UNITED PARKING #4595,JONATHAN DIAMOND,2062843100           ,"100 REPUBLICAN ST, SEATTLE, WA 98109",274,,,,,GARAGE,,,,,,,,,http://www.diamondparking.com/find-parking-locations/details/?code=4595,,N,,,,,,,
-122.347078627270363,47.622308111120077,215,107853,97069,SEATTLE CENTER,SEATTLE CENTER PARKING #2,X X,2066847330           ,"516 W HARRISON ST, SEATTLE, WA 98109",841,5th Ave N Garage,24 Hours,24Hours,24 Hours,GARAGE,5,10,12,24,,,,,http://www.seattlecenter.com/transportation/parking/fifth.aspx,,N,,,,,,,
-122.342123337180979,47.628170593162189,216,560689,614869,IMPERIAL PARKING US INC,IMPARK #57,EDWARD DANYLUK,2063811789           ,"1000 DEXTER AV N, SEATTLE, WA   98109",576,,7:00am - 7:00pm,Closed,Closed,,4,6,8,14,,,,,"https://lots.impark.com/imp?_ga=1.99359390.147180094.1470262460#details=25,57",,N,IMPARK,0,,,,,
-122.341713069098844,47.632636044769825,217,575119,625376,IMPERIAL PARKING US INC,IMPARK #79,EDWARD DANYLUK,2063811789           ,"1505 WESTLAKE AV N, SEATTLE, WA   98109",445,West Lake Union Center,7:00am - 7:00pm,CLOSED,CLOSED,,6,8,10,14,,,,,"https://lots.impark.com/imp?_ga=1.99359390.147180094.1470262460#details=25,79",,N,IMPARK,0,,,,,
-122.383488656662379,47.667408029861669,218,579894,628638,REPUBLIC PARKING N W INC,REPUBLIC #30 - 109  - BALLARD LANDMARK,GARY BECK,2067834144           ,"5433 LEARY AV NW, SEATTLE, WA   98107",28,Ballard Landmark,6:00am - 12:00am,6:00am - 12:00am,6:00am - 12:00am,GARAGE,1,2,4,,,,,,http://www.rpnw.com/lot/seattle/30-109,,N,REPUBLIC - BALLARD LANDMARK,0,,,,,
-122.330852296935902,47.623364804830338,219,657553,683879,DIAMOND PARKING SERVICES LLC,DIAMOND PARKING #A462,JONATHAN DIAMOND,2062843100           ,"1260 REPUBLICAN ST, SEATTLE, WA 98102",10,,,,,GARAGE,,,,,,,,,http://www.diamondparking.com/find-parking-locations/details/?code=A462,,N,,,,,,,
-122.329595079600963,47.623333999450082,220,639845,670831,ACE PARKING MANAGEMENT INC,ACE PARKING #3260,BRYAN COLLINS,6192336624           ,"501 EASTLAKE AVE E, SEATTLE, WA 98109",173,,5:00am - 10:00pm,5:00am - 10:00pm,5:00am - 10:00pm,,,,,,,,,,http://www.aceparking.com/find-parking/,,N,,,,,,,
-122.330283876464918,47.623230131747867,221,639844,670828,ACE PARKING MANAGEMENT INC,ACE PARKING #3261,BRYAN COLLINS,6192336624           ,"500 YALE AVE N, SEATTLE, WA 98109",131,,5:00am - 10:00pm,5:00am - 10:00pm,5:00am - 10:00pm,,,,,,,,,,,,N,,,,,,,
-122.333902025525248,47.62251055990059,222,685819,704190,IMPERIAL PARKING US INC,IMPARK #122,EDWARD DANYLUK,2063811789           ,"400 FAIRVIEW AVE N, SEATTLE, WA 98109",418,400 Fairview - Lot #122,,,,,6,9,12,26,,,,,"https://lots.impark.com/imp?_ga=1.99359390.147180094.1470262460#details=25,122",,N,,,,,,,
-122.329415137682545,47.622150702110318,223,574586,625123,DIAMOND PARKING SERVICES LLC,DIAMOND PARKING #A268,JONATHAN DIAMOND,2062843100           ,"401 EASTLAKE AV E, SEATTLE, WA   98102",28,,,,,SURFACE LOT,,,,,,Diamond Parking Service,,,http://www.diamondparking.com/find-parking-locations/details/?code=A268,,N,DIAMOND,0,,,,,
-122.331383177544538,47.623402032403696,224,534605,595353,DIAMOND PARKING SERVICES LLC,DIAMOND #A881,JONATHAN DIAMOND,2062843100           ,"500 PONTIUS AV N, SEATTLE, WA   98121",73,,,,,SURFACE LOT,,,,,2,Diamond Parking Service,,,http://www.diamondparking.com/find-parking-locations/details/?code=A881,,N,DIAMOND,0,,,,,
-122.33264245762544,47.622393649603723,225,603317,645728,DIAMOND PARKING SERVICES LLC,DIAMOND PARKING #A271,JONATHAN DIAMOND,2062846303           ,"414 MINOR AV N, SEATTLE, WA 98109",53,,,,,SURFACE LOT,,,,,,,,,http://www.diamondparking.com/find-parking-locations/details/?code=A271,,N,DIAMOND,0,,,,,
-122.329479829095874,47.622462653918959,226,588428,635166,DIAMOND PARKING SERVICES LLC,DIAMOND PARKING #A275,JONATHAN DIAMOND,2062846303           ,"411 EASTLAKE AV E, SEATTLE, WA   98109",26,,,,,SURFACE LOT,,,,,,Diamond Parking Service,,,http://www.diamondparking.com/find-parking-locations/details/?code=A275,,N,DIAMOND,0,,,,,
-122.346484647366552,47.621899137311331,227,534517,593948,DIAMOND PARKING SERVICES LLC,DIAMOND  #A230,JONATHAN DIAMOND,2062843100           ,"530 BROAD ST, SEATTLE, WA   98121",40,,,,,SURFACE LOT,,,,,,,,,http://www.diamondparking.com/find-parking-locations/details/?code=A230,,N,DIAMOND,0,,,,,
-122.357561523121262,47.623898318514144,228,505461,573814,DIAMOND PARKING SERVICES LLC,DIAMOND PARKING #A844,JONATHAN DIAMOND,2062846303           ,"516 1ST AV W, SEATTLE, WA   98119",13,,,,,GARAGE,,,,,6,Diamond Parking Service,,,http://www.diamondparking.com/find-parking-locations/details/?code=A844,,N,DIAMOND,0,,,,,
-122.355863250208387,47.621927021118665,229,534502,593940,DIAMOND PARKING SERVICES LLC,DIAMOND  #A101,JONATHAN DIAMOND,2062843100           ,"325 1ST AV N, SEATTLE, WA 98109",60,,,,,SURFACE LOT,,,,,3,Diamond Parking Service,,,http://www.diamondparking.com/find-parking-locations/details/?code=A101,,N,DIAMOND,0,,,,,
-122.333730652863409,47.587057434792214,230,637198,669468,DIAMOND PARKING SERVICES LLC,DIAMOND PARKING #A423,JONATHAN DIAMOND,2062843100           ,"1740 1ST AVE S, SEATTLE, WA 98134",25,,,,,SURFACE LOT,,,,,,,,,http://www.diamondparking.com/find-parking-locations/details/?code=A423,,N,,,,,,,
-122.333543447835339,47.587196795808786,231,639579,670656,DIAMOND PARKING SERVICES LLC,DIAMOND PARKING #A428,JONATHAN DIAMOND,2062843100           ,"1730 1ST AVE S, SEATTLE, WA 98134",7,,,,,SURFACE LOT,,,,,,,,,http://www.diamondparking.com/find-parking-locations/details/?code=A428,,N,,,,,,,
-122.30934012438567,47.594224907887963,232,624946,661113,DIAMOND PARKING SERVICES LLC,DIAMOND PARKING #A388,JONATHAN DIAMOND,2062843100           ,"901 HIAWATHA PL S, SEATTLE, WA 98144",8,,,,,SURFACE LOT,,,,,,,,,http://www.diamondparking.com/find-parking-locations/details/?code=A388,,N,,,,,,,
-122.326704903853908,47.594162500850878,233,509780,576754,DIAMOND PARKING SERVICES LLC,DIAMOND PARKING #A848,JONATHAN DIAMOND,2062846303           ,"1005 6TH AV S, SEATTLE, WA   98134",350,,,,,SURFACE LOT,,,,,,,,,http://www.diamondparking.com/find-parking-locations/details/?code=A848,,N,DIAMOND,0,,,,,
-122.33457717487893,47.587880546255803,234,627227,662686,REPUBLIC PARKING N W INC,REPUBLIC PARKING #30 -145,GARY BECK,2067834144           ,"1701 1ST AVE S, SEATTLE, WA 98134",60,SURFACE LOT,,,,,4,4,12,,,,,,http://www.rpnw.com/lot/seattle/30-145,,N,,,,,,,
-122.32958299328196,47.586826729949685,235,512856,578896,BUTLER PARKING CORP,BUTLER PARKING CORP,GEORGE HAMILTON,2066224367           ,"1741 4TH AV S, SEATTLE, WA   98134",18,,,,,,,,,,,,,,http://bpcparking.com/public-parking,,Y,BUTLER,0,,,,,
-122.32944402489062,47.588008984231166,236,541374,600468,FARWEST SPORTS INC,OUTDOOR EMPORIUM,MICHAEL COOMBS,2539222581           ,"1701 4TH AV S, SEATTLE, WA   98134",30,,,,,,,,,,,,,,http://www.sportco.com/,,Y,OUTDOOR EMPORIUM,0,,,,,
-122.301721166496037,47.596767123832443,237,629614,664324,DIAMOND PARKING SERVICES LLC,DIAMOND PARKING #A405,JONATHAN DIAMOND,2062843100           ,"513 23RD AVE S, SEATTLE, WA 98144",48,,,,,SURFACE LOT,,,,,,,,,http://www.diamondparking.com/find-parking-locations/details/?code=A405,,N,,,,,,,
-122.328333347187737,47.588954237570327,238,687172,705180,INTERNATIONAL PARKING MANAGEMENT INC,IPM #15,JOAN SUNDBERG,2062540811           ,"1550 4TH AVE S, SEATTLE, WA 98134",68,,,,,SURFACE LOT,,,,,,,,,http://www.ipmseattle.com/locations/lot.asp?id=503,,N,,,,,,,
-122.329698640973589,47.588562849773567,239,521494,585503,FILSON CORP,FILSON CORP,DICK HOLCOMBE,2068053748           ,"1555 4TH AV S, SEATTLE, WA   98134",27,,,,,,,,,,,,,,http://www.filson.com/,,Y,FILSON CORPORATION,0,,,,,
-122.333682326086674,47.588766013156231,240,519695,584049,DIAMOND PARKING SERVICES LLC,DIAMOND PARKING #A944,JONATHAN DIAMOND,2062846303           ,"1560 1ST AV S, SEATTLE, WA   98134",241,,,,,SURFACE LOT,,,,,,,,,http://www.diamondparking.com/find-parking-locations/details/?code=A944,,N,DIAMOND,0,,,,,
-122.302440835453226,47.595906346000916,241,689720,705409,DIAMOND PARKING SERVICES LLC,DIAMOND PARKING #A623,JONATHAN DIAMOND,2062843100           ,"715 23RD AVE S, SEATTLE, WA 98144",20,,,,,SURFACE LOT,,,,,,,,,http://www.diamondparking.com/find-parking-locations/details/?code=A623,,N,,,,,,,
-122.324736906502153,47.596971389900069,242,614822,653864,DIAMOND PARKING SERVICES LLC,DIAMOND PARKING #A218,JONATHAN DIAMOND,2062813100           ,"614 MAYNARD AVE S, SEATTLE, WA 98104",36,,,,,SURFACE LOT,,,,,,,,,http://www.diamondparking.com/find-parking-locations/details/?code=A218,,N,,,,,,,
-122.335664540740709,47.589239523436511,243,589940,636326,INTERNATIONAL PARKING MGMT,IPM PARKING #37,JOAN SUNDBERG,2062540811           ,"1531 UTAH AV S, SEATTLE, WA   98134",220,,,,,GARAGE,4,6,8,16,,,,,http://www.ipmseattle.com/locations/lot.asp?id=477,,N,IPM,0,,,,,
-122.33248466664449,47.589269618524412,244,449120,533602,BASEBALL CLUB OF SEATTLE LP,SEATTLE MARINERS BALLPARK GARAGE,WATJEN BASEBALL CORP LP,2063464000           ,"1520 OCCIDENTAL AV S, SEATTLE, WA   98134",1695,,,,,,,,,,,,,,http://seattle.mariners.mlb.com/sea/ballpark/transportation/index.jsp?content=parking,,N,MARINERS BALLPARK GARAGE,0,,,,,
-122.334864126358539,47.592018803867724,245,5495,4590,THRIFTY PARK INC,U-PARK #86,KEN JR PHILLIPS,2062849797           ,"1201 1ST AV S, SEATTLE, WA   98101",224,,,,,SURFACE LOT,7,,,10,,,,,,http://www.u-parksystem.com/locations/lot.asp?id=3,N,U-PARK,0,,,,,
-122.322187165995103,47.590394569195176,246,588403,635171,DIAMOND PARKING SERVICES LLC,DIAMOND PARKING #A232,JONATHAN DIAMOND,2062846303           ,"1410 AIRPORT WY S, SEATTLE, WA   98134",26,,,,,SURFACE LOT,,,,,,,,,http://www.diamondparking.com/find-parking-locations/details/?code=A232,,N,DIAMOND,0,,,,,
-122.322250774803464,47.590597692519061,247,624947,661114,DIAMOND PARKING SERVICES LLC,DIAMOND PARKING # A395,JONATHAN DIAMOND,2062843100           ,"1400 AIRPORT WAY S, SEATTLE, WA 98134",20,,,,,SURFACE LOT,,,,,,,,,http://www.diamondparking.com/find-parking-locations/details/?code=A395,,N,,,,,,,
-122.333683700389898,47.593302624604213,248,139348,125205,APPLE MARVIN J,DOME PARKING,MARVIN APPLE,4253491700           ,"1030 1ST AV S, SEATTLE, WA   98134",120,,,,,,,,,,,,,,,,Y,DOME,0,,,,,
-122.350352959798158,47.646647596056361,249,600951,644071,UNITED PARKING SERVICES LLC,UNITED PARKING # 4540,JONATHAN DIAMOND,0000000000           ,"314 NICKERSON ST, SEATTLE, WA   98109",15,,,,,,,,,,,,,,,,N,UNITED,0,,,,,
-122.313861447335626,47.662412662956214,250,57570,52864,UNIVERSITY DISTRICT PARKING ASSOCS  INC,U-DISTRICT PARKING #10,,2065277006           ,"4526 BROOKLYN AV NE, SEATTLE, WA   98105",72,,,,,,,,,,,,,,,,N,U-DISTRICT PARKING LOT,0,,,,,
-122.326895926511185,47.584542008336911,251,207478,185997,KIRBY TODD S,LMA PROPERTY MANAGEMENT,TODD KIRBY,4253355541           ,"1919 6TH AV S, SEATTLE, WA   98134",80,,,,,,,,,,,,,,,,Y,LMA PROPERTY MANAGEMENT,0,,,,,
-122.346534683889232,47.610691864087386,252,497902,568632,MARRIOTT INTERNATIONAL INC,SEATTLE WATERFRONT MARRIOTT,MARGERY BRENEMAN,2064435000           ,"2100 ALASKAN WY, SEATTLE, WA   98121",119,,,,,,,,,,,,,,,,N,SEATTLE WATERFRONT MARRIOTT,0,,,,,
-122.335141264601177,47.599513199423917,253,500057,570059,IMPERIAL PARKING US INC,IMPARK #35,EDWARD DANYLUK,2066848410           ,"74 S JACKSON ST, SEATTLE, WA   98104",160,,6:30am-7pm,CLOSED,CLOSED,,2,4,,18,,,,,,,N,IMPARK,0,,,,,
-122.336803046448139,47.622212018870286,254,599100,642660,STANDARD PARKING CORP,AMAZON GARAGE 1A,BILL BEATTIE,2066247040           ,"410 TERRY AV N, SEATTLE, WA   98109",409,,,,,,,,,,,,,,,,Y,,0,,,,,
-122.310515981278414,47.662616752715621,255,442599,52868,UNIVERSITY DISTRICT PARKING ASSOCS  INC,UCC,,2065277006           ,"4550 16TH AV NE, SEATTLE, WA   98105",39,,,,,,,,,,,,,,,,Y,UCC,0,,,,,
-122.347417375984605,47.619195646347414,256,418706,513327,KEY PARK NORTHWEST INC,KEY PARK NORTHWEST #107,GERALD FISH,2064438400           ,"120 5TH AV N, SEATTLE, WA   98109",10,Trust Parking,24 hours,24 hours,24 hours,SURFACE LOT,6,6,,16,,Key Park Northwest,,,,,N,KEY PARK NORTHWEST,0,,,,,
-122.336190046006692,47.624060364513682,257,599102,642663,STANDARD PARKING CORP,AMAZON #3,BILL BEATTIE,2066247040           ,"551 BOREN AV N, SEATTLE, WA 98109",374,,,,,,,,,,,,,,,,Y,,0,,,,,
-122.336475922868374,47.598807370074539,258,479779,555871,TOTAL TERMINALS INTERNATIONAL LLC,TOTAL TERMINALS INTERNATIONAL LLC,H KIM,5624677426           ,"401 ALASKAN WY S #T-46, SEATTLE, WA   98104",188,,,,,,,,,,,,,,,,Y,TOTAL TERMINALS INTERNATIONAL LLC,0,,,,,
-122.314578585143167,47.602845517017123,259,574710,595346,DIAMOND PARKING SERVICES LLC,DIAMOND PARKING #A963,JONATHAN DIAMOND,2062843100           ,"153 14TH AV, SEATTLE, WA   98122",98,,,,,,,,,,,,,,,,N,DIAMOND,0,,,,,
-122.332115250563049,47.608092668095146,260,435088,525026,TODAYS HOTEL SEATTLE CORP,CROWNE PLAZA HOTEL,MIND ZEN,2064641980           ,"1113 6TH AV, SEATTLE, WA   98101",98,Crowne Plaza Hotel,,,,GARAGE,,,,,,,,,,,N,CROWNE PLAZA HOTEL,0,,,,,
-122.333279043636665,47.603661687145006,261,595696,640396,CAPLANS RAINBOW PARKING INC,CAPLANS RAINBOW PARKING INC,DENNIS CAPLAN,2066822991           ,"214 COLUMBIA ST, SEATTLE, WA   98104",80,,,,,,,,,,,,,,,,Y,CAPLAN RAINBOW,0,,,,,
-122.333367688937514,47.604591366291089,262,505593,573913,CASCADE PARKING INC,CASCADE PARKING,TSEGAI HABTEMICHAEL,2065874322           ,"823 3RD AV, SEATTLE, WA   98104",37,,,,,SURFACE LOT,,,,,1,Cascade,(206) 748-7595,,http://cascadeparking.com/main/,,N,CASCADE,0,,,,,
-122.341119858983234,47.616409469190813,263,445068,530472,IMPERIAL PARKING US INC,IMPARK #4,EDWARD DANYLUK,2063811789           ,"2200 6TH AV, SEATTLE, WA   98101",216,Denny Building Garage - Lot #4,6:00am - 6:00pm,Closed,Closed,GARAGE,6,10,14,17,,IMPARK,,,"https://lots.impark.com/imp?_ga=1.69261712.147180094.1470262460#details=25,4",,N,IMPARK,0,,,,,
-122.331993997812049,47.618007762719785,264,686471,704684,IMPERIAL PARKING US INC,IMPARK #136,EDWARD DANYLUK,2063811789           ,"1200 STEWART ST, SEATTLE, WA 98101",120,1200 Stewart - Lot #136,,,,SURFACE LOT,6,12,17,25,,IMPARK,,,"https://lots.impark.com/imp?_ga=1.69261712.147180094.1470262460#details=25,136",,N,,,,,,,
-122.336951300743863,47.613194342866741,265,548232,605781,IMPERIAL PARKING US INC,IMPARK #60,EDWARD DANYLUK,2063811789           ,"1801 6TH AV, SEATTLE, WA   98101",30,Vance BOA - Lot #60,24 hours,24 hours,24 hours,SURFACE LOT,9,18,,24,1,IMPARK,,,"https://lots.impark.com/imp?_ga=1.69261712.147180094.1470262460#details=25,60",,N,IMPARK,0,,,,,
-122.340982965064569,47.615127885540872,266,469208,548440,IMPERIAL PARKING US INC,IMPARK #13,EDWARD DANYLUK,2063811789           ,"2120 5TH AV, SEATTLE, WA   98121",28,2120 5th Avenue - Lot #13,24 hours,24 hours,24 hours,SURFACE LOT,5,5,,17,,IMPARK,,,https://lots.impark.com/imp?_ga=1.69261712.147180094.1470262460#,,N,IMPARK,0,,,,,
-122.337253046873229,47.613907059271206,267,531568,593012,IMPERIAL PARKING US INC,IMPARK #33,EDWARD DANYLUK,2063811789           ,"600 STEWART ST, SEATTLE, WA   98101",100,Plaza 600 - Lot #33,24 hours,24 hours,24 hours,GARAGE,10,14,14,32,,IMPARK,,,"https://lots.impark.com/imp?_ga=1.69261712.147180094.1470262460#details=25,33",,N,IMPARK,0,,,,,
-122.336443844875987,47.613560331746804,268,548233,605782,IMPERIAL PARKING US INC,IMPARK #59 & 61,EDWARD DANYLUK,2063811789           ,"1818 6TH AV, SEATTLE, WA   98101",85,"Tower Building Surface Lot - Lot #59; Lloyd Surface Lot - Lot #61",24 hours,24 hours,24 hours,SURFACE LOT,8,16,24,,,IMPARK,,,"https://lots.impark.com/imp?_ga=1.69261712.147180094.1470262460#details=25,59",,N,IMPARK,0,,,,,
-122.338031218376301,47.604487135942122,269,617364,655407,IMPERIAL PARKING US INC,IMPARK #            - WATERFRONT PLACE GARAGE,EDWARD DANYLUK,2063811789           ,"1109 WESTERN AV, SEATTLE, WA 98101",194,Waterfront Place - Lot 103,,,,GARAGE,6,,,,,IMPARK,,,"https://lots.impark.com/imp?_ga=1.48952358.1277140387.1429651959#details=25,103",,N,WATERFRONT PLACE GARAGE,22,N,0,1,2017-10-01T16:51:56.000Z,G19
-122.338398943777591,47.612917721690771,270,632034,665930,IMPERIAL PARKING US INC,IMPERIAL PARKING #106,EDWARD DANYLUK,2063811789           ,"1903 5TH AVE, SEATTLE, WA 98101",48,5th & Stewart Park LLC - Lot #106,,,,GARAGE,11,,,,,IMPARK,,,"https://lots.impark.com/imp?_ga=1.69261712.147180094.1470262460#details=25,106",,N,,,,,,,
-122.321566015251761,47.606625397097666,271,685818,704189,IMPERIAL PARKING US INC,IMPARK #132,EDWARD DANYLUK,2063811789           ,"515 MINOR AVE, SEATTLE, WA 98101",297,First Hill Medical Building - Lot #132,,,,"GARAGE, SURFACE LOT",7,9,,,,IMPARK,,,"https://lots.impark.com/imp?_ga=1.69261712.147180094.1470262460#details=25,132",,N,,,,,,,
-122.321216695925003,47.613180712682542,272,575117,625374,IMPERIAL PARKING US INC,IMPARK #72,EDWARD DANYLUK,2063811789           ,"1401 BROADWAY, SEATTLE, WA   98122",277,Harvard Market Lot #72,6:00am - 12:00am,6:00am - 12:00am,6:00am - 12:00am,GARAGE/SURFACE LOT,5,,,21,,IMPARK,,,"https://lots.impark.com/imp?_ga=1.48952358.1277140387.1429651959#details=25,72",,N,IMPARK,0,,,,,
-122.344585637478019,47.615271063278257,273,426744,519369,REPUBLIC PARKING N W INC,REPUBLIC PARKING #155,GARY BECK,2067834144           ,"314 BELL ST, SEATTLE, WA   98121",21,,24 hours,24 hours,24 hours,SURFACE LOT,6,6,9,14,,Republic Parking Northwest,,,http://www.rpnw.com/lot/seattle/30-155,,N,REPUBLIC,0,,,,,
-122.340410809195035,47.615307134116549,274,628777,663737,IMPERIAL PARKING US INC,VIA 6 - LOT #109,EDWARD DANYLUK,206381789            ,"2121 6TH AVE, SEATTLE, WA 98121",434,,,,,,3,3,10,28,,IMPARK,,,"https://lots.impark.com/imp?_ga=1.69261712.147180094.1470262460#details=25,109",,N,,,,,,,
-122.341857139480894,47.61145263684417,275,426747,519374,REPUBLIC PARKING N W INC,REPUBLIC PARKING #158,GARY BECK,2067834144           ,"1935 2ND AV, SEATTLE, WA   98101",16,,24 hours,24 hours,24 hours,SURFACE LOT,9,9,12,33,1,Republic Parking Northwest,,,http://www.rpnw.com/lot/seattle/30-158,,N,REPUBLIC,0,,,,,
-122.349472341694721,47.611373365988186,276,547841,605509,REPUBLIC PARKING N W INC,REPUBLIC PARKING #29 - PIER 66,GARY BECK,2067834144           ,"2225 ALASKAN WY, SEATTLE, WA   98121",29,,6:00am - 4:30pm,6:00am - 4:30pm,6:00am - 4:30pm,SURFACE LOT,2,4,6,12,,Republic Parking Northwest,,,http://www.rpnw.com/lot/seattle/30-029,,N,REPUBLIC - PIER 66,0,,,,,
-122.346484647366552,47.621899137311331,277,594961,639858,REPUBLIC PARKING N W INC,REPUBLIC #30-131 ADLER LOT,GARY BECK,2067834144           ,"333 TAYLOR AV N, SEATTLE, WA   98109",21,,,,,SURFACE LOT,,,,,1,Republic Parking Northwest,,,http://www.rpnw.com/lot/seattle/30-131,,N,REPUBLIC ADLER LOT,0,,,,,
-122.339033530624064,47.612294863958887,278,445066,530469,IMPERIAL PARKING US INC,IMPARK #2,EDWARD DANYLUK,2063811789           ,"1913 4TH AVE, SEATTLE, WA   98101",178,,6:30am-11pm,8am-1am,9am-8pm,GARAGE,5,10,15,27,8,IMPARK,,,"https://lots.impark.com/imp?_ga=1.69261712.147180094.1470262460#details=25,2",,N,IMPARK,0,,,,,
-122.33277264726658,47.611382208339776,279,531570,593015,IMPERIAL PARKING US INC,IMPARK #53,EDWARD DANYLUK,2063811789           ,"701 PIKE ST, SEATTLE, WA   98101",233,One Convention Place - Lot #53,6:00am - 12:00am,6:00am - 12:00am,6:00am - 12:00am,GARAGE,9,12,15,31,,IMPARK,,,"https://lots.impark.com/imp?_ga=1.69261712.147180094.1470262460#details=25,53",,N,IMPARK,,,,,,
-122.347479442069243,47.611163952,280,509678,576659,REPUBLIC PARKING N W INC,REPUBLIC #221,GARY BECK,2067834144           ,"2200 ALASKAN WY, SEATTLE, WA   98121",37,World Trade Center West,6:00am - 1:00am,6:00am - 2:00am,6:00am - 1:00am,GARAGE,6,12,14,22,,Republic Parking Northwest,,,http://www.rpnw.com/lot/seattle/30-221,,N,REPUBLIC,0,,,,,
-122.345238839366516,47.61778628550443,281,410819,507523,REPUBLIC PARKING N W INC,REPUBLIC #11,GARY BECK,2067834144           ,"500 WALL ST, SEATTLE, WA   98121",205,Skye at Belltown,6:45am - 6:30pm,10:00am - 6:00pm,Closed,GARAGE,2.75,5,6.50,12,5,Republic Parking Northwest,,,http://www.rpnw.com/lot/seattle/30-011,,N,REPUBLIC,0,,,,,
-122.355892598861871,47.620763281544839,282,83120,76134,REPUBLIC PARKING N W INC,REPUBLIC PARKING #515D,GARY BECK,2067834144           ,"233 1ST AV N, SEATTLE, WA   98109",30,,24 hours,24 hours,24 hours,SURFACE LOT,4,4,13,13,1,Republic Parking Northwest,,,http://www.rpnw.com/lot/seattle/30-515D,,N,REPUBLIC,0,,,,,
-122.359577012984445,47.618906443520352,283,558992,613599,REPUBLIC PARKING N W INC,REPUBLIC PARKING #554 - PI BLDG,GARY BECK,2067834144           ,"101 ELLIOTT AV W, SEATTLE, WA   98119",225,PI Building,7:00am-7:00pm,CLOSED,CLOSED,GARAGE,6,8,11,21,1,Republic Parking Northwest,,,http://www.rpnw.com/lot/seattle/30-554,,N,REPUBLIC - PI BLDG,0,,,,,
-122.339595019179967,47.630001129224723,284,565791,618335,REPUBLIC PARKING N W INC,REPUBLIC PARKING #30-556 - AGC BUILDING,GARY BECK,2067834144           ,"1200 WESTLAKE AV N, SEATTLE, WA   98109",339,AGC Building,24 hours,24 hours,24 hours,SURFACE LOT,7,10,12,16,,Republic Parking Northwest,(206) 783-4144,,http://www.rpnw.com/lot/seattle/30-556,,N,REPUBLIC - AGC BUILDING,0,,,,,
-122.384340013719694,47.669258586925636,285,591236,637235,DIAMOND PARKING SERVICES LLC,DIAMOND PARKING #WU88,JONATHAN DIAMOND,2062843100           ,"5512 22ND AV NW, SEATTLE, WA   98107",25,,,,,SURFACE LOT,,,,,,,,,http://www.diamondparking.com/find-parking-locations/details/?code=WU88,,N,DIAMOND,0,,,,,
-122.349225189393536,47.626718773726111,286,624353,660621,DIAMOND PARKING SERVICES LLC,DIAMOND PARKING #A389 - MERRILL GARDENS Q A,JONATHAN DIAMOND,2063843100           ,"805 4TH AVE N, SEATTLE, WA 98109",35,,,,,GARAGE,,,,,,,,,http://www.diamondparking.com/find-parking-locations/details/?code=A389,,N,,,,,,,
-122.325920741145239,47.614492154397851,287,654042,681526,REPUBLIC PARKING N W INC,REPUBLIC PARKING #30-006 - SUMMIT GARAGE,GARY BECK,2067834144           ,"420 E PIKE ST, SEATTLE, WA 98122",113,Summit Building Garage,6:00am - 10:00pm,8:00am - 12:00am,Closed,GARAGE,7,7,15,15,,Republic Parking Northwest,,,http://www.rpnw.com/lot/seattle/30-006,,N,,,,,,,
-122.344014988715358,47.611558670374293,288,680595,700433,REPUBLIC PARKING N W INC,MARKET PLACE TOWER #30-512,GARY BECK,2067834144           ,"2025 1ST AVE, SEATTLE, WA 98121",186,Market Place Tower,,,,GARAGE,8,14,16,30,,Republic Parking Northwest,,,http://www.rpnw.com/lot/seattle/30-512,,N,,,,,,,
-122.331343507237833,47.617828427739994,289,534443,593917,DIAMOND PARKING SERVICES LLC,DIAMOND  #A251,JONATHAN DIAMOND,2062843100           ,"1820 MINOR AV, SEATTLE, WA   98101",22,,,,,GARAGE,,,,,,,,,http://www.diamondparking.com/find-parking-locations/details/?code=A251,,N,DIAMOND,0,,,,,
-122.327581744963993,47.615984988373683,290,588666,635361,DIAMOND PARKING SERVICES LLC,DIAMOND PARKING #A475 BOTTOM,JONATHAN DIAMOND,2062843100           ,"1620 MELROSE AVE, SEATTLE, WA 98122",19,,,,,GARAGE,,,,,,,,,http://www.diamondparking.com/find-parking-locations/details/?code=A475,,N,,,,,,,
-122.330552478904309,47.617263316452359,291,534490,593934,DIAMOND PARKING SERVICES LLC,DIAMOND  #A257,JONATHAN DIAMOND,2062843100           ,"1204 HOWELL ST, SEATTLE, WA   98102",16,,,,,SURFACE LOT,,,,,,,,,http://www.diamondparking.com/find-parking-locations/details/?code=A257,,N,DIAMOND,0,,,,,
-122.332282067616333,47.617559300908994,292,666619,690379,DIAMOND PARKING SERVICES LLC,DIAMOND PARKING #A477,JONATHAN DIAMOND,2062843100           ,"1901 MINOR AVE, SEATTLE, WA 98101",72,,,,,SURFACE LOT,,,,,,,,,http://www.diamondparking.com/find-parking-locations/details/?code=A477,,N,,,,,,,
-122.338457505292027,47.617065386197282,293,588421,635159,DIAMOND PARKING SERVICES LLC,DIAMOND PARKING #A072,JONATHAN DIAMOND,2062846303           ,"2115 WESTLAKE AV, SEATTLE, WA 98121",21,,,,,SURFACE LOT,,,,,1,Diamond Parking Service,,,http://www.diamondparking.com/find-parking-locations/details/?code=A072,,N,DIAMOND,0,,,,,
-122.332613234982148,47.61664686896772,294,693186,532324,ACE PARKING MANAGEMENT INC,HILTON GARDEN INN,BRYAN COLLINS,2066289042           ,"1821 BOREN AVE, SEATTLE, WA 98101",100,Hilton Garden Inn Seattle,6:00am - 11:00pm,6:00am - 11:00pm,6:00am - 11:00pm,,,,,,,,,,http://www.aceparking.com/find-parking/,,N,,,,,,,
-122.333758494742298,47.582579482367251,295,493030,4602,THRIFTY PARK INC,U-PARK  #098,KEN JR PHILLIPS,2066245353           ,"2246 1ST AV S, SEATTLE, WA   98134",56,Stadium Parking Lot #98,Self park location,Self park location,Self park location,SURFACE LOT,,,,,,U-Park System,(206) 284-9797,,http://www.u-parksystem.com/locations/lot.asp?id=326,,N,U-PARK,0,,,,,
-122.354707323293923,47.651067799990805,296,5467,4576,THRIFTY PARK INC,U-PARK #72,KEN JR PHILLIPS,2062849797           ,"173 N 35TH ST, SEATTLE, WA   98133",36,,,,,SURFACE LOT,7,7,,10,,U-Park System,,,http://www.u-parksystem.com/locations/lot.asp?id=305,,N,U-PARK,0,,,,,
-122.345342757648197,47.613022624583195,297,575056,4586,THRIFTY PARK INC,U-PARK #82,KEN JR PHILLIPS,2062849797           ,"2210 1ST AV, SEATTLE, WA",29,Belltown Lot #82,,,,SURFACE LOT,12,12,,20,1,U-Park System,(206) 284-9797,,http://www.u-parksystem.com/locations/lot.asp?id=361,,N,U-PARK,0,,,,,
-122.334095610994567,47.616885343647937,298,5354,4519,THRIFTY PARK INC,U-PARK #14,KEN JR PHILLIPS,2062849797           ,"1920 TERRY AV, SEATTLE, WA   98101",27,Denny Triangle Lot #14,,,,SURFACE LOT,10,10,,15,,U-Park System,(206) 284-9797,,http://www.u-parksystem.com/locations/lot.asp?id=258,,N,U-PARK,0,,,,,
-122.348349969587929,47.612972143678888,299,5527,4606,THRIFTY PARK INC,U-PARK #102,KEN JR PHILLIPS,2319349797           ,"2317 WESTERN AV, SEATTLE, WA   98121",28,Belltown Lot #102,,,,SURFACE LOT,7,7,,12,,U-Park System,(206) 284-9797,,http://www.u-parksystem.com/locations/lot.asp?id=330,,N,U-PARK,0,,,,,
-122.354361554334773,47.624312141094826,300,5344,4514,THRIFTY PARK INC,U-PARK #9,KEN JR PHILLIPS,2062849797           ,"115 MERCER ST, SEATTLE, WA   98109",23,Seattle Center Lot #9,Self park location,Self park location,Self park location,SURFACE LOT,7,7,,10,,U-Park System,(206) 284-9797,,http://www.u-parksystem.com/locations/lot.asp?id=254,,N,U-PARK,0,,,,,
-122.356946824665059,47.621929080464945,301,5326,4505,THRIFTY PARK INC,U-PARK #100,KEN JR PHILLIPS,2062849797           ,"5 W HARRISON ST, SEATTLE, WA   98119",17,Queen Anne #100,6:00am - 6:00pm,Self park location,Self park location,SURFACE LOT,5,5,,10,1,U-Park System,(206) 284-9797,,http://www.u-parksystem.com/locations/lot.asp?id=328,,N,U-PARK,0,,,,,
-122.352392924197929,47.625279074632587,302,575046,4517,THRIFTY PARK INC,U-PARK #12,KEN JR PHILLIPS,2066247979           ,"201 ROY ST, SEATTLE, WA   98109",60,Seattle Opera Lot #12,Self park location,Self park location,Self park location,SURFACE LOT,10,10,,12,,U-Park System,(206) 284-9797,,http://www.u-parksystem.com/locations/lot.asp?id=256,,N,U-PARK,0,,,,,
-122.329880718507283,47.605007373502588,303,560693,614872,IMPERIAL PARKING US INC,IMPARK #65,EDWARD DANYLUK,2063811789           ,"700 5TH AV, SEATTLE, WA 98104",643,SMT Garage,6am-10pm,CLOSED,CLOSED,GARAGE,9,12,,24,,"Ace Parking Management, Inc.",(206) 381-1789,,"https://lots.impark.com/imp?_ga=1.69261712.147180094.1470262460#details=25,65",,N,IMPARK,0,,,,,
-122.332017279173627,47.60909042243982,304,559032,613634,ACE PARKING MANAGEMENT INC,ACE PARKING - PARK PLACE BUILDING,BRYAN COLLINS,2069031219           ,"1200 6TH AV, SEATTLE, WA   98101",165,Park Place Building,6:00am - 6:00pm,Closed,Closed,GARAGE,,,,,6,"Ace Parking Management, Inc.",,,http://www.aceparking.com/find-parking/,,N,ACE PARKING - PARK PLACE BUILDING,0,,,,,
-122.350297622181358,47.659949718613511,305,666877,690564,DIAMOND PARKING SERVICES LLC,DIAMOND PARKING #WX04,JONATHAN DIAMOND,2062843100           ,"4333 FREMONT AVE N, SEATTLE, WA 98103",13,Fremont,,,,SURFACE LOT,,,,,,,,,http://www.diamondparking.com/find-parking-locations/details/?code=WX04,,N,,,,,,,
-122.318463207233947,47.660850569667531,306,689722,705410,DIAMOND PARKING SERVICES LLC,DIAMOND PARKING #WX10,JONATHAN DIAMOND,2062843100           ,"907 NE 45TH ST, SEATTLE, WA 98105",17,The Kennedy Building,,,,GARAGE,,,,,,,,,http://www.diamondparking.com/find-parking-locations/details/?code=WX10,,N,,,,,,,
-122.348018046628709,47.649928867604174,307,690584,595351,DIAMOND PARKING SERVICES LLC,DIAMOND PARKING #WX12,JONATHAN DIAMOND,2062843100           ,"743 N 35TH ST, SEATTLE, WA 98103",39,Fremont Lake View,,,,SURFACE LOT,,,,,,,,,http://www.diamondparking.com/find-parking-locations/details/?code=WX12,,N,,,,,,,
-122.367468679190239,47.626246168405558,308,669059,595167,DIAMOND PARKING SERVICES LLC,DIAMOND PARKING #A370,JONATHAN DIAMOND,2062843100           ,"660 ELLIOTT AVE W, SEATTLE, WA 98119",37,,,,,SURFACE LOT,,,,,,,,,http://www.diamondparking.com/find-parking-locations/details/?code=A370,,N,,,,,,,
-122.382215546127242,47.648266969749621,309,534488,593933,DIAMOND PARKING SERVICES LLC,DIAMOND #A617,JONATHAN DIAMOND,2062843100           ,"2003 W DRAVUS ST, SEATTLE, WA 98199",78,,,,,SURFACE LOT,,,,,,,,,http://www.diamondparking.com/find-parking-locations/details/?code=A617,,N,,,,,,,
-122.366556892150896,47.624736693896345,310,626772,662392,DIAMOND PARKING SERVICES LLC,DIAMOND PARKING #A390,JONATHAN DIAMOND,2062843100           ,"601 ELLIOTT AVE W, SEATTLE, WA 98119",150,,,,,SURFACE LOT,,,,,,,,,http://www.diamondparking.com/find-parking-locations/details/?code=A390,,N,,,,,,,
-122.342586815889192,47.629055014532184,311,691121,660191,DIAMOND PARKING SERVICES LLC,DIAMOND PARKING #A628,JONATHAN DIAMOND,2062843100           ,"1101 DEXTER AVE N, SEATTLE, WA 98109",406,,,,,,,,,,,,,,http://www.diamondparking.com/find-parking-locations/details/?code=A628,,N,,,,,,,
-122.342638091850034,47.62736018602611,312,603327,645733,DIAMOND PARKING SERVICES LLC,DIAMOND PARLING #A310,JONATHAN DIAMOND,2062846303           ,"901 DEXTER AV N, SEATTLE, WA   98109",43,,,,,,,,,,,,,,http://www.diamondparking.com/find-parking-locations/details/?code=A310,,N,DIAMOND,0,,,,,
-122.320904597688298,47.651526806176982,313,625526,661552,DIAMOND PARKING SERVICES LLC,DIAMOND PARKING #630,JONATHAN DIAMOND,2062843100           ,"3282 FUHRMAN AVE E, SEATTLE, WA 98102",40,,,,,SURFACE LOT,,,,,,,,,http://www.diamondparking.com/find-parking-locations/details/?code=A630,,N,,,,,,,
-122.376953195907191,47.648644681048047,314,618095,655921,DIAMOND PARKING SERVICES LLC,DIAMOND PARKING #A378,JONATHAN DIAMOND,2062843100           ,"1518 W DRAVUS ST, SEATTLE, WA 98119",12,,,,,SURFACE LOT,,,,,,,,,http://www.diamondparking.com/find-parking-locations/details/?code=A378,,N,,,,,,,
-122.333838170243396,47.627742134068434,315,679530,625096,DIAMOND PARKING SERVICES LLC,DIAMOND PARKING #A601,JONATHAN DIAMOND,2062843100           ,"901 FAIRVIEW AVE N, SEATTLE, WA 98109",175,,,,,SURFACE LOT,,,,,,,,,http://www.diamondparking.com/find-parking-locations/details/?code=A601,,N,,,,,,,
-122.32625729415183,47.642193559297134,316,649556,678058,DIAMOND PARKING SERVICES LLC,DIAMOND PARKING #A444,JONATHAN DIAMOND,2062843100           ,"2501 EASTLAKE AVE E, SEATTLE, WA 98102",30,,,,,,,,,,,,,,http://www.diamondparking.com/find-parking-locations/details/?code=A444,,N,,,,,,,
-122.331728638007732,47.629019508420235,317,534580,595336,DIAMOND PARKING SERVICES LLC,DIAMOND #A874,JONATHAN DIAMOND,2062843100           ,"1001 FAIRVIEW AV N, SEATTLE, WA   98109",88,,,,,SURFACE LOT,,,,,,,,,http://www.diamondparking.com/find-parking-locations/details/?code=A874,,N,DIAMOND,0,,,,,
-122.330353133046842,47.628551108353612,318,651387,679473,DIAMOND PARKING SERVICES LLC,DIAMOND PARKING #A449,JONATHAN DIAMOND,2062843100           ,"1100 FAIRVIEW AVE N, SEATTLE, WA 98109",21,,,,,,,,,,,,,,http://www.diamondparking.com/find-parking-locations/details/?code=A449,,N,,,,,,,
-122.330226692017703,47.618123029449151,319,534511,593946,DIAMOND PARKING SERVICES LLC,DIAMOND #A176,JONATHAN DIAMOND,2062843100           ,"1818 YALE AV, SEATTLE, WA   98122",28,,,,,SURFACE LOT,,,,,,,,,http://www.diamondparking.com/find-parking-locations/details/?code=A176,,N,DIAMOND,0,,,,,
-122.323762751410001,47.616922760057733,320,534509,593945,DIAMOND PARKING SERVICES LLC,DIAMOND  #A170,JONATHAN DIAMOND,2062843100           ,"1717 BOYLSTON AV, SEATTLE, WA   98122",28,,,,,SURFACE LOT,,,,,,,,,http://www.diamondparking.com/find-parking-locations/details/?code=A170,,N,DIAMOND,0,,,,,
-122.304129526224486,47.6184346363437,321,671311,693815,DIAMOND PARKING SERVICES LLC,DIAMOND PARKING #A485,JONATHAN DIAMOND,2062843100           ,"2100 E MADISON ST, SEATTLE, WA 98112",12,,,,,SURFACE LOT,,,,,,,,,http://www.diamondparking.com/find-parking-locations/details/?code=A485,,N,,,,,,,
-122.322501016780947,47.6178979455904,322,587469,634486,DIAMOND PARKING SERVICES LLC,DIAMOND PARKING #A980 (A),JONATHAN DIAMOND,2062843100           ,"1807 HARVARD AV, SEATTLE, WA   98122",62,,,,,SURFACE LOT,,,,,,,,,http://www.diamondparking.com/find-parking-locations/details/?code=A980,,N,DIAMOND,0,,,,,
-122.321352938094222,47.616767634202397,323,588416,635154,DIAMOND PARKING SERVICES LLC,DIAMOND PARKING #A025,JONATHAN DIAMOND,2062846303           ,"1701 BROADWAY, SEATTLE, WA   98122",36,,,,,SURFACE LOT,,,,,,,,,http://www.diamondparking.com/find-parking-locations/details/?code=A025,,N,DIAMOND,0,,,,,
-122.313152559154304,47.621291544537442,324,614819,653859,DIAMOND PARKING SERVICES LLC,DIAMOND PARKING #A092,JONATHAN DIAMOND,2062843100           ,"321 15TH AVE E, SEATTLE, WA 98112",37,,,,,SURFACE LOT,,,,,,,,,http://www.diamondparking.com/find-parking-locations/details/?code=A092,,N,,,,,,,
-122.312275496141964,47.620135754399946,325,574686,576757,DIAMOND PARKING SERVICES LLC,DIAMOND PARKING #A914,JONATHAN DIAMOND,2062846303           ,"201 16TH AV E, SEATTLE, WA   98112",300,,,,,GARAGE,,,,,,,,,http://www.diamondparking.com/find-parking-locations/details/?code=A914,,N,DIAMOND,0,,,,,
-122.320552873269676,47.617329599068903,326,588273,635079,REPUBLIC PARKING N W INC,REPUBLIC PARKING #30-119 BONNEY WATSON BROADWAY,GARY BECK,206784144            ,"1732 BROADWAY, SEATTLE, WA   98122",30,Bonney Watson Broadway,24 hours,24 hours,24 hours,SURFACE LOT,4,4,6,10,,,,,http://www.rpnw.com/lot/seattle/30-119,,N,REPUBLIC - BONNEY WATSON BROADWAY,0,,,,,
-122.320541376001131,47.620840234275931,327,628772,663733,DIAMOND PARKING SERVICES LLC,DIAMOND PARKING #A383,JONATHAN DIAMOND,2062843100           ,"230 BROADWAY E, SEATTLE, WA 98102",72,,,,,GARAGE,,,,,,,,,http://www.diamondparking.com/find-parking-locations/details/?code=A383,,N,,,,,,,
-122.324324382107989,47.619002847393872,328,652002,679932,DIAMOND PARKING SERVICES LLC,DIAMOND PARKING #A450,JONATHAN DIAMOND,2062843100           ,"117 BELMONT AVE E, SEATTLE, WA 98102",17,,,,,SURFACE LOT,,,,,,,,,http://www.diamondparking.com/find-parking-locations/details/?code=A450,,N,,,,,,,
-122.325121024837273,47.618834643742936,329,667410,690978,DIAMOND PARKING SERVICES LLC,DIAMOND PARKING #A472,JONATHAN DIAMOND,2062843100           ,"110 SUMMIT AVE E, SEATTLE, WA 98102",10,,,,,SURFACE LOT,,,,,,,,,http://www.diamondparking.com/find-parking-locations/details/?code=A472,,N,,,,,,,
-122.32506385542753,47.619397276196608,330,603360,645755,DIAMOND PARKING SERVICES LLC,DIAMOND PARKING #A329,JONATHAN DIAMOND,2062846303           ,"1600 E OLIVE WY, SEATTLE, WA   98122",21,,,,,SURFACE LOT,,,,,,,,,http://www.diamondparking.com/find-parking-locations/details/?code=A472,,N,DIAMOND,0,,,,,
-122.329942021092819,47.618689994083674,331,683648,625103,DIAMOND PARKING SERVICES LLC,DIAMOND PARKING #A615,JONATHAN DIAMOND,2062843100           ,"1305 STEWART ST, SEATTLE, WA 98109",204,,,,,SURFACE LOT,,,,,,,,,http://www.diamondparking.com/find-parking-locations/details/?code=A615,,N,,,,,,,
-122.330855013275325,47.61597372855519,332,628779,663739,IMPERIAL PARKING US INC,MET PARK WEST - LOT #111,EDWARD DANYLUK,2063811789           ,"1100 OLIVE WAY, SEATTLE, WA 98101",166,Met Park West - Lot #111,,,,GARAGE,13,,,30,,,,,"https://lots.impark.com/imp?_ga=1.69261712.147180094.1470262460#details=25,111",,N,,,,,,,
-122.332196309676391,47.616336596127987,333,534519,593949,DIAMOND PARKING SERVICES LLC,DIAMOND  #A234,JONATHAN DIAMOND,2062843100           ,"1817 BOREN AV, SEATTLE, WA   98101",86,,,,,SURFACE LOT,,,,,,,,,http://www.diamondparking.com/find-parking-locations/details/?code=A234,,N,DIAMOND,0,,,,,
-122.334480200401387,47.615976595140673,334,519681,584041,DIAMOND PARKING SERVICES LLC,DIAMOND PARKING #A187,JONATHAN DIAMOND,2062846303           ,"1900 9TH AV, SEATTLE, WA   98101",183,,,,,GARAGE,,,,,,,,,http://www.diamondparking.com/find-parking-locations/details/?code=A187,,N,DIAMOND,0,,,,,
-122.329651842091991,47.616950636689012,335,628778,663738,IMPERIAL PARKING US INC,MET PARK EAST - LOT #110,EDWARD DANYLUK,2063811789           ,"1730 MINOR AVE, SEATTLE, WA 98101",283,Met Park East - Lot #110,,,,GARAGE,13,16,,30,,,,,"https://lots.impark.com/imp?_ga=1.69261712.147180094.1470262460#details=25,110",,N,,,,,,,
-122.320273564198502,47.611991904187349,336,547827,605514,DIAMOND PARKING SERVICES LLC,DIAMOND PARKING #A903,JONATHAN DIAMOND,2062843100           ,"1120 BROADWAY, SEATTLE, WA   98102",140,,,,,GARAGE,,,,,,,,,http://www.diamondparking.com/find-parking-locations/details/?code=A903,,N,DIAMOND,0,,,,,
-122.324538568894752,47.611360583706798,337,658623,684564,ABM ONSITE SERVICES WEST INC,ABM PARKING #6177 - VMMC TATE MASON LOT,YONAS AHMED,2062670446           ,"1215 SENECA ST, SEATTLE, WA 98101",27,,,,,,,,,,,ABM,,,http://www.abm.com/parking-consumer/,,N,,,,,,,
-122.320273564198502,47.611991904187349,338,669021,593916,DIAMOND PARKING SERVICES LLC,DIAMOND  PARKING #A904,JONATHAN DIAMOND,2062843100           ,"1120 BROADWAY, SEATTLE, WA 98102",212,,,,,GARAGE,,,,,,,,,http://www.diamondparking.com/find-parking-locations/details/?code=A904,,N,,,,,,,
-122.318426320513566,47.612711457798419,339,652001,679931,DIAMOND PARKING SERVICES LLC,DIAMOND PARKING #A454,JONATHAN DIAMOND,2062843100           ,"1161 11TH AVE, SEATTLE, WA 98122",9,,,,,SURFACE LOT,,,,,,,,,http://www.diamondparking.com/find-parking-locations/details/?code=A454,,N,,,,,,,
-122.320371995930287,47.614911485850882,340,645901,674971,DIAMOND PARKING SERVICES LLC,DIAMOND PARKING #A441,JONATHAN DIAMOND,2062843100           ,"1526 BROADWAY, SEATTLE, WA 98112",11,,,,,SURFACE LOT,,,,,,,,,http://www.diamondparking.com/find-parking-locations/details/?code=A441,,N,,,,,,,
-122.317315209398828,47.612818139418799,341,574690,582421,DIAMOND PARKING SERVICES LLC,DIAMOND PARKING #A927,JONATHAN DIAMOND,2069929475           ,"1122 E MADISON ST, SEATTLE, WA   98122",35,,,,,SURFACE LOT,,,,,,,,,http://www.diamondparking.com/find-parking-locations/details/?code=A927,,N,DIAMOND,0,,,,,
-122.288995246074478,47.612430789467268,342,574701,593909,DIAMOND PARKING SERVICES LLC,DIAMOND PARKING #A950,JONATHAN DIAMOND,2062843100           ,"1126 34TH AV, SEATTLE, WA 98122",52,,,,,SURFACE LOT,,,,,,,,,http://www.diamondparking.com/find-parking-locations/details/?code=A950,,N,DIAMOND,0,,,,,
-122.315715599078615,47.615541712874197,343,648113,676954,DIAMOND PARKING SERVICES LLC,DIAMOND PARKING #A440,JONATHAN DIAMOND,2062843100           ,"1601 13TH AVE, SEATTLE, WA 98122",14,,,,,GARAGE,,,,,,,,,http://www.diamondparking.com/find-parking-locations/details/?code=A440,,N,,,,,,,
-122.315278206824701,47.614307030408334,344,659635,685245,DIAMOND PARKING SERVICES LLC,DIAMOND PARKING #A464,JONATHAN DIAMOND,2062843100           ,"1300 E PIKE ST, SEATTLE, WA 98122",11,,,,,SURFACE LOT,,,,,,,,,http://www.diamondparking.com/find-parking-locations/details/?code=A464,,N,,,,,,,
-122.321401524052405,47.612440419843495,345,371,307,THE POLYCLINIC A PROFESSIONAL CORP,THE POLYCLINIC,DAVID GILBERT,2063291760           ,"1145 BROADWAY, SEATTLE, WA 98122",293,The Polyclinic Broadway Garage,7:00am - 5:00pm,Closed,Closed,GARAGE,5,7,9,18,,The Polyclinic,(206) 329-1760,,https://polyclinic.com/locations/broadway,,N,,,,,,,
-122.314817282589516,47.615431863816987,346,603372,645761,DIAMOND PARKING SERVICES LLC,DIAMOND PARKING #A875,JONATHAN DIAMOND,2062846303           ,"1320 E PINE ST, SEATTLE, WA 98112",52,,,,,SURFACE LOT,,,,,,,,,http://www.diamondparking.com/find-parking-locations/details/?code=A875,,N,DIAMOND,0,,,,,
-122.32418474731783,47.612871792465036,347,618569,4515,THRIFTY PARK INC,U-PARK #10,KEN JR PHILLIPS,2062849797           ,"1320 UNIVERSITY ST, SEATTLE, WA 09101",87,,,,,SURFACE LOT,,,,7,,,,,http://www.u-parksystem.com/locations/lot.asp?id=348,,N,,,,,,,
-122.33338585638262,47.610869903950153,348,458852,540891,ACE PARKING MANAGEMENT INC,SHERATON PRKG GARAGE LOT # 677 # 678,BRYAN COLLINS,6192336624           ,"1400 6TH AV, SEATTLE, WA 98101",300,Sheraton Seattle Hotel - Valet,24 hours,24 hours,24 hours,GARAGE,16,19,,38,,"Ace Parking Management, Inc.",(206) 621-9000,,,,N,SHERATON,,,,,,
-122.3565285809605,47.622299941361966,349,5376,4530,THRIFTY PARK INC,U-PARK #25,KEN JR PHILLIPS,2062849797           ,"10 HARRISON ST, SEATTLE, WA   98109",52,Seattle Center Garage #25,Self park location,Self park location,Self park location,SURFACE LOT,5,5,,,,U-Park System,(206) 284-9797,,,,N,U-PARK,0,,,,,
-122.353826761943253,47.624873808485525,350,5378,4531,THRIFTY PARK INC,U-PARK #26,KEN JR PHILLIPS,2062849797           ,"600 WARREN AV N, SEATTLE, WA   98109",58,Seattle Center Lot #26,24 Hours,24 Hours,24 Hours,SURFACE LOT,10,10,,12,1,U-Park System,(206) 284-9797,,http://www.u-parksystem.com/locations/lot.asp?id=269,,N,U-PARK,0,,,,,
-122.353013411691734,47.624830785237478,351,5334,4509,THRIFTY PARK INC,U-PARK #4,KEN JR PHILLIPS,2062849797           ,"170 MERCER ST, SEATTLE, WA   98109",24,,,,,SURFACE LOT,,,,,1,U-Park System,,,,,N,U-PARK,0,,,,,
-122.317984194315983,47.662721248284861,352,534469,593925,DIAMOND PARKING SERVICES LLC,DIAMOND  #WU10,JONATHAN DIAMOND,2062843100           ,"4535 ROOSEVELT WY NE, SEATTLE, WA   98105",145,45th and 9th,,,,SURFACE LOT,,,,,,,,,http://www.diamondparking.com/find-parking-locations/details/?code=WU10,,N,DIAMOND,0,,,,,
-122.342495798970432,47.63274919232628,353,603350,645750,DIAMOND PARKING SERVICES LLC,DIAMOND PARKING #A322,JONATHAN DIAMOND,2062846303           ,"1511 DEXTER AV N, SEATTLE, WA   98109",17,,,,,SURFACE LOT,,,,,,,,,http://www.diamondparking.com/find-parking-locations/details/?code=A322,,N,DIAMOND,0,,,,,
-122.319500867526045,47.658829558002353,354,661194,686182,DIAMOND PARKING SERVICES LLC,DIAMOND PARKING #WX01,JONATHAN DIAMOND,2062843100           ,"4244 8TH AVE NE, SEATTLE, WA 98115",9,CoHo,,,,SURFACE LOT,,,,,,,,,http://www.diamondparking.com/find-parking-locations/details/?code=WX01,,N,,,,,,,
-122.299317348345312,47.66460058778263,355,653853,681391,DIAMOND PARKING SERVICES LLC,DIAMOND PARKING #WU49,JONATHAN DIAMOND,2062843100           ,"4900 25TH AVE NE, SEATTLE, WA 98115",25,Office Depot,,,,SURFACE LOT,,,,,,,,,http://www.diamondparking.com/find-parking-locations/details/?code=WU49,,N,,,,,,,
-122.381024253975028,47.664112984015766,356,669057,593941,DIAMOND PARKING SERVICES LLC,DIAMOND PARKING #WU52,JONATHAN DIAMOND,2062843100           ,"4763 BALLARD AVE NW, SEATTLE, WA 98107",45,Ballard Sheet Metal,,,,SURFACE LOT,,,,,,,,,http://www.diamondparking.com/find-parking-locations/details/?code=WU52,,N,,,,,,,
-122.339683396707755,47.633760180966391,357,617363,655406,IMPERIAL PARKING US INC,IMPARK #102 - LAKE UNION BLDG GARAGE,EDWARD DANYLUK,2063811789           ,"1700 WESTLAKE AVE N, SEATTLE, WA 98109",197,Lake Union Building - Lot #102,,,,,2,,,12,,,,,"https://lots.impark.com/imp?_ga=1.69261712.147180094.1470262460#details=25,102",,N,,,,,,,
-122.380637831428871,47.663530741304854,358,669043,584053,DIAMOND PARKING SERVICES LLC,DIAMOND PARKING #WU54,JONATHAN DIAMOND,2062846303           ,"4749 BALLARD AVE NW, SEATTLE, WA 98107",24,Ballard Hardware,,,,SURFACE LOT,,,,,,,,,http://www.diamondparking.com/find-parking-locations/details/?code=WU54,,N,,,,,,,
-122.325814718882341,47.646416804417065,359,600955,644075,UNITED PARKING SERVICES LLC,UNITED PARKING # 4593,JONATHAN DIAMOND,0000000000           ,"2825 EASTLAKE AVE E, SEATTLE, WA 98102",155,Eastlake Garage,,,,GARAGE,,,,,,,,,http://www.diamondparking.com/find-parking-locations/details/?code=4593,,N,,,,,,,
-122.319204249132369,47.660968279576004,360,631003,665262,DIAMOND PARKING SERVICES LLC,DIAMOND PARKING #WU64,JONATHAN DIAMOND,2062843100           ,"809 NE 45TH ST, SEATTLE, WA 98105",100,Petco,,,,SURFACE LOT,,,,,,,,,http://www.diamondparking.com/find-parking-locations/details/?code=WU64,,N,,,,,,,
-122.377015235439714,47.677578170871179,361,688583,706139,UNITED PARKING SERVICES LLC,UNITED PARKING #4530,JONATHAN DIAMOND,2062843100           ,"6559 15TH AVE NW, SEATTLE, WA 98117",25,,,,,,,,,,,,,,http://www.diamondparking.com/find-parking-locations/details/?code=4530,,N,,,,,,,
-122.37593161282507,47.66749556875908,362,631004,665263,DIAMOND PARKING SERVICES LLC,DIAMOND PARKING #WU69,JONATHAN DIAMOND,2062843100           ,"5300 15TH AVE NW, SEATTLE, WA 98107",11,5300 17th Ave NW,,,,SURFACE LOT,,,,,,,,,http://www.diamondparking.com/find-parking-locations/details/?code=WU69,,N,,,,,,,
-122.315652620300611,47.661067311720537,363,675139,507529,REPUBLIC PARKING N W INC,REPUBLIC PARKING  #30-205,GARY BECK,2067834144           ,"1121 NE 45TH ST, SEATTLE, WA 98105",56,,,,,SURFACE LOT,,,,,,,,,http://www.rpnw.com/lot/seattle/30-205,,N,,,,,,,
-122.301230238895386,47.663553134466802,364,642375,672516,DIAMOND PARKING SERVICES LLC,DIAMOND PARKING #WU75,JONATHAN DIAMOND,2062843100           ,"4715 25TH AVE NE, SEATTLE, WA 98105",39,Key Bank,,,,SURFACE LOT,,,,,,,,,http://www.diamondparking.com/find-parking-locations/details/?code=WU75,,N,,,,,,,
-122.313397308037992,47.663449469922476,365,666881,690568,DIAMOND PARKING SERVICES LLC,DIAMOND PARKING #WU77 - B OF A,JONATHAN DIAMOND,2062843100           ,"4701 UNIVERSITY WAY NE, SEATTLE, WA 98105",36,B of A Garage,,,,GARAGE,,,,,,,,,http://www.diamondparking.com/find-parking-locations/details/?code=WU77,,N,,,,,,,
-122.318279056626665,47.682776414499678,366,687630,625124,DIAMOND PARKING SERVICES LLC,DIAMOND PARKING #WX03,JONATHAN DIAMOND,2062843100           ,"7420 9TH AVE NE, SEATTLE, WA 98115",26,Apostolic Faith Church,,,,SURFACE LOT,,,,,,,,,http://www.diamondparking.com/find-parking-locations/details/?code=WX03,,N,,,,,,,
-122.33351371900315,47.61396870459933,367,600952,644072,UNITED PARKING SERVICES LLC,UNITED PARKING # 4541,JONATHAN DIAMOND,0000000000           ,"809 OLIVE WY, SEATTLE, WA   98101",44,,,,,GARAGE,,,,,,,,,http://www.diamondparking.com/find-parking-locations/details/?code=4541,,N,UNITED,0,,,,,
-122.334664707328429,47.610544977091905,368,691562,509324,ACE PARKING MANAGEMENT INC,ACE PARKING - US BANK CENTRE,BRYAN COLLINS,2062334070           ,"1420 5TH AVE, SEATTLE, WA 98101",968,US Bank Centre,6:30am - 11:30pm,8:30am - 12:30am,9:00am - 11:30pm,GARAGE,,,,,,"Ace Parking Management, Inc.",,,http://www.aceparking.com/find-parking/,,N,,,,,,,
-122.335551594681675,47.613216784874993,369,0,2000005,,PACIFIC PLACE,, ,,1130,PACIFIC PLACE,5:00am - 2:00am,5:00am - 2:00am,5:00am - 2:00am,GARAGE,6,9,11,28,,AMPCO,(206) 652-9009,,http://www.pacificplaceseattle.com/details/parking/,,N,PACIFIC PLACE,5,N,582,582,2017-10-01T16:51:56.000Z,G4
-122.342631508788472,47.613160448148676,370,633288,666783,DIAMOND PARKING SERVICES LLC,DIAMOND PARKING #A419,JONATHAN DIAMOND,2062843100           ,"2101 3RD AVE, SEATTLE, WA 98101",22,,,,,SURFACE LOT,,,,,,,,,http://www.diamondparking.com/find-parking-locations/details/?code=A419,,N,,,,,,,
-122.338098286344149,47.613931633200558,371,462186,543241,ACE PARKING MANAGEMENT INC,WESTIN PRKG GARAGE LOT # 674 # 675 # 3201,BRYAN COLLINS,2066289042           ,"1900 5TH AV, SEATTLE, WA   98101",235,Westin Seattle Hotel - Valet,24 hours,24 hours,24 hours,GARAGE,,,,,,"Ace Parking Management, Inc.",,,http://www.aceparking.com/find-parking/,,N,WESTIN,0,,,,,
-122.340223631102845,47.61399858411562,372,534521,593950,DIAMOND PARKING SERVICES LLC,DIAMOND #A256,JONATHAN DIAMOND,2062843100           ,"2021 5TH AV, SEATTLE, WA   98121",52,,,,,SURFACE LOT,,,,,3,Diamond Parking Service,,,http://www.diamondparking.com/find-parking-locations/details/?code=A256,,N,DIAMOND,0,,,,,
-122.343275276465079,47.614628613234039,373,603313,645726,DIAMOND PARKING SERVICES LLC,DIAMOND PARKING #A009,JONATHAN DIAMOND,2062846303           ,"2201 4TH AV, SEATTLE, WA   98121",146,,,,,GARAGE,,,,,,,,,http://www.diamondparking.com/find-parking-locations/details/?code=A009,,N,DIAMOND,0,,,,,
-122.339192241336093,47.610138619605188,374,641394,671823,DIAMOND PARKING SERVICES LLC,DIAMOND PARKING #A431,JONATHAN DIAMOND,2062843100           ,"1526 2ND AVE, SEATTLE, WA 98101",25,,,,,SURFACE LOT,,,,,,,,,http://www.diamondparking.com/find-parking-locations/details/?code=A431,,N,,,,,,,
-122.335439010522833,47.607687492018286,375,642473,672586,IMPERIAL PARKING US INC,IMPERIAL PARKING #114,EDWARD DANYLUK,2063811789           ,"1218 3RD AVE, SEATTLE, WA 98101",53,Seattle Tower - Lot #114,,,,GARAGE,7,,,,,,,,"https://lots.impark.com/imp?_ga=1.69261712.147180094.1470262460#details=25,114",,N,,,,,,,
-122.339431915659645,47.608669352278866,376,4996,4194,METRO PARKING INC,METRO PARKING INC,SUE MUSCATEL,2066229180           ,"1430 1ST AV, SEATTLE, WA   98101",44,Metro Parking,,,,SURFACE LOT,,,,,,Metro Parking Inc,,,,,N,METRO,0,,,,,
-122.339131786010327,47.614090076153694,377,445067,530470,IMPERIAL PARKING US INC,IMPARK #3,EDWARD DANYLUK,2063811789           ,"2010 5TH AV, SEATTLE, WA   98121",388,Westin Building Garage - Lot #3,24 hours,24 hours,24 hours,GARAGE,9,12,15,32,,,,,"https://lots.impark.com/imp?_ga=1.69261712.147180094.1470262460#details=25,3",,N,IMPARK,0,,,,,
-122.328714299288976,47.609262605373743,378,259,210,VIRGINIA MASON MEDICAL CTR,PARKING,VIRGINIA MASON HOSPITAL,2066241144           ,"1123 9TH AV, SEATTLE, WA   98101",310,,24 Hours,24 Hours,24 Hours,GARAGE,5,8,10,22,,,,,https://www.virginiamason.org/SeattleParking,,N,PARKING,0,,,,,
-122.313824813027381,47.614970114024132,379,574694,583622,DIAMOND PARKING SERVICES LLC,DIAMOND PARKING #A936,JONATHAN DIAMOND,2069929436           ,"1522 14TH AV, SEATTLE, WA   98122",57,,,,,SURFACE LOT,,,,,,,,,http://www.diamondparking.com/find-parking-locations/details/?code=A936,,N,DIAMOND,0,,,,,
-122.315046567840582,47.615110605995405,380,600949,644069,UNITED PARKING SERVICES LLC,UNITED PARKING # 4538,JONATHAN DIAMOND,0000000000           ,"1532 13TH AV, SEATTLE, WA 98122",11,,,,,SURFACE LOT,,,,,,,,,http://www.diamondparking.com/find-parking-locations/details/?code=4538,,N,UNITED,0,,,,,
-122.323487623351255,47.611185373041124,381,574683,574487,DIAMOND PARKING SERVICES LLC,DIAMOND PARKING #A906,JONATHAN DIAMOND,2062846303           ,"1106 SUMMIT AV, SEATTLE, WA   98114",242,,,,,SURFACE LOT,,,,,,,,,http://www.diamondparking.com/find-parking-locations/details/?code=A906,,N,,,,,,,
-122.314836911646196,47.614266694387389,382,600950,644070,UNITED PARKING SERVICES LLC,UNITED PARKING # 4539,JONATHAN DIAMOND,0000000000           ,"1314 E PIKE ST, SEATTLE, WA   98122",10,,,,,SURFACE LOT,,,,,,,,,http://www.diamondparking.com/find-parking-locations/details/?code=4539,,N,UNITED,0,,,,,
-122.317438530440612,47.615523026563331,383,639948,670887,DIAMOND PARKING SERVICES LLC,DIAMOND PARKING #A429,JONATHAN DIAMOND,2062843100           ,"1110 E PINE ST, SEATTLE, WA 98122",24,,,,,SURFACE LOT,,,,,,,,,http://www.diamondparking.com/find-parking-locations/details/?code=A429,,N,,,,,,,
-122.320434285798157,47.61456987348091,384,603335,645737,DIAMOND PARKING SERVICES LLC,DIAMOND PARKING #A316,JONATHAN DIAMOND,2062846303           ,"1518 BROADWAY, SEATTLE, WA   98122",4,,,,,SURFACE LOT,,,,,,,,,http://www.diamondparking.com/find-parking-locations/details/?code=A316,,N,DIAMOND,0,,,,,
-122.3795553206145,47.667365014453239,385,615047,654016,REPUBLIC PARKING N W INC,REPUBLIC PARKING #578 - SMC BALLARD GARAGE,GARY BECK,2067834144           ,"5300 TALLMAN AVE NW, SEATTLE, WA 98107",459,,,,,,,,,,,,,,,,N,,,,,,,
-122.338826104682298,47.624184022025659,386,0,2000011,,MERCER & WESTLAKE #81386,, ,,94,,,,,,,,,,,,,,,,N,,,,,,,
-122.34074231712367,47.607455191363776,387,613066,652556,REPUBLIC PARKING N W INC,REPUBLIC #30-179,GARY BECK,2067871246           ,"1403 WESTERN AV, SEATTLE, WA   98121",50,,,,,,,,,,,,,,,,N,,,,,,,
-122.340882682941682,47.617416214095996,388,685821,704192,IMPERIAL PARKING US INC,IMPARK #119,EDWARD DANYLUK,2063811789           ,"2230 7TH AVE, SEATTLE, WA 98121",20,,,,,,,,,,,,,,,,N,,,,,,,
-122.333879387616179,47.606147220313943,389,658626,684567,ABM ONSITE SERVICES WEST INC,ABM PARKING #7018,YONAS AHMED,2062670446           ,"1001 4TH AVE, SEATTLE, WA 98104",590,,,,,,,,,,,,,,,,N,,,,,,,
-122.339556996807744,47.614487105658938,390,628780,663740,IMPERIAL PARKING US INC,2020 5TH AV - LOT #112,EDWARD DANYLUK,2063811789           ,"2020 5TH AVE, SEATTLE, WA 98121",74,,,,,,,,,,,,,,,,N,,,,,,,
-122.327194499480441,47.582384140958297,391,645655,674795,MCFARLAND CARMEN,CARMENS PARKING,CARMEN MCFARLAND,2067355026           ,"2233 6TH AVE S, SEATTLE, WA 98134",30,,,,,,,,,,,,,,,,N,,,,,,,
-122.338830626483116,47.624974972098663,392,685820,704191,IMPERIAL PARKING US INC,IMPARK #131,EDWARD DANYLUK,2063811789           ,"615   WESTLAKE AVE N, SEATTLE, WA 98109-4307",240,,,,,,,,,,,,,,,,N,,,,,,,
-122.284794364343881,47.556768393607733,393,612581,652236,DIAMOND PARKING SERVICES LLC,DIAMOND PARKING #A363,JONATHAN DIAMOND,2063843100           ,"5001 RAINIER AV S, SEATTLE, WA 98118",14,,,,,SURFACE LOT,,,,,,,,,http://www.diamondparking.com/find-parking-locations/details/?code=A363,,N,,,,,,,
-122.312397359951319,47.658601978186198,394,671802,76160,REPUBLIC PARKING N W INC,REPUBLIC PARKING #78,GARY BECK,2067834144           ,"1414 NE 42ND ST, SEATTLE, WA 98105",125,,,,,,,,,,,,,,,,N,,,,,,,
-122.3795553206145,47.667365014453239,395,615048,654017,REPUBLIC PARKING N W INC,REPUBLIC PARKING #579 - SMC BALLARD SURFACE,GARY BECK,2067834144           ,"5300 TALLMAN AVE NW, SEATTLE, WA 98107",9,,,,,,,,,,,,,,,,N,,,,,,,
-122.286539300843913,47.559259137243778,396,574709,595337,DIAMOND PARKING SERVICES LLC,DIAMOND PARKING #A961,JONATHAN DIAMOND,2062843100           ,"4801 RAINIER AV S, SEATTLE, WA   98118",131,,,,,SURFACE LOT,,,,,,,,,http://www.diamondparking.com/find-parking-locations/details/?code=A961,,N,DIAMOND,0,,,,,
-122.321498883540173,47.622561203798931,397,658625,684566,ABM ONSITE SERVICES WEST INC,ABM PARKING #2461 - 7002,YONAS AHMED,2062670446           ,"401 BROADWAY E, SEATTLE, WA 98102",230,,,,,,,,,,,,,,,,N,,,,,,,
-122.334336336520366,47.603109137884516,398,658617,684555,ABM ONSITE SERVICES WEST INC,ABM PARKING #2461-1251 - FIVE STAR PARKING,YONAS AHMED,2062670446           ,"714 1ST AVE, SEATTLE, WA 98101",260,,,,,,,,,,,,,,,,N,,,,,,,
-122.384233159965248,47.666526169510902,399,678128,698817,BALLARD PARKING LLC,BALLARD PARKING #2,JAMES RIGGLE,2067895010           ,"5310 SHILSHOLE AVE NW, SEATTLE, WA 98107",45,,,,,,,,,,,,,,,,N,,,,,,,
-122.320443290434042,47.61309156822059,400,534492,593935,DIAMOND PARKING SERVICES LLC,DIAMOND  #A052,JONATHAN DIAMOND,2062843100           ,"1406 BROADWAY, SEATTLE, WA   98122",30,,,,,SURFACE LOT,,,,,,Diamond Parking Service,,,http://www.diamondparking.com/find-parking-locations/details/?code=A052,,N,DIAMOND,0,,,,,
-122.332781218007995,47.611496345526987,401,0,2000027,,,,,"701 PIKE ST, SEATTLE WA 98101",,One Convention Place,,,,,,,,,,,,,,,N,ONE CONVENTION PLACE,25,Y,0,FULL,2017-10-01T16:53:07.000Z,G20
-122.316444510480792,47.610553647212456,402,574707,595329,DIAMOND PARKING SERVICES LLC,DIAMOND PARKING #959,JONATHAN DIAMOND,2062843100           ,"900 12TH AV, SEATTLE, WA   98122",30,,,,,SURFACE LOT,,,,,,,,,http://www.diamondparking.com/find-parking-locations/details/?code=A959,,N,DIAMOND,0,,,,,
-122.332561936419594,47.611459960682616,403,652820,680571,ACE PARKING MANAGEMENT INC,ACE PARKING #3265 - MERIDIAN GARAGE EAST,BRYAN COLLINS,6192336624           ,"1515 7TH AVE, SEATTLE, WA 98101",410,Meridian Garage East,5:30am - 1:00am,5:30am - 1:00am,5:30am - 1:00am,GARAGE,,,,,,"Ace Parking Management, Inc.",,,http://www.aceparking.com/find-parking/,,N,,,,,,,
-122.343760901634539,47.614491293141263,404,418670,513281,KEY PARK NORTHWEST INC,KEY PARK NORTHWEST #4,GERALD FISH,2064438400           ,"2216 3RD AV, SEATTLE, WA   98121",97,,24 hours,24 hours,24 hours,SURFACE LOT,9.5,9.5,,16.5,,Key Park Northwest,,,,,N,KEY PARK NORTHWEST,0,,,,,
-122.320610886102202,47.624944899048742,405,574558,620708,DIAMOND PARKING SERVICES LLC,DIAMOND PARKING #A110,JONATHAN DIAMOND,2062843100           ,"622 BROADWAY E, SEATTLE, WA   98102",25,,,,,,,,,,,,,,,,N,DIAMOND,0,,,,,
-122.385785645234108,47.559479109012898,406,574693,583157,DIAMOND PARKING SERVICES LLC,DIAMOND PARKING #A932,JONATHAN DIAMOND,2062846303           ,"4200 SW EDMUNDS ST, SEATTLE, WA   98116",36,,,,,,,,,,,,,,,,N,DIAMOND,0,,,,,
-122.387809483669685,47.559478205402826,407,0,2000004,,WEST SEATTLE JUNCTION ASSOCIATION,, ,,,,,,,,,,,,,,,,,,N,WEST SEATTLE JUNCTION ASSOCIATION,0,,,,,
-122.385418842473129,47.582199890121899,408,519594,583989,UNITED PARKING SERVICES LLC,UNITED PARKING #4506,JONATHAN DIAMOND,2062846303           ,"2331 42ND AV SW, SEATTLE, WA   98116",101,,,,,,,,,,,,,,,,N,UNITED,0,,,,,
-122.322742887328417,47.597221457943405,409,410443,507314,INTL DISTRICT MERCHANTS PARKING ASSN,MERCHANTS PARKING ASSOC #46,MICHAEL OLSON,2066243426           ,"607 8TH AV S, SEATTLE, WA   98104",7,,,,,,,,,,,,,,,,N,MERCHANTS PARKING ASSOC,0,,,,,
-122.323386136077971,47.596216960862584,410,436837,526383,CITY PRODUCE CO LLC,CITY PRODUCE CO LLC,KATHRYN SUYAMA,2066820320           ,"710 7TH AV S, SEATTLE, WA   98104",19,,,,,,,,,,,,,,,,Y,CITY PRODUCE CO LLC,0,,,,,
-122.328689283549934,47.587517501765625,411,10453,8956,STERNOD ENTERPRISES INC,STERNOD ENTERPRISES INC,CHARLEI STERNOD,2066251100           ,"1720 4TH AV S, SEATTLE, WA   98134",80,,,,,,,,,,,,,,,,Y,STERNOD ENTERPRISES INC,0,,,,,
-122.284012100204606,47.557518378707911,412,545415,603660,LR ISABELLA LLC,LR ISABELLA LLC PARKING,PETER LAMB,2067602770           ,"3821 S FERDINAND ST, SEATTLE, WA   98118",39,,,,,SURFACE LOT,,,,,,,,,,,N,COLUMBIA CITY,0,,,,,
-122.332477699994612,47.598946845305107,413,513664,579513,BUTLER PARKING CORP,BUTLER PARKING CORP,GEORGE HAMILTON,2066218967           ,"159 S JACKSON ST, SEATTLE, WA   98104",6,Butler Parking,,,,GARAGE,,,,,,Butler Parking,(206) 624-7168,,,,Y,BUTLER,0,,,,,
-122.330253928429585,47.609538371290455,414,7395,6256,PRESBYTERIAN RETIREMENT COMMUNITIES NW,EXETER HOUSE,,2066221300           ,"720 SENECA ST, SEATTLE, WA   98101",10,,,,,,,,,,,,,,,,Y,EXETER HOUSE,0,,,,,
-122.312177202401244,47.562244533276072,415,649998,678423,PRESBYTERY OF SEATTLE,PRESBYTERY OF SEATTLE,KRIS GREEN,2067621991           ,"1625 S COLUMBIAN WAY, SEATTLE, WA 98108",45,,,,,SURFACE LOT,,,,,,,(206)762-1991,,http://seattlepresbytery.org/,,N,,,,,,,
-122.345389205318682,47.620243733806618,416,469213,548445,IMPERIAL PARKING US INC,IMPARK #18,EDWARD DANYLUK,2063811789           ,"221 6TH AV N, SEATTLE, WA   98109",28,,24 hours,24 hours,24 hours,,2,2,,15,,,,,,,N,IMPARK,0,,,,,
-122.326009495446471,47.597013086916348,417,19950,17659,INTL DISTRICT MERCHANTS PARKING ASSN,INTL DIST MERCHANTS #27,MICHAEL OLSON,2066243426           ,"616 6TH AV S, SEATTLE, WA   98104",30,Merchants Parking #27,,,,SURFACE LOT,,,,,,Merchants Parking/Transia,,,,,N,MERCHANTS PARKING ASSOC,0,,,,,
-122.334638084337897,47.605820555894297,418,514917,580480,1015 THIRD AVENUE PARKING CORP,EXPEDITOR GARAGE,R GATES,2066743400           ,"1015 3RD AV # FL 12, SEATTLE, WA   98104",154,,,,,,,,,,,,,,,,N,EXPEDITOR GARAGE,0,,,,,
-122.321654530739849,47.610991064751616,419,533071,594271,KEY PARK NORTHWEST INC,KEY PARK NORTHWEST #57,GERALD FISH,2064438400           ,"1010 BOYLSTON AV, SEATTLE, WA   98104",22,,5pm - 7am,24 hours,24 hours,,2,2,,2,,,,,,,N,KEY PARK NORTHWEST,0,,,,,
-122.316414737241757,47.61342983300581,420,574698,586728,DIAMOND PARKING SERVICES LLC,DIAMOND PARKING #A947,JONATHAN DIAMOND,2062846303           ,"1412 12TH AV E, SEATTLE, WA 98102",36,,,,,GARAGE,,,,,,,,,http://www.diamondparking.com/find-parking-locations/details/?code=A947,,N,DIAMOND,0,,,,,
-122.327570359573116,47.615666986709357,421,657255,683675,DIAMOND PARKING SERVICES LLC,DIAMOND PARKING #A836,JONATHAN DIAMOND,2062843100           ,"1610 MELROSE AVE, SEATTLE, WA 98122",20,,,,,SURFACE LOT,,,,,,,,,http://www.diamondparking.com/find-parking-locations/details/?code=A836,,N,,,,,,,
-122.318983540342444,47.61510059780327,422,574702,593910,DIAMOND PARKING SERVICES LLC,DIAMOND PARKING #A951,JONATHAN DIAMOND,2062843100           ,"1001 E PINE ST, SEATTLE, WA   98122",32,,,,,SURFACE LOT,,,,,,,,,http://www.diamondparking.com/find-parking-locations/details/?code=A951,,N,DIAMOND,0,,,,,
-122.328157404797452,47.615388055439929,423,626771,662391,DIAMOND PARKING SERVICES LLC,DIAMOND PARKING #A897,JONATHAN DIAMOND,2062843100           ,"1216 PINE ST, SEATTLE, WA 98101",6,,,,,SURFACE LOT,,,,,,,,,http://www.diamondparking.com/find-parking-locations/details/?code=A897,,N,,,,,,,
-122.3224855250822,47.613437211268987,424,534494,593936,DIAMOND PARKING SERVICES LLC,DIAMOND #A054,JONATHAN DIAMOND,2062843100           ,"1421 HARVARD AV, SEATTLE, WA   98122",19,,,,,SURFACE LOT,,,,,,Diamond Parking Service,,,http://www.diamondparking.com/find-parking-locations/details/?code=A054,,N,DIAMOND,0,,,,,
-122.321205819163922,47.61440756899276,425,574678,573093,DIAMOND PARKING SERVICES LLC,DIAMOND PARKING #A017,JONATHAN DIAMOND,2062846303           ,"1509 BROADWAY, SEATTLE, WA   98122",27,,,,,SURFACE LOT,,,,,,Diamond Parking Service,,,http://www.diamondparking.com/find-parking-locations/details/?code=A017,,N,,0,,,,,
-122.334323061252974,47.612330382716074,426,678236,698904,ACE PARKING MANAGEMENT INC,ACE PARKING #3276 - ROOSEVELT HOTEL,BRYAN COLLINS,6192336624           ,"1531 7TH AVE, SEATTLE, WA 98101",30,Roosevelt Hotel Seattle,24 Hours,24 Hours,24 Hours,GARAGE,,,,,,"Ace Parking Management, Inc.",,,http://www.aceparking.com/find-parking/,,N,,,,,,,
-122.335313019385694,47.612892250994399,427,645875,674955,DIAMOND PARKING SERVICES LLC,DIAMOND PARKING #A435,JONATHAN DIAMOND,2062843100           ,"600 PINE ST, SEATTLE, WA 98101",1167,,,,,GARAGE,,,,,,Diamond Parking Service,,,http://www.diamondparking.com/find-parking-locations/details/?code=A435,,N,,,,,,,
-122.333030540491592,47.615164806537386,428,654763,682056,SP PLUS CORPORATION,STANDARD PARKING #82300 - 1800 NINTH PARKING GARAG,BILL BEATTIE,2066232727           ,"1800 9TH AVE, SEATTLE, WA 98101",301,,6:00am - 7:00pm,Closed,Closed,GARAGE,13,15,18,30,,,,,http://seattleparking.spplus.com/Seattle-1800-Ninth-Avenue-Parking.html,,N,,,,,,,
-122.32857303893519,47.61329371534849,429,588425,635163,DIAMOND PARKING SERVICES LLC,DIAMOND PARKING #A113,JONATHAN DIAMOND,2062846303           ,"1101 PIKE ST, SEATTLE, WA   98101",18,,,,,SURFACE LOT,,,,,1,Diamond Parking Service,,,http://www.diamondparking.com/find-parking-locations/details/?code=A113,,N,DIAMOND,0,,,,,
-122.327570359573116,47.615666986709357,430,503704,572484,DIAMOND PARKING SERVICES LLC,DIAMOND PARKING #A836,JONATHAN DIAMOND,2062846303           ,"1610 MELROSE AV, SEATTLE, WA   98122",22,,,,,SURFACE LOT,,,,,,,,,http://www.diamondparking.com/find-parking-locations/details/?code=A836,,N,DIAMOND,0,,,,,
-122.350752533816788,47.612404959098519,431,525838,588581,WESTGROUP EDGEWATER LP,EDGEWATER THE,JULIA OLESON,2067287000           ,"2411 ALASKAN WY, SEATTLE, WA   98121",190,,,,,,,,,,,,,,,,Y,EDGEWATER THE,0,,,,,
-122.311623464623466,47.623641793107105,432,579887,628636,REPUBLIC PARKING N W INC,REPUBLIC PARKING #30-559  SWEDISH - CHERRY HILL,GARY BECK,2067834144           ,"511 16TH AV E, SEATTLE, WA   98112",726,,7am - 11pm,9am - 5pm,closed,,5,7,,16,,,,,,,N,REPUBLIC - SWEDISH CHERRY HILL,0,,,,,
-122.350481771549198,47.613605081960891,433,587817,634724,IMPERIAL PARKING US INC,IMPARK # 4984,EDWARD DANYLUK,2063811789           ,"2500 ELLIOTT AV, SEATTLE, WA   98121",23,,24 hours,24 hours,24 hours,,5,5,,17,,,,,,,N,IMPARK,0,,,,,
-122.328280661282122,47.592923858282688,434,468875,548169,STADIUM PLACE LLC,STADIUM PLACE INC,JIM LARKIN,4259516200           ,"1044 4TH AV S, SEATTLE, WA   98134",180,,,,,,,,,,,,,,,,Y,STADIUM PLACE INC,0,,,,,
-122.355738047217173,47.620326402617842,435,533081,594279,KEY PARK NORTHWEST INC,KEY PARK NORTHWEST #7,GERALD FISH,2064438400           ,"215 1ST AV N, SEATTLE, WA   98109",22,,24 hours,24 hours,24 hours,SURFACE LOT,4,4,,7,1,Key Park Northwest,,,,,N,KEY PARK NORTHWEST,0,,,,,
-122.328533563501082,47.61529060357099,436,533088,594282,KEY PARK NORTHWEST INC,KEY PARK NORTHWEST #43,GERALD FISH,2064438400           ,"1208 PINE ST, SEATTLE, WA   98101",49,,24 hours,24 hours,24 hours,,6,6,,10,,,,,,,N,KEY PARK NORTHWEST,0,,,,,
-122.32864486941348,47.586643227412388,437,448815,533370,UNITED REPROGRAPHICS LLC,UNITED REPROGRAPHICS LLC,ROBIN SANTOS,2063821177           ,"1750 4TH AV S, SEATTLE, WA   98134",18,,,,,,,,,,,,,,,,Y,,0,,,,,
-122.329575194947026,47.585515433210709,438,437798,527105,NELLA CUTLERY USA INC,NELLA CUTLERY (USA),BERNARDO NELLA,2067668341           ,"1917 4TH AV S, SEATTLE, WA   98134",7,,,,,,,,,,,,,,,,Y,NELLA CUTLERY (USA),0,,,,,
-122.352507824394209,47.620819979553616,439,633689,667049,SEATTLE CENTER,THEATER COMMONS LOT#6,X X,2066847236           ,"290 2ND AVE N, SEATTLE, WA 98109",7,Theatre Commons Lot,,,,SURFACE LOT,,,,15,6,,(206) 684-7340,,http://www.seattlecenter.com/transportation/parking/second.aspx,,N,,,,,,,
-122.358706168069844,47.618326343319431,440,574677,572469,DIAMOND PARKING SERVICES LLC,DIAMOND PARKING  #A002,JONATHAN DIAMOND,2062846303           ,"3161 ELLIOTT AV, SEATTLE, WA 98121",131,,,,,SURFACE LOT,,,,,,,,,http://www.diamondparking.com/find-parking-locations/details/?code=A002,,N,DIAMOND,0,,,,,
-122.351104518438206,47.619739215126394,441,7059,5947,PACIFIC SCIENCE CENTER FOUNDATION,PACIFIC SCIENCE CENTER,MICHAL ANDERSON,2064432929           ,"200 2ND AVE N, SEATTLE, WA 98109",157,James Albert Claypool Memorial Garage,6:00am - 12:30am,6:00am - 2:30am,6:00am - 12:30am,GARAGE,9,9,9,13,,,,,https://www.pacificsciencecenter.org/plan-your-visit/,,N,,,,,,,
-122.358915739919212,47.619279556333481,442,588417,635155,DIAMOND PARKING SERVICES LLC,DIAMOND PARKING #A038,JONATHAN DIAMOND,2066846303           ,"136 ELLIOTT AV W, SEATTLE, WA   98119",3,,,,,SURFACE LOT,,,,,,Diamond Parking Service,,,http://www.diamondparking.com/find-parking-locations/details/?code=A038,,N,DIAMOND,0,,,,,
-122.357126676320888,47.618901399421084,443,574571,625107,DIAMOND PARKING SERVICES LLC,DIAMOND PARKING #A122,JONATHAN DIAMOND,2062843100           ,"113 QUEEN ANNE AV N, SEATTLE, WA   98109",28,,,,,SURFACE LOT,,,,,,,,,http://www.diamondparking.com/find-parking-locations/details/?code=A122,,N,DIAMOND,0,,,,,
-122.355045452707984,47.620206600545991,444,107855,97070,SEATTLE CENTER,SEATTLE CENTER PARKING #3,X X,2066847330           ,"250 1ST AV N, SEATTLE, WA   98109",620,,,,,,5,10,12,24,26,,,,http://www.seattlecenter.com/transportation/parking/first.aspx,,N,SEATTLE CENTER 1ST AVE N GARAGE,0,,,,,
-122.346678485988434,47.620376484133097,445,612390,652092,DIAMOND PARKING SERVICES LLC,DIAMOND PARKING #A360,JONATHAN DIAMOND,2062843100           ,"223 TAYLOR AV N, SEATTLE, WA   98109",50,,,,,SURFACE LOT,,,,,,,,,http://www.diamondparking.com/find-parking-locations/details/?code=A360,,N,,,,,,,
-122.342707133962023,47.618403198667096,446,534764,593911,DIAMOND PARKING SERVICES LLC,DIAMOND  PARKING #A953,JONATHAN DIAMOND,2062843100           ,"2404 7TH AV, SEATTLE, WA   98121",26,,,,,SURFACE LOT,,,,,,,,,http://www.diamondparking.com/find-parking-locations/details/?code=A953,,N,DIAMOND,0,,,,,
-122.346705751765867,47.618896215963765,447,574560,625097,DIAMOND PARKING SERVICES LLC,DIAMOND PARKING #A020,JONATHAN DIAMOND,2062843100           ,"109 TAYLOR AV N, SEATTLE, WA   98109",84,,,,,SURFACE LOT,,,,,,,,,http://www.diamondparking.com/find-parking-locations/details/?code=A020,,N,DIAMOND,0,,,,,
-122.345877214584519,47.620364650218932,448,604021,646189,IMPERIAL PARKING US INC,IMPARK #85,EDWARD DANYLUK,2066848444           ,"200 TAYLOR AV N, SEATTLE, WA   98109",102,Best Western Executive Inn - Lot #85,,,,,,,,,,,,,"https://lots.impark.com/imp?_ga=1.99359390.147180094.1470262460#details=25,85",,N,IMPARK,0,,,,,
-122.342130590681293,47.608978660889633,449,18153,16048,PIKE PLACE MARKET PDA,MARKET PARKING #5,,2066254764           ,"1531 WESTERN AV, SEATTLE, WA   98101",540,Public Market Garage,5:00am - 2:00am,5:00am - 2:00am,5:00am - 2:00am,GARAGE,3,6,9,40,6,PIKE PLACE MARKET,(206) 774-5237,,http://www.pikeplacemarket.org/public-market-garage,,N,PUBLIC MARKET GARAGE,7,N,331,320,2017-10-01T16:51:56.000Z,G2
-122.313561799798578,47.657473679101813,450,574056,624767,LIU WEI,JADE PARKING,WEI LIU,2063356873           ,"4115 UNIVERSITY WY NE, SEATTLE, WA   98105",16,,,,,,,,,,,,,,,,Y,JADE,0,,,,,
-122.34455918133915,47.620143316502535,451,548742,606151,JAYGEES HOSPITALITY INC,TRAVELODGE SEATTLE CENTER,GENE WONG,6049259833           ,"200 6TH AV N, SEATTLE, WA   98109",45,,,,,,,,,,,,,,,,Y,TRAVELODGE SEATTLE CENTER,0,,,,,
-122.313975386179735,47.658991523051959,452,57580,52869,UNIVERSITY DISTRICT PARKING ASSOCS  INC,U-DISTRICT PARKING LOT #3,,2065277006           ,"4220 BROOKLYN AV NE, SEATTLE, WA   98105",76,,,,,,,,,,,,,,,,N,U-DISTRICT PARKING LOT,0,,,,,
-122.337552214618555,47.624019110669934,453,599101,642662,STANDARD PARKING CORP,AMAZON GARAGE 1B,BILL BEATTIE,2066247040           ,"535 TERRY AV N, SEATTLE, WA 98109",152,,,,,,,,,,,,,,,,Y,,0,,,,,
-122.324148109109473,47.596443868149734,454,19958,17663,INTL DISTRICT MERCHANTS PARKING ASSN,INTL DIST PARKING #43,MICHAEL OLSON,2066243426           ,"666 S DEARBORN ST, SEATTLE, WA   98104",75,Merchants Parking #43,,,,SURFACE LOT,,,,,2,Merchants Parking/Transia,,,,,N,MERCHANTS PARKING ASSOC,0,,,,,
-122.313495792214169,47.657001848072575,455,1684,1439,COHN JOHN C,JOHNS PARKING,JOHN COHN,2063677016           ,"4105 UNIVERSITY WY NE, SEATTLE, WA   98105",40,,,,,,,,,,,,,,,,Y,JOHN'S,0,,,,,
-122.350212909984265,47.624988245911538,456,107865,97075,SEATTLE CENTER,SEATTLE CENTER PARKING #8,X X,2066847330           ,"300 MERCER ST, SEATTLE, WA   98109",1433,Mercer Garage,,,,GARAGE,,,,,47,Seattle Center,,,http://seattlecenter.com/transportation/parking/,,N,SEATTLE CENTER MERCER GARAGE,0,,,,,
-122.328655855702735,47.582406227730004,457,5820,4850,PACIFIC FABRICS CORP,PACIFIC IRON & METAL,,2066286222           ,"2230 4TH AV S, SEATTLE, WA 98134",113,,,,,,,,,,,,,,,,Y,PACIFIC IRON & METAL,0,,,,,
-122.3274088908652,47.600396217596277,458,19925,17646,INTL DISTRICT MERCHANTS PARKING ASSN,INTL DISTRICT MERCHANTS PARKING ASSN,MICHAEL OLSON,2066243426           ,"214 5TH AV S, SEATTLE, WA   98104",36,Merchants Parking,,,,SURFACE LOT,,,,,,Merchants Parking/Transia,,,,,N,AMAZON PHASE 1B #81866,0,,,,,
-122.311672048376053,47.662075614717985,459,436514,52865,UNIVERSITY DISTRICT PARKING ASSOCS  INC,U-DISTRICT PARKING LOT #9,,2065277006           ,"4526 15TH AV NE, SEATTLE, WA   98105",70,,,,,SURFACE LOT,,,,,,UDPA,,,,,N,U-DISTRICT PARKING LOT,0,,,,,
-122.32928869940838,47.613011875985492,460,606218,647757,EVOLUTION HOSPITALITY LLC,HOMEWOOD SUITES SEATTLE,BHAVESH PETER,9496108088           ,"1011 PIKE ST, SEATTLE, WA   98101",120,,,,,,,,,,,,,,,,Y,,0,,,,,
-122.338043900073885,47.622859116888293,461,523428,586967,IMPERIAL PARKING US INC,IMPARK #48,EDWARD DANYLUK,2066848300           ,"428 WESTLAKE AV N, SEATTLE, WA   98109",21,,7am-6pm,CLOSED,CLOSED,,2,4,,15,,,,,,,N,IMPARK,0,,,,,
-122.385811296285155,47.562206420597931,462,0,2000002,,WEST SEATTLE JUNCTION ASSOCIATION,, ,,,,,,,,,,,,,,(206) 935-0904,,http://wsjunction.org/maps/,,N,WEST SEATTLE JUNCTION ASSOCIATION,0,,,,,
-122.332614869876494,47.581351632674661,463,11159,9567,BNSF RAILWAY COMPANY,BURLINGTON NORTHERN RR COMPANY,,2064673343           ,"2454 OCCIDENTAL AV S, SEATTLE, WA   98134",16,,,,,,,,,,,,,,http://bnsf.com/,,Y,BURLINGTON NORTHERN,0,,,,,
-122.387764274412774,47.562586633626196,464,0,2000001,,WEST SEATTLE JUNCTION ASSOCIATION,, ,,,,,,,,,,,,,,(206) 935-0904,,http://wsjunction.org/maps/,,N,WEST SEATTLE JUNCTION ASSOCIATION,0,,,,,
-122.384793962904013,47.560807427344059,465,574696,584046,DIAMOND PARKING SERVICES LLC,DIAMOND PARKING #A941,JONATHAN DIAMOND,2062846303           ,"4704 42ND AV SW, SEATTLE, WA   98116",213,,,,,GARAGE/SURFACE LOT,,,,,,,,,http://www.diamondparking.com/find-parking-locations/details/?code=A941,,N,DIAMOND,0,,,,,
-122.387891690555264,47.561366592707166,466,574681,581998,DIAMOND PARKING SERVICES LLC,DIAMOND PARKING  #A281,JONATHAN DIAMOND,2069929475           ,"4314 SW ALASKA ST, SEATTLE, WA   98116",30,,,,,SURFACE LOT,,,,,,,,,http://www.diamondparking.com/find-parking-locations/details/?code=A281,,N,DIAMOND,0,,,,,
-122.387133537664994,47.560966442830065,467,502272,571455,DIAMOND PARKING SERVICES LLC,DIAMOND PARKING  #A831,JONATHAN DIAMOND,2062843100           ,"4701 CALIFORNIA AV SW, SEATTLE, WA   98116",18,,,,,SURFACE LOT,,,,,,,,,http://www.diamondparking.com/find-parking-locations/details/?code=A831,,N,DIAMOND,0,,,,,
-122.327077315236195,47.615391281789158,468,574704,593912,DIAMOND PARKING SERVICES LLC,DIAMOND PARKING #A952,JONATHAN DIAMOND,2062843100           ,"1605 BELLEVUE AV, SEATTLE, WA   98122",30,,,,,,,,,,,,,,http://www.diamondparking.com/find-parking-locations/details/?code=A952,,N,DIAMOND,0,,,,,
-122.334302654055307,47.61316426923257,469,630115,664627,SP PLUS CORPORATION,1600 7TH AV  #82072,BILL BEATTIE,2063818552           ,"1600 7TH AVE, SEATTLE, WA 98101",69,1600 Seventh Ave,6:30am - 8:00pm,Closed,Closed,GARAGE,,,,,,,(206) 652-1451,,http://seattleparking.spplus.com/Seattle-1600-7th-Ave-Parking.html,,N,,,,,,,
-122.332747207457658,47.615557246197113,470,629610,664323,DIAMOND PARKING SERVICES LLC,DIAMOND PARKING #A404,JONATHAN DIAMOND,2062843100           ,"1801 TERRY AVE, SEATTLE, WA 98101",84,,,,,SURFACE LOT,,,,,,,,,http://www.diamondparking.com/find-parking-locations/details/?code=A404,,N,,,,,,,
-122.332230683424854,47.61323898147927,471,518581,583158,DIAMOND PARKING SERVICES LLC,DIAMOND PARKING #A868,JONATHAN DIAMOND,2069929475           ,"1551 9TH AV, SEATTLE, WA   98101",18,,,,,SURFACE LOT,,,,,,,,,http://www.diamondparking.com/find-parking-locations/details/?code=A868,,N,DIAMOND,0,,,,,
-122.334853053463192,47.614178955695735,472,577825,627199,DIAMOND PARKING SERVICES LLC,DIAMOND PARKING #A968,JONATHAN DIAMOND,2062843100           ,"720 OLIVE WY, SEATTLE, WA   98101",250,,,,,GARAGE,,,,,,,,,http://www.diamondparking.com/find-parking-locations/details/?code=A968,,N,DIAMOND,0,,,,,
-122.334040868507998,47.610224863871807,473,668,544,WASHINGTON ATHLETIC CLUB,WAC PARKING,G BRIGGS,2064643059           ,"1409 6TH AV, SEATTLE, WA   98101",170,WAC Garage,24 hours,24 hours,24 hours,GARAGE,9,12,15,35,5,WAC,(206) 622-7900,,https://www.wac.net/about-the-wac/parking/,,N,WAC PARKING,9,N,161,161,2017-10-01T16:51:56.000Z,G11
-122.332230683424854,47.61323898147927,474,574695,584043,DIAMOND PARKING SERVICES LLC,DIAMOND PARKING #A938,JONATHAN DIAMOND,2062846303           ,"815 PINE ST, SEATTLE, WA   98101",38,,,,,SURFACE LOT,,,,,,,,,http://www.diamondparking.com/find-parking-locations/details/?code=A938,,N,DIAMOND,0,,,,,
-122.333904010137161,47.576193737733668,475,617173,655277,DIAMOND PARKING SERVICES LLC,DIAMOND PARKING #A071,JONATHAN DIAMOND,2062813100           ,"2944 1ST AVE S, SEATTLE, WA 98134",24,,,,,GARAGE,,,,,,,,,http://www.diamondparking.com/find-parking-locations/details/?code=A071,,N,,,,,,,
-122.333791033958349,47.577937051474571,476,643857,673490,DIAMOND PARKING SERVICES LLC,DIAMOND PARKING #A436,JONATHAN DIAMOND,2062843100           ,"2764 1ST AVE S, SEATTLE, WA 98134",51,,,,,SURFACE LOT,,,,,,,,,http://www.diamondparking.com/find-parking-locations/details/?code=A436,,N,,,,,,,
-122.334774117254597,47.578145372389685,477,660963,686057,DIAMOND PARKING SERVICES LLC,DIAMOND PARKING #A465,JONATHAN DIAMOND,2062843100           ,"2759 1ST AVE S, SEATTLE, WA 98134",45,,,,,SURFACE LOT,,,,,,,,,http://www.diamondparking.com/find-parking-locations/details/?code=A465,,N,,,,,,,
-122.333683993363238,47.58084973107178,478,633818,667144,DIAMOND PARKING SERVICES LLC,DIAMOND PARKING #420,JONATHAN DIAMOND,2062843100           ,"2430 1ST AVE S, SEATTLE, WA 98134",36,,,,,SURFACE LOT,,,,,,,,,http://www.diamondparking.com/find-parking-locations/details/?code=A420,,N,,,,,,,
-122.316532100292406,47.58653414374583,479,664641,688894,INTERNATIONAL PARKING MANAGEMENT INC,IPM MET PARK NORTH,JOAN SUNDBERG,2062540811           ,"1220 HOWELL ST, SEATTLE, WA 98101-1469",585,,,,,GARAGE,14,16,18,35,,,,,http://www.ipmseattle.com/locations/lot.asp?id=500,,N,,,,,,,
-122.313483942541296,47.589095367991973,480,669009,692204,DIAMOND PARKING SERVICES LLC,DIAMOND PARKING #A319,JONATHAN DIAMOND,2062843100           ,"1530 15TH AVE S, SEATTLE, WA 98144",14,,,,,GARAGE,,,,,,,,,http://www.diamondparking.com/find-parking-locations/details/?code=A319,,N,,,,,,,
-122.334656071065638,47.584398451126603,481,588401,635169,DIAMOND PARKING SERVICES LLC,DIAMOND PARKING #A817,JONATHAN DIAMOND,2062846303           ,"1955 1ST AV S, SEATTLE, WA   98134",75,,,,,SURFACE LOT,,,,,,,,,http://www.diamondparking.com/find-parking-locations/details/?code=A817,,N,DIAMOND,0,,,,,
-122.334856805781357,47.585598014826843,482,593062,638431,DIAMOND PARKING SERVICES LLC,DIAMOND PARKING #A307,JONATHAN DIAMOND,2062843100           ,"1915 1ST AV S, SEATTLE, WA   98134",15,,,,,SURFACE LOT,,,,,,,,,http://www.diamondparking.com/find-parking-locations/details/?code=A307,,N,DIAMOND,0,,,,,
-122.333593173355396,47.585608705432591,483,534548,595311,DIAMOND PARKING SERVICES LLC,DIAMOND #A873,JONATHAN DIAMOND,2062843100           ,"1910 1ST AV S, SEATTLE, WA   98134",5,,,,,SURFACE LOT,,,,,,,,,http://www.diamondparking.com/find-parking-locations/details/?code=A873,,N,DIAMOND,0,,,,,
-122.333593173355396,47.585608705432591,484,519685,584045,DIAMOND PARKING SERVICES LLC,DIAMOND PARKING #A238,JONATHAN DIAMOND,2062846303           ,"1900 1ST AV S, SEATTLE, WA   98134",65,,,,,SURFACE LOT,,,,,,,,,http://www.diamondparking.com/find-parking-locations/details/?code=A238,,N,DIAMOND,0,,,,,
-122.33378045274668,47.586430153765384,485,637197,669467,DIAMOND PARKING SERVICES LLC,DIAMOND PARKING #A408,JONATHAN DIAMOND,2062843100           ,"1760 1ST AVE S, SEATTLE, WA 98134",48,,,,,SURFACE LOT,,,,,,,,,http://www.diamondparking.com/find-parking-locations/details/?code=A238,,N,,,,,,,
-122.309656418188069,47.607054777505802,486,615045,654013,REPUBLIC PARKING N W INC,REPUBLIC PARKING #576 - SMC CHERRY HILL PLAZA,GARY BECK,2067834144           ,"500 17TH AVE, SEATTLE, WA 98122",90,,,,,,,,,,,,,,,,N,,,,,,,
-122.356375736773188,47.623432794935809,487,625525,661551,DIAMOND PARKING SERVICES LLC,DIAMOND PARKING #A396,JONATHAN DIAMOND,2062843100           ,"500 QUEEN ANNE AVE N, SEATTLE, WA 98109",13,,,,,SURFACE LOT,,,,,,,,,http://www.diamondparking.com/find-parking-locations/details/?code=A396,,N,,,,,,,
-122.33208025472716,47.62380902363018,488,633752,667095,DIAMOND PARKING SERVICES LLC,DIAMOND PARKING #A 939,JONATHAN DIAMOND,2064367266           ,"535 PONTIUS AVE N, SEATTLE, WA 98109",33,,,,,GARAGE,,,,,,,,,http://www.diamondparking.com/find-parking-locations/details/?code=A939,,N,,,,,,,
-122.331996838988417,47.62219787720371,489,632851,666502,DIAMOND PARKING SERVICES LLC,DIAMOND PARKING #A416,JONATHAN DIAMOND,2062843100           ,"401 PONTIUS AVE N, SEATTLE, WA 98109",14,,,,,SURFACE LOT,,,,,,,,,http://www.diamondparking.com/find-parking-locations/details/?code=A416,,N,,,,,,,
-122.320693256992186,47.624759755368473,490,534752,593899,DIAMOND PARKING SERVICES LLC,DIAMOND PARKING A034,JONATHAN DIAMOND,2062843100           ,"614 BROADWAY E, SEATTLE, WA   98102",22,,,,,,,,,,,,,,,,N,DIAMOND,0,,,,,
-122.333447129701327,47.607597736550595,491,594397,639443,ACE PARKING MANAGEMENT INC,ACE PARKING #         OLYMPIC GARAGE,BRYAN COLLINS,2066524533           ,"415 SENECA ST, SEATTLE, WA 98101",624,,,,,,,,,,,,,,,,N,ACE PARKING,0,,,,,
-122.326051105937438,47.598978597575986,492,19928,17648,INTL DISTRICT MERCHANTS PARKING ASSN,INTL DIST MERCHANTS #02,MICHAEL OLSON,2066243426           ,"601 S JACKSON ST, SEATTLE, WA   98104",23,Merchants Parking #02,,,,SURFACE LOT,,,,,,Merchants Parking/Transia,,,,,N,Foley - Green  #82018,0,,,,,
-122.332824539169636,47.584444275668631,493,197184,176750,BRE ZAK FRUIT & BERRY INC,PARKING,JOHN SPRIGGS,2064479151           ,"1914 OCCIDENTAL AV S, SEATTLE, WA   98134",100,,,,,,,,,,,,,,,,Y,PARKING,0,,,,,
-122.318378904035924,47.624423435097079,494,588405,635173,DIAMOND PARKING SERVICES LLC,DIAMOND PARKING #A145,JONATHAN DIAMOND,2062846303           ,"1058 E MERCER ST, SEATTLE, WA   98102",57,,,,,,,,,,,,,,,,N,DIAMOND,0,,,,,
-122.344678840238799,47.612758319862628,495,533079,594278,KEY PARK NORTHWEST INC,KEY PARK NORTHWEST #86,GERALD FISH,2064438400           ,"105 BLANCHARD ST, SEATTLE, WA   98121",12,,5pm- 7am,24 hours,24 hours,,9,9,,9,,,,,,,N,KEY PARK NORTHWEST,0,,,,,
-122.34032184142751,47.617149708332462,496,465613,545709,IMPERIAL PARKING US INC,IMPARK #9,EDWARD DANYLUK,2063811789           ,"2210 7TH AV, SEATTLE, WA   98121",26,,24 hours,24 hours,24 hours,,5,5,,17,,,,,,,N,IMPARK,0,,,,,
-122.336106735778145,47.607231907668272,497,2282,1807,DIAMOND PARKING INC,STATION # 244,BOB TURLEY,2062843100           ,"1201 3RD AV, SEATTLE, WA   98101",808,,,,,,,,,,,,,,,,N,DIAMOND,0,,,,,
-122.353910098114454,47.618136855301813,498,510998,577626,DIAMOND PARKING SERVICES LLC,DIAMOND PARKING #A857,JONATHAN DIAMOND,2069929442           ,"3010 1ST AV, SEATTLE, WA   98121",7,,,,,,,,,,,,,,,,N,DIAMOND,0,,,,,
-122.320610886102202,47.624944899048742,499,603332,645735,DIAMOND PARKING SERVICES LLC,DIAMOND PARKING #A314,JONATHAN DIAMOND,2062846303           ,"622 BROADWAY E, SEATTLE, WA   98102",18,,,,,,,,,,,,,,,,N,DIAMOND,0,,,,,
-122.34032184142751,47.617149708332462,500,587815,634721,IMPERIAL PARKING US INC,IMPARK # 4982,EDWARD DANYLUK,2063811789           ,"2210 7TH AV, SEATTLE, WA   98121",26,,24 hours,24 hours,24 hours,,5,5,,17,,,,,,,N,IMPARK,0,,,,,
-122.325009051654447,47.586854622346301,501,517431,582320,STREAM SCOTT M,STREAM PARKING,SCOTT STREAM,2063613797           ,"1762 6TH AV S, SEATTLE, WA   98134",84,,,,,,,,,,,,,,,,Y,STREAM PARKING,0,,,,,
-122.332121172405792,47.604899674264644,502,109805,98864,JEREVA INC,JERRYS GARAGE & U DRIVE,JERRY COSTACOS,2066828989           ,"801 4TH AV, SEATTLE, WA   98104",130,,,,,,,,,,,,,,,,N,JERRY'S GARAGE & U-DRIVE,0,,,,,
-122.330070944988364,47.619328103485564,503,533091,594283,KEY PARK NORTHWEST INC,KEY PARK NORTHWEST #75,GERALD FISH,2064438400           ,"110 YALE AV N, SEATTLE, WA   98109",16,,24 hours,24 hours,24 hours,4,4,8,,,,,,,,,N,KEY PARK NORTHWEST,0,,,,,
-122.313995252981229,47.659379269549127,504,57562,52860,UNIVERSITY DISTRICT PARKING ASSOCS  INC,U-DISTRICT PARKING LOT 3B MANOR,,2065277006           ,"4236 BROOKLYN AV NE, SEATTLE, WA   98105",22,,,,,SURFACE LOT,,,,,,UDPA,,,,,N,U-DISTRICT PARKING LOT,0,,,,,
-122.316361385551474,47.608569442924626,505,534425,593914,DIAMOND PARKING SERVICES LLC,DIAMOND #A846 (A),JONATHAN DIAMOND,2062843100           ,"728 12TH AV, SEATTLE, WA   98112",19,,,,,,,,,,,,,,,,N,DIAMOND,0,,,,,
-122.323487623351255,47.611185373041124,506,588402,635170,DIAMOND PARKING SERVICES LLC,DIAMOND PARKING #A286,JONATHAN DIAMOND,2062846303           ,"1300 SPRING ST, SEATTLE, WA   98104",16,,,,,SURFACE LOT,,,,,1,Diamond Parking Service,,,http://www.diamondparking.com/find-parking-locations/details/?code=A286,,N,DIAMOND,0,,,,,
-122.345877214584519,47.620364650218932,507,588404,635172,DIAMOND PARKING SERVICES LLC,DIAMOND PARKING #A231,JONATHAN DIAMOND,2062846303           ,"200 TAYLOR AV N, SEATTLE, WA   98109",87,,,,,GARAGE,,,,,4,Diamond Parking Service,,,http://www.diamondparking.com/find-parking-locations/details/?code=A231,,N,DIAMOND,0,,,,,
-122.328390550797963,47.594394762255334,508,534474,593927,DIAMOND PARKING SERVICES LLC,DIAMOND  #A235,JONATHAN DIAMOND,2062843100           ,"1000 4TH AV S, SEATTLE, WA   98134",150,,,,,SURFACE LOT,,,,,4,Diamond Parking Service,,,http://www.diamondparking.com/find-parking-locations/details/?code=A235,,N,DIAMOND,0,,,,,
-122.33699634066771,47.606685848084602,509,574582,625118,DIAMOND PARKING SERVICES LLC,DIAMOND PARKING #A243,JONATHAN DIAMOND,2062843100           ,"1221 2ND AV, SEATTLE, WA   98101",75,,,,,GARAGE,,,,,,Diamond Parking Service,,,http://www.diamondparking.com/find-parking-locations/details/?code=A243,,N,DIAMOND,0,,,,,
-122.334574598838316,47.599895521237613,510,534755,593908,DIAMOND PARKING SERVICES LLC,DIAMOND A039,JONATHAN DIAMOND,2062843100           ,"305 1ST AV S, SEATTLE, WA   98104",22,,,,,SURFACE LOT,,,,,,Diamond Parking Service,,,http://www.diamondparking.com/find-parking-locations/details/?code=A039,,N,DIAMOND,0,,,,,
-122.332035796648398,47.593213943836886,511,449212,533688,FIRST & GOAL INC,STADIUM/EXHIBITION CENTER GARAGE,PAUL ALLEN,2065551212           ,"1000 OCCIDENTAL AV S, SEATTLE, WA   98104",2050,Stadium Exhibition Center Garage,,,,GARAGE,,,,7,26,International Parking Management,206-254-0811,,http://www.ipmseattle.com/locations/lot.asp?id=463,,N,STADIUM/EXHIBITION CENTER GARAGE,0,,,,,
-122.3330640382935,47.597643311690625,512,0,2000026,,STADIUM PLACE,,,,75,STADIUM PLACE,6am - 10pm / 12am Fri,8am - 12am,8am - 10pm,GARAGE,3,6,9,,,International Parking Management,(206)254-0811,,http://www.ipmseattle.com/locations/lot.asp?id=492,,N,STADIUM PLACE,17,N,51,41,2017-10-01T16:51:56.000Z,G15
-122.334723404153735,47.58995010872318,513,509363,576428,INTERNATIONAL PARKING MGMT,IPM - HOMEPLATE,JOAN SUNDBERG,2062540811           ,"1501 1ST AV S, SEATTLE, WA   98134",299,Home Plate,,,,GARAGE,,,,,,International Parking Management,,,http://www.ipmseattle.com/locations/lot.asp?id=485,,N,IPM - HOMEPLATE,0,,,,,
-122.327285839075671,47.59948389870658,514,462133,543204,INTERNATIONAL PARKING MGMT,I P M #23,JOAN SUNDBERG,2069327809           ,"500 S JACKSON ST, SEATTLE, WA   98104",100,Lot 23,Self park location,Self park location,Self park location,SURFACE LOT,6,8,12,18,,International Parking Management,(206)254-0811,,http://www.ipmseattle.com/locations/lot.asp?id=448,,N,AMAZON PHASE 1A #81865,0,,,,,
-122.328444229354659,47.600293638463306,515,462135,543206,INTERNATIONAL PARKING MGMT,I P M #08,JOAN SUNDBERG,2069327809           ,"412 S MAIN ST, SEATTLE, WA   98104",52,Lot 8,Self park location,Self park location,Self park location,SURFACE LOT,6,6,9,12,,International Parking Management,(206)254-0811,,http://www.ipmseattle.com/locations/lot.asp?id=447,,N,Genesis #81968,0,,,,,
-122.326874071594517,47.596984371205934,516,462136,543207,INTERNATIONAL PARKING MGMT,I P M #UV,JOAN SUNDBERG,2069327809           ,"600 5TH AV S, SEATTLE, WA   98104",365,Uwajimaya Village,7am-10pm,6am-11pm,7am-11pm,SURFACE LOT,7.5,15,,,,International Parking Management,,,http://www.ipmseattle.com/locations/lot.asp?id=462,,N,IPM,0,,,,,
-122.337481288601069,47.614870273622948,517,517728,582530,INTERNATIONAL PARKING MGMT,IPM PARKING #        - METROPOLITAN TOWER,JOAN SUNDBERG,2062540811           ,"1942 WESTLAKE AV, SEATTLE, WA   98101",373,Metropolitan Tower Garage,,,,GARAGE,8,9,9,18,24,International Parking Management,(206) 254-0811,,http://www.ipmseattle.com/locations/lot.asp?id=451,,N,,0,,,,,
-122.334776049441729,47.598065227119584,518,0,2000022,International Parking Management Seattle,I P M #28,, ,"505 1ST AVE S, SEATTLE, WA 98104",440,Lot 28,Self park location,Self park location,Self park location,GARAGE,5,12,14,,,International Parking Management,(206)254-0811,,http://www.ipmseattle.com/locations/lot.asp?id=501,,N,IPM,,,,,,
-122.340131749783964,47.609455995617196,519,579281,560186,INTERNATIONAL PARKING MGMT,IPM #01,JOAN SUNDBERG,2062540811           ,"1516 1ST AV, SEATTLE, WA   98101",90,1st & Pike (#01),Self park location,Self park location,Self park location,SURFACE LOT,7,9,11,21,1,International Parking Management,(206)254-0811,,http://www.ipmseattle.com/locations/lot.asp?id=450,,N,ANALYTICAL RESOURCES #81879,0,,,,,
-122.353911775125724,47.618783811662901,520,587466,634485,INTERNATIONAL PARKING MGMT,IPM PARKING #26,JOAN SUNDBERG,2062540811           ,"150 DENNY WY, SEATTLE, WA   98109",143,Church Garage,Self park location,Self park location,Self park location,GARAGE,,5,,10,5,International Parking Management,(206) 254-0811,,http://www.ipmseattle.com/locations/,,N,CINERAMA #81097,0,,,,,
-122.319295283123267,47.614212246831507,521,577820,627197,INTERNATIONAL PARKING MGMT,I P M #22,JOAN SUNDBERG,2062540811           ,"1010 E PIKE ST, SEATTLE, WA   98122",26,Lot 22,,,,SURFACE LOT,5,5,7,13,,International Parking Management,(206) 254-0811,,http://www.ipmseattle.com/locations/lot.asp?id=455,,N,,0,,,,,
-122.33523202856334,47.61398707815458,522,470595,549410,IMPERIAL PARKING US INC,IMPARK #10,EDWARD DANYLUK,2063811789           ,"1700 7TH AV, SEATTLE, WA   98101",591,,6:00am - 10:00pm,8:00am - 10:00pm,9:00am - 10:00pm,GARAGE,8,8,,30,10,IMPARK,,,"https://lots.impark.com/imp?_ga=1.69261712.147180094.1470262460#details=25,10",,N,IMPARK,0,,,,,
-122.339033530624064,47.612294863958887,523,445065,530468,IMPERIAL PARKING US INC,IMPARK #1,EDWARD DANYLUK,2063811789           ,"1922 3RD AVE, SEATTLE, WA   98101",328,Securities Building Lower Lot - Lot #1,6:30am - 11:00pm,8:00am - 1:00am,9:00am - 8:00am,GARAGE,6,8,10,25,,IMPARK,,,"https://lots.impark.com/imp?_ga=1.69261712.147180094.1470262460#details=25,1",,N,IMPARK,0,,,,,
-122.328724082712,47.604390248652699,524,560695,614874,IMPERIAL PARKING US INC,IMPARK #66,EDWARD DANYLUK,2063811789           ,"609 6TH AV, SEATTLE, WA   98104",674,Seapark Parking Garage #679,6am-10pm,CLOSED,CLOSED,GARAGE,9,11,,28,14,IMPARK,,,"https://lots.impark.com/imp?_ga=1.69261712.147180094.1470262460#details=25,66",,N,IMPARK,0,,,,,
-122.336195359664103,47.613396528562909,525,548231,605780,IMPERIAL PARKING US INC,IMPARK #58,EDWARD DANYLUK,2063811789           ,"600 OLIVE WY, SEATTLE, WA   98101",233,600 Olive Way Garage - Lot #58,6:00am - 12:00am,8:00am - 12:00am,9:00am - 12:00am,GARAGE,6,12,18,24,,IMPARK,,,"https://lots.impark.com/imp?_ga=1.69261712.147180094.1470262460#details=25,58",,N,IMPARK,0,,,,,
-122.343884465174398,47.617999156724117,526,493720,565731,IMPERIAL PARKING US INC,IMPARK #34,EDWARD DANYLUK,2063811789           ,"601 WALL ST, SEATTLE, WA   98121",17,,24 hours,24 hours,24 hours,SURFACE LOT,2,2,,17,1,IMPARK,,,http://www2.impark.com/Pages/default.aspx?lang=en&region=seattle,,N,IMPARK,0,,,,,
-122.341461468135364,47.617054756783041,527,560700,614875,IMPERIAL PARKING US INC,IMPARK #68,EDWARD DANYLUK,2063811789           ,"2229 7TH AV, SEATTLE, WA 98121",18,Fastenal Lot - Lot #68,24 hours,24 hours,24 hours,SURFACE LOT,5,5,,17,,IMPARK,,,"https://lots.impark.com/imp?_ga=1.69261712.147180094.1470262460#details=25,68",,N,IMPARK,0,,,,,
-122.344597212649887,47.620556361463798,528,531566,593008,IMPERIAL PARKING US INC,IMPARK #20,EDWARD DANYLUK,2063811789           ,"220 6TH AV N, SEATTLE, WA   98109",28,6th Avenue North & Thomas - Lot #20,,,,SURFACE LOT,4,4,,,1,IMPARK,,,"https://lots.impark.com/imp?_ga=1.99359390.147180094.1470262460#details=25,20",,N,IMPARK,0,,,,,
-122.342505165174046,47.616048966686726,529,469209,548441,IMPERIAL PARKING US INC,IMPARK #14,EDWARD DANYLUK,2063811789           ,"2230 5TH AV, SEATTLE, WA   98121",71,5th & Bell - Lot #14,24 hours,24 hours,24 hours,,5,5,,17,,IMPARK,,,"https://lots.impark.com/imp?_ga=1.69261712.147180094.1470262460#details=25,14",,N,IMPARK,0,,,,,
-122.334368361332025,47.60196537424725,530,534753,593906,DIAMOND PARKING SERVICES LLC,DIAMOND A035,JONATHAN DIAMOND,2062843100           ,"615 1ST AV, SEATTLE, WA   98104",34,,,,,SURFACE LOT,,,,,1,Diamond Parking Service,,,http://www.diamondparking.com/find-parking-locations/details/?code=A035,,N,DIAMOND,0,,,,,
-122.345431566243604,47.611917276795801,531,588414,635152,DIAMOND PARKING SERVICES LLC,DIAMOND PARKING #A003,JONATHAN DIAMOND,2062846303           ,"2134 WESTERN AV, SEATTLE, WA   98121",69,,,,,SURFACE LOT,,,,,42,Diamond Parking Service,,,http://www.diamondparking.com/find-parking-locations/details/?code=A003,,N,DIAMOND,0,,,,,
-122.322978418947571,47.597333398437819,532,19952,17660,INTL DISTRICT MERCHANTS PARKING ASSN,INTL DIST MERCHANTS #32,MICHAEL OLSON,2066243426           ,"751 S WELLER ST, SEATTLE, WA   98104",13,Merchants Parking #32,,,,SURFACE LOT,,,,,,Merchants Parking/Transia,,,,,N,MERCHANTS PARKING ASSOC,0,,,,,
-122.340710476914992,47.620098148366544,533,535665,596087,DIAMOND PARKING SERVICES LLC,DIAMOND #A879,JONATHAN DIAMOND,2062843100           ,"220 8TH AV N, SEATTLE, WA   98109",12,,,,,SURFACE LOT,,,,,,,,,http://www.diamondparking.com/find-parking-locations/details/?code=A879,,N,DIAMOND,0,,,,,
-122.335696591056092,47.618961681454152,534,651386,679471,DIAMOND PARKING SERVICES LLC,DIAMOND PARKING #A448,JONATHAN DIAMOND,2062843100           ,"122 BOREN AVE N, SEATTLE, WA 98109",35,,,,,SURFACE LOT,,,,,,,,,http://www.diamondparking.com/find-parking-locations/details/?code=A448,,N,,,,,,,
-122.316289671399701,47.65970289312564,535,588668,635362,DIAMOND PARKING SERVICES LLC,DIAMOND PARKING #WU46,JONATHAN DIAMOND,2062843100           ,"4244 11TH AV NE, SEATTLE, WA   98105",17,,,,,SURFACE LOT,,,,,1,Diamond Parking Service,,,http://www.diamondparking.com/find-parking-locations/details/?code=WU46,,N,DIAMOND,0,,,,,
-122.332078724012092,47.62235051849585,536,595168,640019,DIAMOND PARKING SERVICES LLC,DIAMOND PARKING #A273,JONATHAN DIAMOND,2062843100           ,"411 PONTIUS AV N, SEATTLE, WA 98109",10,,,,,SURFACE LOT,,,,,1,Diamond Parking Service,,,http://www.diamondparking.com/find-parking-locations/details/?code=A273,,N,DIAMOND,0,,,,,
-122.347695313686245,47.612176450586574,537,585887,633195,DIAMOND PARKING SERVICES LLC,DIAMOND PARKING #A977,JONATHAN DIAMOND,2062843100           ,"55 BELL ST, SEATTLE, WA   98121",23,,,,,SURFACE LOT,,,,,,Diamond Parking Service,,,http://www.diamondparking.com/find-parking-locations/details/?code=A977,,N,DIAMOND,0,,,,,
-122.331739987571538,47.601977830450771,538,574578,625114,DIAMOND PARKING SERVICES LLC,DIAMOND PARKING #A164,JONATHAN DIAMOND,2062843100           ,"500 2ND AV W, SEATTLE, WA   98119",28,,,,,SURFACE LOT,,,,,,Diamond Parking Service,,,http://www.diamondparking.com/find-parking-locations/details/?code=A164,,N,DIAMOND,0,,,,,
-122.328766267667973,47.602114085903033,539,534465,593923,DIAMOND PARKING SERVICES LLC,DIAMOND  #A260,JONATHAN DIAMOND,2062843100           ,"400 4TH AV, SEATTLE, WA   98104",68,,,,,SURFACE LOT,,,,,2,Diamond Parking Service,,,http://www.diamondparking.com/find-parking-locations/details/?code=A260,,N,DIAMOND,0,,,,,
-122.312909905404098,47.656979964876747,540,535675,596093,DIAMOND PARKING SERVICES LLC,DIAMOND PARKING #WU13,JONATHAN DIAMOND,2062843100           ,"4100 UNIVERSITY WY NE, SEATTLE, WA   98105",15,,,,,SURFACE LOT,,,,,1,Diamond Parking Service,,,http://www.diamondparking.com/find-parking-locations/details/?code=WU13,,N,DIAMOND,0,,,,,
-122.337510646830324,47.606604438323117,541,574594,625134,DIAMOND PARKING SERVICES LLC,DIAMOND PARKING #A813,JONATHAN DIAMOND,2062843100           ,"1206 1ST AV, SEATTLE, WA   98101",28,,,,,SURFACE LOT,,,,,1,Diamond Parking Service,,,http://www.diamondparking.com/find-parking-locations/details/?code=A813,,N,DIAMOND,0,,,,,
-122.33688807962568,47.714248259736721,542,170661,153042,UW MEDICINE NORTHWEST,NORTHWEST HOSPITAL,GERALD BASS,2063683006           ,"1550 N 115TH ST, SEATTLE, WA   98133",693,Northwest Hospital,24 Hours,24 Hours,24 Hours,SURFACE LOT,3,5,7,7,,Northwest Hospital,,,http://nwhospital.org/patient-information/parking-at-northwest-hospital-medical-center/,,N,NORTHWEST HOSPITAL,0,,,,,
-122.345932702292188,47.625158842507474,543,534486,593932,DIAMOND PARKING SERVICES LLC,DIAMOND  #A288,JONATHAN DIAMOND,2062843100           ,"557 ROY ST, SEATTLE, WA   98109",32,,,,,SURFACE LOT,,,,,,Diamond Parking Service,,,http://diamondparking.com/locations/washington.aspx,,N,DIAMOND,0,,,,,
-122.333233761293613,47.614569717464754,544,588826,635468,DIAMOND PARKING SERVICES LLC,DIAMOND PARKING #A302,JONATHAN DIAMOND,2062846300           ,"800 OLIVE WY, SEATTLE, WA   98101",7,,,,,SURFACE LOT,,,,,,Diamond Parking Service,,,http://www.diamondparking.com/find-parking-locations/details/?code=A302,,N,DIAMOND,0,,,,,
-122.322032922745748,47.708327897780329,545,671309,693814,DIAMOND PARKING SERVICES LLC,DIAMOND PARKING #WX06,JONATHAN DIAMOND,2062843100           ,"525 NE NORTHGATE WAY, SEATTLE, WA 98125-6106",32,,,,,SURFACE LOT,,,,,,,,,http://www.diamondparking.com/find-parking-locations/details/?code=WX06,,N,,,,,,,
-122.341868094148467,47.608278102040657,546,534472,593926,DIAMOND PARKING SERVICES LLC,DIAMOND  #A172,JONATHAN DIAMOND,2062843100           ,"1524 ALASKAN WY, SEATTLE, WA   98101",60,,,,,SURFACE LOT,,,,,,Diamond Parking Service,,,http://www.diamondparking.com/find-parking-locations/details/?code=A172,,N,DIAMOND,0,,,,,
-122.340710476914992,47.620098148366544,547,525335,588180,DIAMOND PARKING SERVICES LLC,DIAMOND PARKING #A-872,JONATHAN DIAMOND,2062846303           ,"200 8TH AV N, SEATTLE, WA   98109",42,,,,,SURFACE LOT,,,,,2,Diamond Parking Service,,,http://www.diamondparking.com/find-parking-locations/details/?code=A872,,N,DIAMOND,0,,,,,
-122.333706699638512,47.594258161233689,548,534751,593898,DIAMOND PARKING SERVICES LLC,DIAMOND PARKING A028,JONATHAN DIAMOND,2062843100           ,"922 1ST AV S, SEATTLE, WA   98104",46,,,,,SURFACE LOT,,,,,2,Diamond Parking Service,,,http://www.diamondparking.com/find-parking-locations/details/?code=A028,,N,DIAMOND,0,,,,,
-122.293960612526746,47.562601716706908,549,595795,640451,DIAMOND PARKING SERVICES LLC,DIAMOND PARKING #A321,JONATHAN DIAMOND,2062843100           ,"4520 M L KING JR WY S, SEATTLE, WA 98108",20,,,,,SURFACE LOT,,,,,,Diamond Parking Service,,,http://www.diamondparking.com/find-parking-locations/details/?code=A321,,N,DIAMOND,0,,,,,
-122.332379895843744,47.615911890435079,550,519896,584186,DIAMOND PARKING SERVICES LLC,DIAMOND PARKING #A870,JONATHAN DIAMOND,2069929475           ,"1800 TERRY AV, SEATTLE, WA   98101",17,,,,,SURFACE LOT,,,,,2,Diamond Parking Service,,,http://www.diamondparking.com/find-parking-locations/details/?code=A870,,N,DIAMOND,0,,,,,
-122.352249123126882,47.671226501050491,551,480130,556118,WOODLAND PARK ZOOLOGICAL SOCIETY,WOODLAND PARK ZOO LOT #4,WOODLAND PARK ZOO SOCIETY,2062332503           ,"501 N 59TH ST, SEATTLE, WA   98103",195,Bear Lot,9:30am - 4:00pm,9:30am - 4:00pm,9:30am - 4:00pm,SURFACE LOT,,,,6,,,,,http://www.zoo.org/parking#.WC85Nsm0d3x,,N,WOODLAND PARK ZOO LOT,,,,,,
-122.312410850787145,47.659257916886148,552,611676,651564,UNIVERSITY BOOK STORE,UNIVERSITY BOOK STORE PARKING,TODD MALAN,2066343400           ,"4315 15TH AV NE, SEATTLE, WA 98105",95,,U District Book Store,,,,5,10,15,20,,,,,http://www.bookstore.washington.edu/_services/services.taf?responsive=true#parking,,Y,,0,,,,,
-122.350623201295306,47.665452252236534,553,480127,556115,WOODLAND PARK ZOOLOGICAL SOCIETY,WOODLAND PARK ZOO LOT #1,WOODLAND PARK ZOO SOCIETY,2062332503           ,"600 N 50TH ST, SEATTLE, WA   98103",276,Hippo Lot,9:30am - 4:00pm,9:30am - 4:00pm,9:30am - 4:00pm,SURFACE LOT,,,,6,,,,,http://www.zoo.org/parking#.WC85Nsm0d3x,,N,WOODLAND PARK ZOO LOT,0,,,,,
-122.382591523221862,47.630636594533584,554,575986,625644,REPUBLIC PARKING N W INC,REPUBLIC PARKING #84  -  PIER 91,GARY BECK,2067834144           ,"2001 W GARFIELD ST, SEATTLE, WA   98119",1100,Smith Cove Cruise,Open Cruise Days Only,Open Cruise Days Only,Open Cruise Days Only,SURFACE LOT,7,12,12,27,,,,,,http://www.rpnw.com/lot/seattle/30-084,N,REPUBLIC - PIER 91,0,,,,,
-122.354017366186014,47.665396319084152,555,480128,556116,WOODLAND PARK ZOOLOGICAL SOCIETY,WOODLAND PARK ZOO LOT #2,WOODLAND PARK ZOO SOCIETY,2062332503           ,"5000 PHINNEY AV N, SEATTLE, WA   98103",140,Flamingo Lot,9:30am - 4:00pm,9:30am - 4:00pm,9:30am - 4:00pm,SURFACE LOT,,,,6,,,,,http://www.zoo.org/parking#.WC85Nsm0d3x,,N,WOODLAND PARK ZOO LOT,0,,,,,
-122.353688077582731,47.66853222667239,556,480129,556117,WOODLAND PARK ZOOLOGICAL SOCIETY,WOODLAND PARK ZOO LOT #3,WOODLAND PARK ZOO SOCIETY,2062332503           ,"5500 PHINNEY AV N, SEATTLE, WA   98103",61,Penguin Lot,9:30am - 4:00pm,9:30am - 4:00pm,9:30am - 4:00pm,SURFACE LOT,,,,6,,,,,http://www.zoo.org/parking#.WC85Nsm0d3x,,N,WOODLAND PARK ZOO LOT,0,,,,,
-122.386267242564529,47.669079310736151,557,479803,76131,REPUBLIC PARKING N W INC,REPUBLIC PARKING #190,GARY BECK,2067284457           ,"2232 NW MARKET ST, SEATTLE, WA   98107",35,Ballard Square,24 hours,24 hours,24 hours,GARAGE,2,3,6,,,,,,http://www.rpnw.com/lot/seattle/30-190,,N,REPUBLIC,0,,,,,
-122.39442014933924,47.666786956699262,558,580619,629202,REPUBLIC PARKING N W INC,REPUBLIC PARKING #30-241  JACOBSON TERMINAL,GARY BECK,2067834144           ,"5350 30TH AV NW, SEATTLE, WA   98107",44,Jacobson Terminals Lot,24 hours,24 hours,24 hours,SURFACE LOT,2,3.5,8,,,,,,http://www.rpnw.com/lot/seattle/30-241,,N,REPUBLIC - JACOBSON TERMINAL,0,,,,,
-122.314538821131492,47.662274426967905,559,57584,52871,UNIVERSITY DISTRICT PARKING ASSOCS  INC,U-DISTRICT PARKING LOT #2,,2065277006           ,"4519 BROOKLYN AV NE, SEATTLE, WA   98105",162,,,,,,,,,,,,,,,,N,U-DISTRICT PARKING LOT,0,,,,,
-122.330781666916806,47.606811914176646,560,130382,117276,MADISON HOTEL LLC,RENAISSANCE MADISON HOTEL,DORIS MILLER,2065830300           ,"515 MADISON ST, SEATTLE, WA   98104",196,Renaissance Madison Hotel,,,,GARAGE,,,,,,,,,,,N,RENAISSANCE MADISON HOTEL,0,,,,,
-122.339190065235897,47.607415313294602,561,564396,617332,SHG HOTEL SPE LLC,FOUR SEASONS HOTEL,SHG PROJECT SPE LLC,2062391800           ,"99 UNION ST, SEATTLE, WA   98101",157,Four Seasons,,,,GARAGE,,,,,,Four Seasons,,,,,N,FOUR SEASONS GARAGE,0,,,,,
-122.335191860613818,47.598667606639971,562,588688,635378,INTERNATIONAL PARKING MGMT,IPM #25 - MERRILL PLACE,JOAN SUNDBERG,2062540811           ,"76 S KING ST, SEATTLE, WA   98104",116,,,,,,,,,,,,,,,,N,IPM - MERRILL PLACE,0,,,,,
-122.291290012029023,47.661344483236668,563,574713,625172,DIAMOND PARKING SERVICES LLC,DIAMOND PARKING #WU83,JONATHAN DIAMOND,2062843100           ,"3216 NE 45TH ST, SEATTLE, WA   98105",50,Lakeview Medical Building,,,,,,,,,,,,,http://www.diamondparking.com/find-parking-locations/details/?code=WU83,,N,DIAMOND,0,,,,,
-122.346242768572608,47.617063694999494,564,653855,681392,UNITED PARKING SERVICES LLC,UNITED PARKING #4598,JONATHAN DIAMOND,2062843100           ,"400 WALL ST, SEATTLE, WA 98121",10,,,,,,,,,,,,,,http://www.diamondparking.com/find-parking-locations/details/?code=4598,,N,,,,,,,
-122.34935563297114,47.617048689835173,565,574584,625120,DIAMOND PARKING SERVICES LLC,DIAMOND PARKING #A254,JONATHAN DIAMOND,2062843100           ,"2701 3RD AV, SEATTLE, WA   98121",28,,,,,,,,,,,,,,http://www.diamondparking.com/find-parking-locations/details/?code=A254,,N,DIAMOND,0,,,,,
-122.347561393799097,47.615950243847315,566,594235,639317,DIAMOND PARKING SERVICES LLC,DIAMOND PARKING #A308,JONATHAN DIAMOND,2062843100           ,"2505 3RD AV, SEATTLE, WA   98121",14,,,,,SURFACE LOT,,,,,,,,,http://www.diamondparking.com/find-parking-locations/details/?code=A308,,N,DIAMOND,0,,,,,
-122.347036806278609,47.615703258136179,567,588430,635168,DIAMOND PARKING SERVICES LLC,DIAMOND PARKING #A801,JONATHAN DIAMOND,2062846303           ,"2413 3RD AV, SEATTLE, WA   98121",56,,,,,SURFACE LOT,,,,,,,,,http://www.diamondparking.com/find-parking-locations/details/?code=A801,,N,DIAMOND,0,,,,,
-122.336643816319992,47.605812923727449,568,630113,664625,SP PLUS CORPORATION,1ST & SPRING GARAGE - #81395,BILL BEATTIE,2063818552           ,"1100 1ST AVE, SEATTLE, WA 98101",161,,,,,GARAGE,,,,,,,(206) 521-2707,,,,N,,,,,,,
-122.333892137621831,47.603309803038556,569,579800,628567,IMPERIAL PARKING US INC,IMPARK - MILENNIUM BUILDING,EDWARD DANYLUK,2063811789           ,"719 2ND AV, SEATTLE, WA   98104",204,,6am-8pm,CLOSED,CLOSED,GARAGE,9,13,16,25,,,,,"https://lots.impark.com/imp?_ga=1.69261712.147180094.1470262460#details=25,80",,N,IMPARK - MILENNIUM BUILDING,0,,,,,
-122.334273146528844,47.605046168788832,570,644448,673882,ACE PARKING MANAGEMENT INC,ACE PARKING #3264 - WELLS FARGO GARAGE,BRYAN COLLINS,6192336624           ,"999 3RD AVE, SEATTLE, WA 98104",676,,24 Hours,24 Hours,24 Hours,,,,,,,,(206) 652-5515,,http://www.aceparking.com/find-parking/,,N,,,,,,,
-122.33225203712432,47.604108778366438,571,662643,687301,REPUBLIC PARKING N W INC,REPUBLIC PARKING #30-79,GARY BECK,2067834144           ,"720 3RD AVE, SEATTLE, WA 98104",216,,,,,GARAGE,10.99,13.43,19.52,30.51,,,,,http://www.rpnw.com/lot/seattle/30-079,,N,,,,,,,
-122.333194315768992,47.605490976847456,572,588661,635357,DIAMOND PARKING SERVICES LLC,DIAMOND PARKING #A966,JONATHAN DIAMOND,2062843100           ,"925 4TH AV, SEATTLE, WA   98104",500,IDX Building,6:30am-7pm,7am-5pm,closed,GARAGE,13,20,,31,9,AMPCO,(425) 462-7515,,http://www.diamondparking.com/find-parking-locations/details/?code=A966,,N,DIAMOND,0,,,,,
-122.337594875693668,47.605711528903271,573,594968,639862,DIAMOND PARKING SERVICES LLC,DIAMOND PARKING #A992,JONATHAN DIAMOND,2062813100           ,"1122 POST AL, SEATTLE, WA 98104",7,,,,,SURFACE LOT,,,,,,,,,http://www.diamondparking.com/find-parking-locations/details/?code=A992,,N,DIAMOND,0,,,,,
-122.342115304764889,47.617037129117151,574,629055,663917,DIAMOND PARKING SERVICES LLC,DIAMOND PARKING #A407,JONATHAN DIAMOND,2062843100           ,"2300 6TH AVE, SEATTLE, WA 98121",28,,,,,,,,,,,,,,http://www.diamondparking.com/find-parking-locations/details/?code=A407,,N,,,,,,,
-122.330638421155768,47.601225813831498,575,404666,503419,BUTLER PARKING CORP,FRYE PARKING GARAGE,GEORGE HAMILTON,2066224367           ,"117 3RD AV S, SEATTLE, WA   98104",34,Frye Parking Garage,,,,GARAGE,,,,,,Butler Parking,(206)622-4367,,,,N,FRYE PARKING GARAGE,0,,,,,
-122.33179371515287,47.598124370787389,576,453385,536943,FIRST & GOAL INC,SEAHAWKS STADIUM PARKING - NORTH LOT,PAUL ALLEN,2063817555           ,"201 S KING ST, SEATTLE, WA   98104",1165,,,,,,,,,,,,,,http://www.seahawks.com/gameday/getting-to-centurylink-field,,N,QWEST FIELD PARKING - NORTH LOT,0,,,,,
-122.330720460398638,47.6045350673595,577,669332,692443,SP PLUS CORPORATION,COLUMBIA CENTER GARAGE,BILL BEATTIE,2063818552           ,"701 5TH AVE, SEATTLE, WA 98104",703,,5:30am - 9:30pm,9:00am - 9:30pm,Closed,GARAGE,,23,25,34,,,,,http://seattleparking.spplus.com/701-Fifth-Ave-Parking.html,,N,,,,,,,
-122.319736576816126,47.604562146098829,578,655333,682462,DIAMOND PARKING SERVICES LLC,DIAMOND PARKING #A459,JONATHAN DIAMOND,2062843100           ,"303 10TH AVE, SEATTLE, WA 98122",15,,,,,GARAGE,,,,,,,,,http://www.diamondparking.com/find-parking-locations/details/?code=A459,,N,,,,,,,
-122.318201101184627,47.598991284990042,579,689716,692216,DIAMOND PARKING SERVICES LLC,DIAMOND PARKING #A622,JONATHAN DIAMOND,2062843100           ,"1029 S JACKSON ST, SEATTLE, WA 98001",24,,,,,SURFACE LOT,,,,,,,,,http://www.diamondparking.com/find-parking-locations/details/?code=A622,,N,,,,,,,
-122.332480333627288,47.60122869663455,580,633817,667143,DIAMOND PARKING SERVICES LLC,DIAMOND PARKING #A402,JONATHAN DIAMOND,2062843100           ,"112 OCCIDENTAL AVE S, SEATTLE, WA 98104",56,,,,,SURFACE LOT,,,,,,,,,http://www.diamondparking.com/find-parking-locations/details/?code=A402,,N,,,,,,,
-122.330523320574216,47.601047383685994,581,652008,679934,DIAMOND PARKING SERVICES LLC,DIAMOND PARKING #A442,JONATHAN DIAMOND,2062843100           ,"224 S WASHINGTON ST, SEATTLE, WA 98104",9,,,,,GARAGE,,,,,,,,,http://www.diamondparking.com/find-parking-locations/details/?code=A442,,N,,,,,,,
-122.328492443183436,47.597827212435746,582,424204,517528,INTERNATIONAL PARKING MGMT,UNION STATION PARKING GARAGE NORTH,JOAN SUNDBERG,2069327809           ,"550 4TH AV S, SEATTLE, WA   98104",477,,,,,GARAGE,7,9,11,21,,,,,http://www.ipmseattle.com/locations/lot.asp?id=453,,N,UNION STATION PARKING GARAGE NORTH,0,,,,,
-122.329021360326024,47.602393086917047,583,666620,690380,DIAMOND PARKING SERVICES LLC,DIAMOND PARKING #A474,JONATHAN DIAMOND,2062843100           ,"414 4TH AVE, SEATTLE, WA 98104",28,,,,,SURFACE LOT,,,,,,,,,http://www.diamondparking.com/find-parking-locations/details/?code=A474,,N,,,,,,,
-122.328646474027082,47.595596213361574,584,454293,537623,INTERNATIONAL PARKING MGMT,UNION STATION PARKING GARAGE SOUTH,JOAN SUNDBERG,2069327809           ,"820 4TH AV S, SEATTLE, WA   98104",684,,,,,GARAGE,7,9,11,21,,,,,http://www.ipmseattle.com/locations/lot.asp?id=453,,N,IPM - Union Station South,0,,,,,
-122.333674155677485,47.594031818134333,585,619012,656603,DIAMOND PARKING SERVICES LLC,DIAMOND PARKING #A362,JONATHAN DIAMOND,2062843100           ,"1000 1ST AVE S, SEATTLE, WA 98134",25,,,,,SURFACE LOT,,,,,,,,,http://www.diamondparking.com/find-parking-locations/details/?code=A362,,N,,,,,,,
-122.330877062726415,47.59877628536973,586,588064,634905,DIAMOND PARKING SERVICES LLC,DIAMOND PARKING #A005,JONATHAN DIAMOND,2062843100           ,"201 S JACKSON ST, SEATTLE, WA   98104",242,,,,,GARAGE,,,,,,,,,http://www.diamondparking.com/find-parking-locations/details/?code=A005,,N,DIAMOND,0,,,,,
-122.328587221093613,47.600548057136294,587,574565,625101,DIAMOND PARKING SERVICES LLC,DIAMOND PARKING #A037,JONATHAN DIAMOND,2062843100           ,"200 4TH AV, SEATTLE, WA 98104",54,,,,,SURFACE LOT,,,,,,,,,http://www.diamondparking.com/find-parking-locations/details/?code=A037,,N,DIAMOND,0,,,,,
-122.331554063183503,47.602490421301844,588,588418,635156,DIAMOND PARKING SERVICES LLC,DIAMOND PARKING #A043,JONATHAN DIAMOND,2066846303           ,"523 3RD AV W, SEATTLE, WA   98119",60,,,,,SURFACE LOT,,,,,,,,,http://www.diamondparking.com/find-parking-locations/details/?code=A043,,N,DIAMOND,0,,,,,
-122.326732293583547,47.600544995555062,589,588423,635161,DIAMOND PARKING SERVICES LLC,DIAMOND PARKING #A085,JONATHAN DIAMOND,2062846303           ,"251 6TH AV S, SEATTLE, WA   98104",24,,,,,SURFACE LOT,,,,,,,,,http://www.diamondparking.com/find-parking-locations/details/?code=A085,,N,DIAMOND,0,,,,,
-122.331945937762555,47.600541689859583,590,574711,596089,DIAMOND PARKING SERVICES LLC,DIAMOND PARKING #A964,JONATHAN DIAMOND,2062843100           ,"207 2ND AV S, SEATTLE, WA   98104",48,,,,,SURFACE LOT,,,,,,,,,http://www.diamondparking.com/find-parking-locations/details/?code=A964,,N,DIAMOND,0,,,,,
-122.334867874053657,47.590808610805595,591,534577,595335,DIAMOND PARKING SERVICES LLC,DIAMOND #A133,JONATHAN DIAMOND,2062843100           ,"1251 1ST AV S, SEATTLE, WA   98134",60,,,,,SURFACE LOT,,,,,,,,,http://www.diamondparking.com/find-parking-locations/details/?code=A133,,N,DIAMOND,0,,,,,
-122.332649086698424,47.586957117272235,592,535693,596107,DIAMOND PARKING SERVICES LLC,DIAMOND #A883,JONATHAN DIAMOND,2062843100           ,"1750 OCCIDENTAL AV S, SEATTLE, WA   98134",210,,,,,SURFACE LOT,,,,,,,,,http://www.diamondparking.com/find-parking-locations/details/?code=A883,,N,DIAMOND,0,,,,,
-122.341809738112417,47.617315488022456,593,465614,545710,IMPERIAL PARKING US INC,IMPARK #8,EDWARD DANYLUK,2063811789           ,"2301 7TH AV, SEATTLE, WA   98101",97,7th & Bell - Lot #8,24 hours,24 hours,24 hours,SURFACE LOT,5,5,,17,2,IMPARK,,,"https://lots.impark.com/imp?_ga=1.69261712.147180094.1470262460#details=25,8",,N,IMPARK,0,,,,,
-122.354987649586889,47.690770602509097,594,591251,637246,DIAMOND PARKING SERVICES LLC,DIAMOND PARKING #WU65,JONATHAN DIAMOND,2062843100           ,"8500 GREENWOOD AV N, SEATTLE, WA   98103",43,Chase Bank,,,,SURFACE LOT,,,,,,,,,http://www.diamondparking.com/find-parking-locations/details/?code=WU65,,N,DIAMOND,0,,,,,
-122.325448924658829,47.596357056749561,595,625527,661553,DIAMOND PARKING SERVICES LLC,DIAMOND PARKING #A398,JONATHAN DIAMOND,2062843100           ,"611 S LANE ST, SEATTLE, WA 98104",24,,,,,SURFACE LOT,,,,,,,,,http://www.diamondparking.com/find-parking-locations/details/?code=A398,,N,,,,,,,
-122.333725948437333,47.586797921241448,596,591060,637115,DIAMOND PARKING SERVICES LLC,DIAMOND PARKING #A994,JONATHAN DIAMOND,2062843100           ,"1746 1ST AV S, SEATTLE, WA   98134",48,,,,,SURFACE LOT,,,,,,,,,http://www.diamondparking.com/find-parking-locations/details/?code=A994,,N,,,,,,,
-122.315987087804871,47.592801135903365,597,679188,76138,REPUBLIC PARKING N W INC,REPUBLIC PARKING #30-211 PACIFICTOWER NORTH,GARY BECK,2067834144           ,"1131 14TH AVE S, SEATTLE, WA 98144",211,,,,,SURFACE LOT,,,,,,,,,http://www.rpnw.com/lot/seattle/30-211,,N,,,,,,,
-122.345101260898858,47.612906460173221,598,669041,577627,DIAMOND PARKING SERVICES LLC,DIAMOND PARKING #A353,JONATHAN DIAMOND,2063843100           ,"2204 1ST AVE, SEATTLE, WA 98121",10,,,,,SURFACE LOT,,,,,,,,,http://www.diamondparking.com/find-parking-locations/details/?code=A353,,N,,,,,,,
-122.346506340317802,47.615427088390049,599,534590,595345,DIAMOND PARKING SERVICES LLC,DIAMOND #A248,JONATHAN DIAMOND,2062843100           ,"2401 3RD AV, SEATTLE, WA   98121",24,,,,,SURFACE LOT,,,,,2,Diamond Parking Service,,,http://www.diamondparking.com/find-parking-locations/details/?code=A248,,N,DIAMOND,0,,,,,
-122.338788719874671,47.609673138663837,600,544793,603198,REPUBLIC PARKING N W INC,REPUBLIC PARKING #533,GARY BECK,2067834144           ,"1500 2ND AVE, SEATTLE, WA   98101",322,West Edge,6am - 11pm,8am - 2am,8am - 7pm,GARAGE,7,12,13,23,,,,,http://www.rpnw.com/lot/seattle/30-533,,N,REPUBLIC,24,N,276,276,2017-10-01T16:51:56.000Z,G22
-122.323477285683865,47.610469033656614,601,603337,645739,DIAMOND PARKING SERVICES LLC,DIAMOND PARKING #A317,JONATHAN DIAMOND,2062846303           ,"1224 MADISON ST, SEATTLE, WA   98104",12,,,,,SURFACE LOT,,,,,,,,,http://www.diamondparking.com/find-parking-locations/details/?code=A317,,N,DIAMOND,0,,,,,
-122.351675185197308,47.614444923287493,602,588525,635177,DIAMOND PARKING SERVICES LLC,DIAMOND PARKING #A222,JONATHAN DIAMOND,2062846303           ,"2600 ELLIOTT AV, SEATTLE, WA   98121",592,,,,,GARAGE,,,,,16,Diamond Parking Service,,,http://www.diamondparking.com/find-parking-locations/details/?code=A222,,N,DIAMOND,0,,,,,
-122.348542560823319,47.614215119190192,603,574689,581999,DIAMOND PARKING SERVICES LLC,DIAMOND PARKING #A921,JONATHAN DIAMOND,2062843100           ,"2407 1ST AV, SEATTLE, WA   98121",63,,,,,SURFACE LOT,,,,,,Diamond Parking Service,,,http://www.diamondparking.com/find-parking-locations/details/?code=A921,,N,DIAMOND,0,,,,,
-122.349249417912546,47.614676004979785,604,208614,187081,EL GAUCHO SEATTLE LLC,EL GAUCHO SEATTLE,PAUL MACKAY SR,2063521450           ,"2505 1ST AV, SEATTLE, WA   98121",66,,,,,,,,,,,,,,http://elgaucho.com/dine/seattle/,,Y,,0,,,,,
-122.332645175364945,47.608665492756671,605,584081,631784,ACE PARKING MANAGEMENT INC,ACE PARKING #3215 - PLYMOUTH CHURCH,BRYAN COLLINS,2066224865           ,"1217 6TH AV, SEATTLE, WA   98101",85,Plymouth Church,6:00am - 6:00pm,Closed,Closed,GARAGE,,,,,,,,,http://www.aceparking.com/find-parking/,,N,ACE PARKING - PLYMOUTH CHURCH,0,,,,,
-122.329100420745434,47.608008935075723,606,603376,645764,DIAMOND PARKING SERVICES LLC,DIAMOND PARKING #A911,JONATHAN DIAMOND,2062846303           ,"1013 8TH AV, SEATTLE, WA   98104",10,,,,,SURFACE LOT,,,,,,,,,http://www.diamondparking.com/find-parking-locations/details/?code=A911,,N,DIAMOND,0,,,,,
-122.320569225787054,47.606388892044961,607,534598,595349,DIAMOND PARKING SERVICES LLC,DIAMOND #A161,JONATHAN DIAMOND,2062843100           ,"500 BROADWAY, SEATTLE, WA   98122",13,,,,,SURFACE LOT,,,,,,,,,http://www.diamondparking.com/find-parking-locations/details/?code=A161,,N,DIAMOND,0,,,,,
-122.328797365738168,47.607073520150166,608,616946,655102,THE POLYCLINIC A PROFESSIONAL CORP,THE POLYCLINIC MADISON CENTER,DAVID GILBERT,2063291760           ,"904 7TH AVE, SEATTLE, WA 98104",200,Madison Center,6:30am - 7:00pm,9:00am - 3:00pm,Closed,GARAGE,5,7,9,18,,The Polyclinic,(206) 329-1760,,https://polyclinic.com/locations/madison-center,,N,,,,,,,
-122.319005236735492,47.606024539335735,609,603367,645758,DIAMOND PARKING SERVICES LLC,DIAMOND PARKING #A336,JONATHAN DIAMOND,2062846303           ,"1005 E JEFFERSON ST, SEATTLE, WA   98122",20,,,,,SURFACE LOT,,,,,,,,,http://www.diamondparking.com/find-parking-locations/details/?code=A336,,N,DIAMOND,0,,,,,
-122.327834225410626,47.606739446036499,610,616952,655103,THE POLYCLINIC A PROFESSIONAL CORP,POLYCLINIC PARKING MARION,DAVID GILBERT,2063291760           ,"751 MARION ST, SEATTLE, WA 98104",450,Madison Center,6:30am - 7:00pm,9:00am - 3:00pm,Closed,GARAGE,5,7,9,18,,The Polyclinic,(206) 329-1760,,https://polyclinic.com/locations/madison-center,,N,,,,,,,
-122.348252821867732,47.613520148774754,611,591553,4596,THRIFTY PARK INC,U-PARK #92,KEN JR PHILLIPS,2066245353           ,"2330 WESTERN AV, SEATTLE, WA   98121",17,,,,,,,,,,,,,,http://www.u-parksystem.com/locations/lot.asp?id=320,,N,U-PARK,0,,,,,
-122.327886189895835,47.607537814819921,612,604022,646190,IMPERIAL PARKING US INC,IMPARK #87,EDWARD DANYLUK,2066848484           ,"910 8TH AV, SEATTLE, WA 98104",210,,,,,GARAGE,3,,,24,,,,,"https://lots.impark.com/imp?_ga=1.69261712.147180094.1470262460#details=25,87",,N,IMPARK,0,,,,,
-122.352266491209875,47.614976151696169,613,603330,645734,DIAMOND PARKING SERVICES LLC,DIAMOND PARKING #A311,JONATHAN DIAMOND,2062846303           ,"2708 ELLIOTT AV, SEATTLE, WA   98121",32,,,,,SURFACE LOT,,,,,,,,,http://www.diamondparking.com/find-parking-locations/details/?code=A311,,N,DIAMOND,0,,,,,
-122.3559349782646,47.614725239909703,614,453521,537050,WATERFRONT LLC,AQUA BY EL GAUCHO,VICKY MCCAFFREE,2069569171           ,"2801 ALASKAN WY, SEATTLE, WA   98121",112,,,,,,,,,,,,,,http://elgaucho.com/dine/aqua/,,Y,,0,,,,,
-122.323724594905769,47.608620781408085,615,675136,76133,REPUBLIC PARKING N W INC,REPUBLIC PARKING #30-594,GARY BECK,2067834144           ,"1124 COLUMBIA ST, SEATTLE, WA 98104",415,,,,,GARAGE,5,7,9,21,,,,,http://www.rpnw.com/lot/seattle/30-594,,N,,,,,,,
-122.334467445047437,47.603696423073735,616,604038,646200,INTERNATIONAL PARKING MGMT,IPM LOT # 39 - NORTON BUILDING,JOAN SUNDBERG,2062540811           ,"800 1ST AV, SEATTLE, WA   98104",289,,,,,GARAGE,8,11,14,24,,,,,http://www.ipmseattle.com/locations/lot.asp?id=479,,N,IPM,0,,,,,
-122.333879387616179,47.606147220313943,617,527328,589754,DIAMOND PARKING SERVICES LLC,DIAMOND PARKING #A-876,JONATHAN DIAMOND,2062846303           ,"1001 4TH AV, SEATTLE, WA   98154",584,,,,,GARAGE,,,,,,,,,http://www.diamondparking.com/find-parking-locations/details/?code=A876,,N,DIAMOND,0,,,,,
-122.349782509611188,47.618055578171855,618,614820,653862,DIAMOND PARKING SERVICES LLC,DIAMOND PARKING #A107,JONATHAN DIAMOND,2062843100           ,"2800 3RD AVE, SEATTLE, WA 98121",30,,,,,SURFACE LOT,,,,,,,,,http://www.diamondparking.com/find-parking-locations/details/?code=A107,,N,,,,,,,
-122.335331788917614,47.606553929090595,619,669702,692708,ACE PARKING MANAGEMENT INC,ACE PARKING LOT 3275 - 1111 3RD AVE GARAGE,BRYAN COLLINS,6192336624           ,"1111 3RD AVE, SEATTLE, WA 98101",366,,24 Hours,24 Hours,24 Hours,,,,,,,,,,http://www.aceparking.com/find-parking/,,N,,,,,,,
-122.351257698730592,47.61580431174751,620,634858,667845,DIAMOND PARKING SERVICES LLC,DIAMOND PARKING #A422,JONATHAN DIAMOND,2062843100           ,"2701 1ST AVE, SEATTLE, WA 98121",11,,,,,GARAGE,,,,,,,,,http://www.diamondparking.com/find-parking-locations/details/?code=A442,,N,,,,,,,
-122.340376320381637,47.607034089748289,621,656388,683126,DIAMOND PARKING SERVICES LLC,DIAMOND PARKING #A451,JONATHAN DIAMOND,2062843100           ,"1334 ALASKAN WAY, SEATTLE, WA 98101",8,,,,,SURFACE LOT,,,,,,,,,http://www.diamondparking.com/find-parking-locations/details/?code=A451,,N,,,,,,,
-122.353842465067771,47.617957177913212,622,652779,680535,DIAMOND PARKING SERVICES LLC,DIAMOND PARKING #A456,JONATHAN DIAMOND,2062843100           ,"3000 1ST AVE, SEATTLE, WA 98121",10,,,,,SURFACE LOT,,,,,,,,,http://www.diamondparking.com/find-parking-locations/details/?code=A456,,N,,,,,,,
-122.349782509611188,47.618055578171855,623,534496,593937,DIAMOND PARKING SERVICES LLC,DIAMOND  #A088,JONATHAN DIAMOND,2062843100           ,"2810 3RD AV, SEATTLE, WA   98121",40,,,,,SURFACE LOT,,,,,1,Diamond Parking Service,,,http://www.diamondparking.com/find-parking-locations/details/?code=A088,,N,DIAMOND,0,,,,,
-122.352786824019603,47.61792078644897,624,534750,593896,DIAMOND PARKING SERVICES LLC,DIAMOND PARKING A021,JONATHAN DIAMOND,2062843100           ,"2929 2ND AV, SEATTLE, WA   98121",28,,,,,SURFACE LOT,,,,,,,,,http://www.diamondparking.com/find-parking-locations/details/?code=A021,,N,DIAMOND,0,,,,,
-122.311758115111076,47.66398565540139,625,489475,562641,REPUBLIC PARKING N W INC,REPUBLIC PARKING #32,GARY BECK,2067834144           ,"4730 15TH AV NE, SEATTLE, WA   98115",64,University Christian Church,24 hours,24 hours,24 hours,SURFACE LOT,6,6,8,10,,,,,http://www.rpnw.com/lot/seattle/30-032,,N,REPUBLIC,0,,,,,
-122.293015766789935,47.662097770096715,626,519707,584055,DIAMOND PARKING SERVICES LLC,DIAMOND PARKING #WU80,JONATHAN DIAMOND,2062846303           ,"4518 UNION BAY PL NE, SEATTLE, WA   98115",34,Union Bay Plaza,,,,,,,,,,,,,http://www.diamondparking.com/find-parking-locations/details/?code=WU80,,N,DIAMOND,0,,,,,
-122.33039853038764,47.62984658026825,627,593715,638926,DIAMOND PARKING SERVICES LLC,DIAMOND PARKING #A048,JONATHAN DIAMOND,2062843100           ,"1111 FAIRVIEW AV N, SEATTLE, WA   98109",66,,,,,,,,,,,,,,http://www.diamondparking.com/find-parking-locations/details/?code=A048,,N,DIAMOND,0,,,,,
-122.376945960204424,47.638488924625996,628,594234,639316,DIAMOND PARKING SERVICES LLC,DIAMOND PARKING #A306,JONATHAN DIAMOND,2062843100           ,"1600 W ARMORY WY, SEATTLE, WA   98119",150,,,,,,,,,,,,,,,,N,DIAMOND,0,,,,,
-122.371018257714852,47.629137330136317,629,594514,639537,DIAMOND PARKING SERVICES LLC,DIAMOND PARKING #A312,JONATHAN DIAMOND,2062843100           ,"1110 ELLIOTT AV W, SEATTLE, WA   98119",13,,,,,SURFACE LOT,,,,,,,,,http://www.diamondparking.com/find-parking-locations/details/?code=A312,,N,DIAMOND,0,,,,,
-122.3208144112767,47.651411320920431,630,603355,645753,DIAMOND PARKING SERVICES LLC,DIAMOND PARKING #A327,JONATHAN DIAMOND,2062846303           ,"3272 FUHRMAN AV E, SEATTLE, WA   98102",15,,,,,,,,,,,,,,http://www.diamondparking.com/find-parking-locations/details/?code=A327,,N,DIAMOND,0,,,,,
-122.342540784840054,47.648675876861745,631,658083,684174,REPUBLIC PARKING N W INC,REPUBLIC PARKING #30*73 STONE 34,GARY BECK,2067834144           ,"3400 STONE WAY N, SEATTLE, WA 98103",218,Stone Way Lot,,,,GARAGE,4,7,11,15,,,,,http://www.rpnw.com/lot/seattle/30-081,,N,,,,,,,
-122.338061975798013,47.605470308839344,632,83090,76119,REPUBLIC PARKING N W INC,REPUBLIC PARKING #53,GARY BECK,2067834144           ,"1108 WESTERN AV, SEATTLE, WA   98101",121,,6:30am - 8:00pm,10:00am - 8:00pm,11:00am - 6:00pm,GARAGE,3,6,9,30,,,,,http://www.rpnw.com/lot/seattle/30-063,,N,WATERMARK TOWER GARAGE,20,N,102,,2017-10-01T16:51:56.000Z,G18
-122.335807115861755,47.606417119993694,633,669708,692709,ACE PARKING MANAGEMENT INC,ACE PARKING LOT 3274 - 2ND & SPRING GARAGE,BRYAN COLLINS,6192336624           ,"1100 2ND AVE, SEATTLE, WA 98101",69,,24 Hours,24 Hours,24 Hours,,,,,,,,,,http://www.aceparking.com/find-parking/,,N,,,,,,,
-122.343686939781662,47.615975123973264,634,588524,635176,DIAMOND PARKING SERVICES LLC,DIAMOND PARKING #A287,JONATHAN DIAMOND,2062846303           ,"2301 5TH AV, SEATTLE, WA   98121",213,,,,,GARAGE,,,,,,,,,http://www.diamondparking.com/find-parking-locations/details/?code=A287,,N,DIAMOND,0,,,,,
-122.33725682369095,47.615783223433702,635,635359,668193,SP PLUS CORPORATION,STANDARD PARKING #82190  WEST 8TH,BILL BEATTIE,2063818552           ,"2001 8TH AVE, SEATTLE, WA 98121",444,West 8th Parking,6:00am - 7:00pm,Closed,Closed,GARAGE,3.65,13.40,15.85,30.50,,,,,http://seattleparking.spplus.com/Seattle-West-8th-Parking.html,,N,,,,,,,
-122.34623738925842,47.615127545098161,636,630441,664859,DIAMOND PARKING SERVICES LLC,DIAMOND PARKING #A411,JONATHAN DIAMOND,2062843100           ,"2333 3RD AVE, SEATTLE, WA 98121",21,,,,,SURFACE LOT,,,,,,,,,http://www.diamondparking.com/find-parking-locations/details/?code=A411,,N,,,,,,,
-122.317100288342431,47.661512667896638,637,592002,637757,DIAMOND PARKING SERVICES LLC,DIAMOND PARKING #WU03,JONATHAN DIAMOND,2062846303           ,"1000 NE 45TH ST, SEATTLE, WA   98105",41,45th and Roosevelt,,,,SURFACE LOT,,,,,,,,,http://www.diamondparking.com/find-parking-locations/details/?code=WU03,,N,DIAMOND,0,,,,,
-122.320356362287555,47.661578206681412,638,574593,625131,DIAMOND PARKING SERVICES LLC,DIAMOND PARKING #WU19,JONATHAN DIAMOND,2062843100           ,"700 NE 45TH ST, SEATTLE, WA   98105",22,Seattle Go Center,,,,SURFACE LOT,,,,,,,,,http://www.diamondparking.com/find-parking-locations/details/?code=WU19,,N,DIAMOND,0,,,,,
-122.381267876886682,47.668501069999451,639,519705,584054,DIAMOND PARKING SERVICES LLC,DIAMOND PARKING #WU04,JONATHAN DIAMOND,2062846303           ,"1819 NW MARKET ST, SEATTLE, WA   98107",7,,,,,SURFACE LOT,,,,,,,,,http://www.diamondparking.com/find-parking-locations/details/?code=WU04,,N,DIAMOND,0,,,,,
-122.313867468641732,47.663461311208934,640,574712,625170,DIAMOND PARKING SERVICES LLC,DIAMOND PARKING #WU53,JONATHAN DIAMOND,2062843100           ,"4700 BROOKLYN AV NE, SEATTLE, WA   98105",10,U-District Chevron,,,,SURFACE LOT,,,,,1,Diamond Parking Service,,,http://www.diamondparking.com/find-parking-locations/details/?code=WU53,,N,DIAMOND,0,,,,,
-122.318735138269176,47.661751911173205,641,574589,625126,DIAMOND PARKING SERVICES LLC,DIAMOND PARKING #WU06,JONATHAN DIAMOND,2062843100           ,"4515 9TH AV NE, SEATTLE, WA   98105",42,9th and 45th,,,,SURFACE LOT,,,,,,,,,http://www.diamondparking.com/find-parking-locations/details/?code=WU06,,N,DIAMOND,0,,,,,
-122.31389365257732,47.664291580739778,642,591250,637245,DIAMOND PARKING SERVICES LLC,DIAMOND PARKING #WU57,JONATHAN DIAMOND,2062843100           ,"4732 BROOKLYN AV NE, SEATTLE, WA   98105",10,U-District Safeway,,,,SURFACE LOT,,,,,,Diamond Parking Service,,,http://www.diamondparking.com/find-parking-locations/details/?code=WU57,,N,DIAMOND,0,,,,,
-122.385124234079797,47.669287779632235,643,574591,625128,DIAMOND PARKING SERVICES LLC,DIAMOND PARKING #WU14,JONATHAN DIAMOND,2062843100           ,"5511 22ND AV NW, SEATTLE, WA   98107",24,,,,,SURFACE LOT,,,,,,,,,http://www.diamondparking.com/find-parking-locations/details/?code=WU14,,N,DIAMOND,0,,,,,
-122.334041986379773,47.661181088802032,644,574590,625127,DIAMOND PARKING SERVICES LLC,DIAMOND PARKING #WU15,JONATHAN DIAMOND,2062843100           ,"1919 N 45TH ST, SEATTLE, WA   98103",33,Wallingford Chase,,,,SURFACE LOT,,,,,,,,,http://www.diamondparking.com/find-parking-locations/details/?code=WU15,,N,DIAMOND,0,,,,,
-122.350459596615494,47.649851144531567,645,591246,637241,DIAMOND PARKING SERVICES LLC,DIAMOND PARKING #WU78,JONATHAN DIAMOND,2062843100           ,"620 N 34TH ST, SEATTLE, WA   98103",95,EPI Garage Building,,,,SURFACE LOT,,,,,,,,,http://www.diamondparking.com/find-parking-locations/details/?code=WU78,,N,DIAMOND,0,,,,,
-122.345518482681285,47.649183939055924,646,535686,596094,DIAMOND PARKING SERVICES LLC,DIAMOND PARKING #WU18,JONATHAN DIAMOND,2062843100           ,"936 N 34TH ST, SEATTLE, WA   98103",47,Freemont (U-Dist),,,,"GARAGE, SURFACE LOT",,,,,,,,,http://www.diamondparking.com/find-parking-locations/details/?code=WU18,,N,DIAMOND,0,,,,,
-122.386338987400038,47.669995458737574,647,588664,635360,DIAMOND PARKING SERVICES LLC,DIAMOND PARKING #WU21,JONATHAN DIAMOND,2062843100           ,"2237 NW 57TH ST, SEATTLE, WA   98107",45,,,,,SURFACE LOT,,,,,,,,,http://www.diamondparking.com/find-parking-locations/details/?code=WU21,,N,DIAMOND,0,,,,,
-122.295447794794342,47.662049241671696,648,591248,637243,DIAMOND PARKING SERVICES LLC,DIAMOND PARKING #WU25,JONATHAN DIAMOND,2062843100           ,"3020 NE 45TH ST, SEATTLE, WA   98105",15,U-Village Safeway,,,,SURFACE LOT,,,,,,,,,http://www.diamondparking.com/find-parking-locations/details/?code=WU25,,N,DIAMOND,0,,,,,
-122.313927106462884,47.66160065093267,649,574597,625132,DIAMOND PARKING SERVICES LLC,DIAMOND PARKING #WU50,JONATHAN DIAMOND,2062843100           ,"1300 NE 45TH ST, SEATTLE, WA 98105",51,U-District Key Bank,,,,GARAGE,,,,,,,,,http://www.diamondparking.com/find-parking-locations/details/?code=WU50,,N,DIAMOND,0,,,,,
-122.317016860578505,47.657693916386869,650,591247,637242,DIAMOND PARKING SERVICES LLC,DIAMOND PARKING #WU51,JONATHAN DIAMOND,2062843100           ,"4131 11TH AV NE, SEATTLE, WA   98105",18,College Place Apts,,,,SURFACE LOT,,,,,,,,,http://www.diamondparking.com/find-parking-locations/details/?code=WU51,,N,DIAMOND,0,,,,,
-122.324317677960309,47.680088607530685,651,652775,680533,REPUBLIC PARKING N W INC,REPUBLIC PARKING #30-070 GREEN LAKE VILLAGE,GARY BECK,2067834144           ,"7104 WOODLAWN AVE NE, SEATTLE, WA 98115",216,Green Lake Village,,,,GARAGE,,,,,,,,,http://www.rpnw.com/lot/seattle/30-070,,N,,,,,,,
-122.313447064158041,47.663824861542452,652,534456,593922,DIAMOND PARKING SERVICES LLC,DIAMOND #WU58,JONATHAN DIAMOND,2062843100           ,"4725 UNIVERSITY WY NE, SEATTLE, WA   98105",63,,,,,GARAGE,,,,,,Diamond Parking Service,,,http://www.diamondparking.com/find-parking-locations/details/?code=WU58,,N,DIAMOND,0,,,,,
-122.325346414403953,47.632068063348839,653,671796,76117,REPUBLIC PARKING N W INC,REPUBLIC PARKING #138,GARY BECK,2067834144           ,"219 E GALER ST, SEATTLE, WA 98102",134,E Galer,,,,SURFACE LOT,3,3,8,,,,,,http://www.rpnw.com/lot/seattle/30-138,,N,,,,,,,
-122.316959320085687,47.652456459855614,654,671798,585825,REPUBLIC PARKING N W INC,REPUBLIC PARKING #201,GARY BECK,2067834144           ,"1101 NE BOAT ST, SEATTLE, WA 98105",28,,,,,SURFACE LOT,,,,,,,,,http://www.rpnw.com/lot/seattle/30-201,,N,,,,,,,
-122.315595961341543,47.652519127117998,655,671799,76122,REPUBLIC PARKING N W INC,REPUBLIC PARKING #202,GARY BECK,2067834144           ,"1200 NE BOAT ST, SEATTLE, WA 98115",86,,,,,SURFACE LOT,,,,,,,,,http://www.rpnw.com/lot/seattle/30-202,,N,,,,,,,
-122.326989290195328,47.678313122727339,656,534528,593951,DIAMOND PARKING SERVICES LLC,DIAMOND #WU82,JONATHAN DIAMOND,2062843100           ,"6860 E GREEN LAKE WY N, SEATTLE, WA   98115",18,SPUDS,,,,SURFACE LOT,,,,,,,,,http://www.diamondparking.com/find-parking-locations/details/?code=WU82,,N,DIAMOND,0,,,,,
-122.31280755564876,47.650146903169883,657,671800,76124,REPUBLIC PARKING N W INC,REPUBLIC PARKING #203,GARY BECK,2067834144           ,"1401 NE BOAT ST, SEATTLE, WA 98105",310,,,,,SURFACE LOT,,,,,,,,,http://www.rpnw.com/lot/seattle/30-203,,N,,,,,,,
-122.349886935836821,47.615736020625306,658,83098,76123,REPUBLIC PARKING N W INC,REPUBLIC PARKING #515B,GARY BECK,2067834144           ,"2610 1ST AV, SEATTLE, WA   98121",56,,24 hours,24 hours,24 hours,SURFACE LOT,6,6,9,15,,,,,http://www.rpnw.com/lot/seattle/30-515B,,N,REPUBLIC,0,,,,,
